<?xml version="1.0" encoding="UTF-8" ?>
<gpx version="1.1" xmlns:xsi="http://www.w3.org/2001/XMLSchema-instance"
    xmlns="http://www.topografix.com/GPX/1/1"
    xsi:schemaLocation="http://www.topografix.com/GPX/1/1 http://www.topografix.com/GPX/1/1/gpx.xsd"
    creator="Openrunner - https://www.openrunner.com" >	<trk>
	                   <name>UCH MARCHE 5,3KM AOÛT 2026-23797173</name>
						<trkseg>
					<trkpt lat="50.693190" lon="2.915740">
						<ele>18</ele>
						<time>2026-07-24T20:25:20Z</time>
					</trkpt>
					<trkpt lat="50.693080" lon="2.915570">
						<ele>18</ele>
						<time>2026-07-24T20:25:32Z</time>
					</trkpt>
					<trkpt lat="50.693060" lon="2.915550">
						<ele>18</ele>
						<time>2026-07-24T20:25:34Z</time>
					</trkpt>
					<trkpt lat="50.693150" lon="2.915420">
						<ele>19</ele>
						<time>2026-07-24T20:25:44Z</time>
					</trkpt>
					<trkpt lat="50.693420" lon="2.914970">
						<ele>20</ele>
						<time>2026-07-24T20:26:15Z</time>
					</trkpt>
					<trkpt lat="50.693670" lon="2.914570">
						<ele>19</ele>
						<time>2026-07-24T20:26:44Z</time>
					</trkpt>
					<trkpt lat="50.693890" lon="2.914210">
						<ele>18</ele>
						<time>2026-07-24T20:27:09Z</time>
					</trkpt>
					<trkpt lat="50.693990" lon="2.914060">
						<ele>18</ele>
						<time>2026-07-24T20:27:20Z</time>
					</trkpt>
					<trkpt lat="50.693650" lon="2.913430">
						<ele>18</ele>
						<time>2026-07-24T20:28:02Z</time>
					</trkpt>
					<trkpt lat="50.693690" lon="2.913360">
						<ele>18</ele>
						<time>2026-07-24T20:28:07Z</time>
					</trkpt>
					<trkpt lat="50.694170" lon="2.912580">
						<ele>18</ele>
						<time>2026-07-24T20:29:02Z</time>
					</trkpt>
					<trkpt lat="50.694250" lon="2.912430">
						<ele>18</ele>
						<time>2026-07-24T20:29:12Z</time>
					</trkpt>
					<trkpt lat="50.694380" lon="2.912130">
						<ele>17</ele>
						<time>2026-07-24T20:29:31Z</time>
					</trkpt>
					<trkpt lat="50.694620" lon="2.911650">
						<ele>17</ele>
						<time>2026-07-24T20:30:02Z</time>
					</trkpt>
					<trkpt lat="50.694630" lon="2.911670">
						<ele>17</ele>
						<time>2026-07-24T20:30:03Z</time>
					</trkpt>
					<trkpt lat="50.694620" lon="2.911650">
						<ele>17</ele>
						<time>2026-07-24T20:30:04Z</time>
					</trkpt>
					<trkpt lat="50.694650" lon="2.911560">
						<ele>17</ele>
						<time>2026-07-24T20:30:09Z</time>
					</trkpt>
					<trkpt lat="50.694690" lon="2.911440">
						<ele>16</ele>
						<time>2026-07-24T20:30:16Z</time>
					</trkpt>
					<trkpt lat="50.694760" lon="2.910880">
						<ele>15</ele>
						<time>2026-07-24T20:30:45Z</time>
					</trkpt>
					<trkpt lat="50.694780" lon="2.910650">
						<ele>15</ele>
						<time>2026-07-24T20:30:57Z</time>
					</trkpt>
					<trkpt lat="50.694820" lon="2.910470">
						<ele>14</ele>
						<time>2026-07-24T20:31:07Z</time>
					</trkpt>
					<trkpt lat="50.694840" lon="2.910390">
						<ele>14</ele>
						<time>2026-07-24T20:31:11Z</time>
					</trkpt>
					<trkpt lat="50.694880" lon="2.910290">
						<ele>14</ele>
						<time>2026-07-24T20:31:17Z</time>
					</trkpt>
					<trkpt lat="50.694930" lon="2.910190">
						<ele>14</ele>
						<time>2026-07-24T20:31:23Z</time>
					</trkpt>
					<trkpt lat="50.694990" lon="2.910090">
						<ele>14</ele>
						<time>2026-07-24T20:31:30Z</time>
					</trkpt>
					<trkpt lat="50.695020" lon="2.910050">
						<ele>14</ele>
						<time>2026-07-24T20:31:34Z</time>
					</trkpt>
					<trkpt lat="50.695460" lon="2.909400">
						<ele>13</ele>
						<time>2026-07-24T20:32:22Z</time>
					</trkpt>
					<trkpt lat="50.695610" lon="2.909180">
						<ele>13</ele>
						<time>2026-07-24T20:32:38Z</time>
					</trkpt>
					<trkpt lat="50.695660" lon="2.909100">
						<ele>13</ele>
						<time>2026-07-24T20:32:44Z</time>
					</trkpt>
					<trkpt lat="50.695610" lon="2.909180">
						<ele>13</ele>
						<time>2026-07-24T20:32:50Z</time>
					</trkpt>
					<trkpt lat="50.695600" lon="2.909170">
						<ele>13</ele>
						<time>2026-07-24T20:32:51Z</time>
					</trkpt>
					<trkpt lat="50.695610" lon="2.909180">
						<ele>13</ele>
						<time>2026-07-24T20:32:52Z</time>
					</trkpt>
					<trkpt lat="50.695660" lon="2.909100">
						<ele>13</ele>
						<time>2026-07-24T20:32:57Z</time>
					</trkpt>
					<trkpt lat="50.695690" lon="2.909060">
						<ele>13</ele>
						<time>2026-07-24T20:33:00Z</time>
					</trkpt>
					<trkpt lat="50.696110" lon="2.908430">
						<ele>12</ele>
						<time>2026-07-24T20:33:47Z</time>
					</trkpt>
					<trkpt lat="50.696160" lon="2.908350">
						<ele>12</ele>
						<time>2026-07-24T20:33:53Z</time>
					</trkpt>
					<trkpt lat="50.696660" lon="2.907610">
						<ele>12</ele>
						<time>2026-07-24T20:34:47Z</time>
					</trkpt>
					<trkpt lat="50.696610" lon="2.907590">
						<ele>12</ele>
						<time>2026-07-24T20:34:52Z</time>
					</trkpt>
					<trkpt lat="50.696570" lon="2.907600">
						<ele>12</ele>
						<time>2026-07-24T20:34:55Z</time>
					</trkpt>
					<trkpt lat="50.696520" lon="2.907620">
						<ele>12</ele>
						<time>2026-07-24T20:34:59Z</time>
					</trkpt>
					<trkpt lat="50.695960" lon="2.908280">
						<ele>13</ele>
						<time>2026-07-24T20:35:55Z</time>
					</trkpt>
					<trkpt lat="50.695920" lon="2.908310">
						<ele>13</ele>
						<time>2026-07-24T20:35:58Z</time>
					</trkpt>
					<trkpt lat="50.695860" lon="2.908320">
						<ele>13</ele>
						<time>2026-07-24T20:36:03Z</time>
					</trkpt>
					<trkpt lat="50.695810" lon="2.908300">
						<ele>13</ele>
						<time>2026-07-24T20:36:07Z</time>
					</trkpt>
					<trkpt lat="50.695360" lon="2.907870">
						<ele>12</ele>
						<time>2026-07-24T20:36:49Z</time>
					</trkpt>
					<trkpt lat="50.695070" lon="2.907520">
						<ele>10</ele>
						<time>2026-07-24T20:37:19Z</time>
					</trkpt>
					<trkpt lat="50.694810" lon="2.907160">
						<ele>10</ele>
						<time>2026-07-24T20:37:46Z</time>
					</trkpt>
					<trkpt lat="50.694590" lon="2.906830">
						<ele>10</ele>
						<time>2026-07-24T20:38:11Z</time>
					</trkpt>
					<trkpt lat="50.694370" lon="2.906420">
						<ele>9</ele>
						<time>2026-07-24T20:38:38Z</time>
					</trkpt>
					<trkpt lat="50.694190" lon="2.906030">
						<ele>9</ele>
						<time>2026-07-24T20:39:02Z</time>
					</trkpt>
					<trkpt lat="50.694070" lon="2.905720">
						<ele>9</ele>
						<time>2026-07-24T20:39:21Z</time>
					</trkpt>
					<trkpt lat="50.693930" lon="2.905310">
						<ele>9</ele>
						<time>2026-07-24T20:39:44Z</time>
					</trkpt>
					<trkpt lat="50.693810" lon="2.904900">
						<ele>10</ele>
						<time>2026-07-24T20:40:07Z</time>
					</trkpt>
					<trkpt lat="50.693720" lon="2.904500">
						<ele>11</ele>
						<time>2026-07-24T20:40:29Z</time>
					</trkpt>
					<trkpt lat="50.693600" lon="2.903910">
						<ele>12</ele>
						<time>2026-07-24T20:41:00Z</time>
					</trkpt>
					<trkpt lat="50.693530" lon="2.903440">
						<ele>12</ele>
						<time>2026-07-24T20:41:25Z</time>
					</trkpt>
					<trkpt lat="50.693500" lon="2.903010">
						<ele>12</ele>
						<time>2026-07-24T20:41:47Z</time>
					</trkpt>
					<trkpt lat="50.693470" lon="2.902900">
						<ele>12</ele>
						<time>2026-07-24T20:41:53Z</time>
					</trkpt>
					<trkpt lat="50.693450" lon="2.902650">
						<ele>12</ele>
						<time>2026-07-24T20:42:06Z</time>
					</trkpt>
					<trkpt lat="50.693440" lon="2.902590">
						<ele>12</ele>
						<time>2026-07-24T20:42:09Z</time>
					</trkpt>
					<trkpt lat="50.693430" lon="2.902320">
						<ele>12</ele>
						<time>2026-07-24T20:42:22Z</time>
					</trkpt>
					<trkpt lat="50.693430" lon="2.901890">
						<ele>12</ele>
						<time>2026-07-24T20:42:44Z</time>
					</trkpt>
					<trkpt lat="50.693440" lon="2.901610">
						<ele>11</ele>
						<time>2026-07-24T20:42:59Z</time>
					</trkpt>
					<trkpt lat="50.693480" lon="2.900690">
						<ele>11</ele>
						<time>2026-07-24T20:43:45Z</time>
					</trkpt>
					<trkpt lat="50.693490" lon="2.899990">
						<ele>10</ele>
						<time>2026-07-24T20:44:21Z</time>
					</trkpt>
					<trkpt lat="50.693480" lon="2.899550">
						<ele>10</ele>
						<time>2026-07-24T20:44:43Z</time>
					</trkpt>
					<trkpt lat="50.693460" lon="2.899220">
						<ele>10</ele>
						<time>2026-07-24T20:45:00Z</time>
					</trkpt>
					<trkpt lat="50.693380" lon="2.898320">
						<ele>12</ele>
						<time>2026-07-24T20:45:46Z</time>
					</trkpt>
					<trkpt lat="50.693380" lon="2.898150">
						<ele>12</ele>
						<time>2026-07-24T20:45:55Z</time>
					</trkpt>
					<trkpt lat="50.693380" lon="2.898040">
						<ele>12</ele>
						<time>2026-07-24T20:46:00Z</time>
					</trkpt>
					<trkpt lat="50.693380" lon="2.897940">
						<ele>12</ele>
						<time>2026-07-24T20:46:05Z</time>
					</trkpt>
					<trkpt lat="50.693290" lon="2.896950">
						<ele>13</ele>
						<time>2026-07-24T20:46:56Z</time>
					</trkpt>
					<trkpt lat="50.693220" lon="2.896500">
						<ele>13</ele>
						<time>2026-07-24T20:47:20Z</time>
					</trkpt>
					<trkpt lat="50.693080" lon="2.895750">
						<ele>13</ele>
						<time>2026-07-24T20:47:59Z</time>
					</trkpt>
					<trkpt lat="50.692910" lon="2.895000">
						<ele>13</ele>
						<time>2026-07-24T20:48:40Z</time>
					</trkpt>
					<trkpt lat="50.692830" lon="2.894570">
						<ele>13</ele>
						<time>2026-07-24T20:49:02Z</time>
					</trkpt>
					<trkpt lat="50.692820" lon="2.894430">
						<ele>13</ele>
						<time>2026-07-24T20:49:09Z</time>
					</trkpt>
					<trkpt lat="50.692830" lon="2.894370">
						<ele>13</ele>
						<time>2026-07-24T20:49:13Z</time>
					</trkpt>
					<trkpt lat="50.692850" lon="2.894280">
						<ele>13</ele>
						<time>2026-07-24T20:49:17Z</time>
					</trkpt>
					<trkpt lat="50.692890" lon="2.894210">
						<ele>13</ele>
						<time>2026-07-24T20:49:22Z</time>
					</trkpt>
					<trkpt lat="50.692950" lon="2.894180">
						<ele>14</ele>
						<time>2026-07-24T20:49:27Z</time>
					</trkpt>
					<trkpt lat="50.693290" lon="2.894050">
						<ele>14</ele>
						<time>2026-07-24T20:49:55Z</time>
					</trkpt>
					<trkpt lat="50.693620" lon="2.893880">
						<ele>14</ele>
						<time>2026-07-24T20:50:23Z</time>
					</trkpt>
					<trkpt lat="50.693680" lon="2.893830">
						<ele>14</ele>
						<time>2026-07-24T20:50:29Z</time>
					</trkpt>
					<trkpt lat="50.693770" lon="2.893730">
						<ele>14</ele>
						<time>2026-07-24T20:50:37Z</time>
					</trkpt>
					<trkpt lat="50.693650" lon="2.893780">
						<ele>14</ele>
						<time>2026-07-24T20:50:47Z</time>
					</trkpt>
					<trkpt lat="50.693600" lon="2.893800">
						<ele>14</ele>
						<time>2026-07-24T20:50:51Z</time>
					</trkpt>
					<trkpt lat="50.693390" lon="2.893870">
						<ele>14</ele>
						<time>2026-07-24T20:51:09Z</time>
					</trkpt>
					<trkpt lat="50.692990" lon="2.893970">
						<ele>13</ele>
						<time>2026-07-24T20:51:41Z</time>
					</trkpt>
					<trkpt lat="50.692840" lon="2.894010">
						<ele>13</ele>
						<time>2026-07-24T20:51:53Z</time>
					</trkpt>
					<trkpt lat="50.692760" lon="2.894020">
						<ele>13</ele>
						<time>2026-07-24T20:52:00Z</time>
					</trkpt>
					<trkpt lat="50.692390" lon="2.894110">
						<ele>13</ele>
						<time>2026-07-24T20:52:30Z</time>
					</trkpt>
					<trkpt lat="50.692290" lon="2.894120">
						<ele>14</ele>
						<time>2026-07-24T20:52:38Z</time>
					</trkpt>
					<trkpt lat="50.692290" lon="2.894120">
						<ele>14</ele>
						<time>2026-07-24T20:52:38Z</time>
					</trkpt>
					<trkpt lat="50.692290" lon="2.894190">
						<ele>14</ele>
						<time>2026-07-24T20:52:41Z</time>
					</trkpt>
					<trkpt lat="50.692340" lon="2.894540">
						<ele>13</ele>
						<time>2026-07-24T20:52:59Z</time>
					</trkpt>
					<trkpt lat="50.692430" lon="2.895020">
						<ele>12</ele>
						<time>2026-07-24T20:53:25Z</time>
					</trkpt>
					<trkpt lat="50.692390" lon="2.895050">
						<ele>13</ele>
						<time>2026-07-24T20:53:28Z</time>
					</trkpt>
					<trkpt lat="50.692350" lon="2.895080">
						<ele>13</ele>
						<time>2026-07-24T20:53:32Z</time>
					</trkpt>
					<trkpt lat="50.692310" lon="2.894960">
						<ele>13</ele>
						<time>2026-07-24T20:53:39Z</time>
					</trkpt>
					<trkpt lat="50.692190" lon="2.894910">
						<ele>14</ele>
						<time>2026-07-24T20:53:49Z</time>
					</trkpt>
					<trkpt lat="50.692070" lon="2.894930">
						<ele>15</ele>
						<time>2026-07-24T20:53:58Z</time>
					</trkpt>
					<trkpt lat="50.691240" lon="2.895320">
						<ele>15</ele>
						<time>2026-07-24T20:55:08Z</time>
					</trkpt>
					<trkpt lat="50.691080" lon="2.895540">
						<ele>14</ele>
						<time>2026-07-24T20:55:25Z</time>
					</trkpt>
					<trkpt lat="50.690970" lon="2.895870">
						<ele>13</ele>
						<time>2026-07-24T20:55:44Z</time>
					</trkpt>
					<trkpt lat="50.690950" lon="2.896010">
						<ele>13</ele>
						<time>2026-07-24T20:55:51Z</time>
					</trkpt>
					<trkpt lat="50.690940" lon="2.896030">
						<ele>13</ele>
						<time>2026-07-24T20:55:52Z</time>
					</trkpt>
					<trkpt lat="50.690930" lon="2.896090">
						<ele>13</ele>
						<time>2026-07-24T20:55:55Z</time>
					</trkpt>
					<trkpt lat="50.690950" lon="2.896330">
						<ele>13</ele>
						<time>2026-07-24T20:56:08Z</time>
					</trkpt>
					<trkpt lat="50.690990" lon="2.896470">
						<ele>13</ele>
						<time>2026-07-24T20:56:15Z</time>
					</trkpt>
					<trkpt lat="50.691070" lon="2.896710">
						<ele>13</ele>
						<time>2026-07-24T20:56:29Z</time>
					</trkpt>
					<trkpt lat="50.691160" lon="2.896940">
						<ele>14</ele>
						<time>2026-07-24T20:56:43Z</time>
					</trkpt>
					<trkpt lat="50.691230" lon="2.897030">
						<ele>14</ele>
						<time>2026-07-24T20:56:50Z</time>
					</trkpt>
					<trkpt lat="50.691360" lon="2.897330">
						<ele>15</ele>
						<time>2026-07-24T20:57:08Z</time>
					</trkpt>
					<trkpt lat="50.691590" lon="2.897940">
						<ele>15</ele>
						<time>2026-07-24T20:57:44Z</time>
					</trkpt>
					<trkpt lat="50.691750" lon="2.898340">
						<ele>16</ele>
						<time>2026-07-24T20:58:08Z</time>
					</trkpt>
					<trkpt lat="50.691800" lon="2.898550">
						<ele>16</ele>
						<time>2026-07-24T20:58:20Z</time>
					</trkpt>
					<trkpt lat="50.691750" lon="2.898960">
						<ele>16</ele>
						<time>2026-07-24T20:58:41Z</time>
					</trkpt>
					<trkpt lat="50.691760" lon="2.899080">
						<ele>16</ele>
						<time>2026-07-24T20:58:47Z</time>
					</trkpt>
					<trkpt lat="50.691740" lon="2.899310">
						<ele>16</ele>
						<time>2026-07-24T20:58:59Z</time>
					</trkpt>
					<trkpt lat="50.691700" lon="2.899400">
						<ele>16</ele>
						<time>2026-07-24T20:59:05Z</time>
					</trkpt>
					<trkpt lat="50.691640" lon="2.899460">
						<ele>16</ele>
						<time>2026-07-24T20:59:10Z</time>
					</trkpt>
					<trkpt lat="50.691490" lon="2.899570">
						<ele>15</ele>
						<time>2026-07-24T20:59:23Z</time>
					</trkpt>
					<trkpt lat="50.691430" lon="2.899690">
						<ele>15</ele>
						<time>2026-07-24T20:59:31Z</time>
					</trkpt>
					<trkpt lat="50.691340" lon="2.899620">
						<ele>15</ele>
						<time>2026-07-24T20:59:39Z</time>
					</trkpt>
					<trkpt lat="50.691020" lon="2.899820">
						<ele>14</ele>
						<time>2026-07-24T21:00:07Z</time>
					</trkpt>
					<trkpt lat="50.690990" lon="2.899840">
						<ele>14</ele>
						<time>2026-07-24T21:00:09Z</time>
					</trkpt>
					<trkpt lat="50.689670" lon="2.900700">
						<ele>16</ele>
						<time>2026-07-24T21:02:04Z</time>
					</trkpt>
					<trkpt lat="50.688710" lon="2.901320">
						<ele>18</ele>
						<time>2026-07-24T21:03:27Z</time>
					</trkpt>
					<trkpt lat="50.688220" lon="2.901670">
						<ele>19</ele>
						<time>2026-07-24T21:04:10Z</time>
					</trkpt>
					<trkpt lat="50.688090" lon="2.901770">
						<ele>19</ele>
						<time>2026-07-24T21:04:21Z</time>
					</trkpt>
					<trkpt lat="50.687500" lon="2.902200">
						<ele>20</ele>
						<time>2026-07-24T21:05:13Z</time>
					</trkpt>
					<trkpt lat="50.687500" lon="2.902200">
						<ele>20</ele>
						<time>2026-07-24T21:05:13Z</time>
					</trkpt>
					<trkpt lat="50.687500" lon="2.902200">
						<ele>20</ele>
						<time>2026-07-24T21:05:13Z</time>
					</trkpt>
					<trkpt lat="50.687550" lon="2.902380">
						<ele>21</ele>
						<time>2026-07-24T21:05:23Z</time>
					</trkpt>
					<trkpt lat="50.687560" lon="2.902450">
						<ele>21</ele>
						<time>2026-07-24T21:05:27Z</time>
					</trkpt>
					<trkpt lat="50.687600" lon="2.902480">
						<ele>21</ele>
						<time>2026-07-24T21:05:31Z</time>
					</trkpt>
					<trkpt lat="50.687670" lon="2.902730">
						<ele>20</ele>
						<time>2026-07-24T21:05:45Z</time>
					</trkpt>
					<trkpt lat="50.687740" lon="2.903140">
						<ele>19</ele>
						<time>2026-07-24T21:06:06Z</time>
					</trkpt>
					<trkpt lat="50.687760" lon="2.903170">
						<ele>18</ele>
						<time>2026-07-24T21:06:08Z</time>
					</trkpt>
					<trkpt lat="50.688570" lon="2.902780">
						<ele>18</ele>
						<time>2026-07-24T21:07:16Z</time>
					</trkpt>
					<trkpt lat="50.688730" lon="2.902750">
						<ele>18</ele>
						<time>2026-07-24T21:07:29Z</time>
					</trkpt>
					<trkpt lat="50.688910" lon="2.902680">
						<ele>18</ele>
						<time>2026-07-24T21:07:44Z</time>
					</trkpt>
					<trkpt lat="50.688920" lon="2.902900">
						<ele>17</ele>
						<time>2026-07-24T21:07:55Z</time>
					</trkpt>
					<trkpt lat="50.689060" lon="2.902870">
						<ele>17</ele>
						<time>2026-07-24T21:08:06Z</time>
					</trkpt>
					<trkpt lat="50.689200" lon="2.902850">
						<ele>17</ele>
						<time>2026-07-24T21:08:18Z</time>
					</trkpt>
					<trkpt lat="50.689300" lon="2.902830">
						<ele>17</ele>
						<time>2026-07-24T21:08:26Z</time>
					</trkpt>
					<trkpt lat="50.689310" lon="2.902900">
						<ele>17</ele>
						<time>2026-07-24T21:08:29Z</time>
					</trkpt>
					<trkpt lat="50.689760" lon="2.902820">
						<ele>16</ele>
						<time>2026-07-24T21:09:06Z</time>
					</trkpt>
					<trkpt lat="50.689770" lon="2.902930">
						<ele>16</ele>
						<time>2026-07-24T21:09:11Z</time>
					</trkpt>
					<trkpt lat="50.690930" lon="2.902720">
						<ele>15</ele>
						<time>2026-07-24T21:10:45Z</time>
					</trkpt>
					<trkpt lat="50.691180" lon="2.902720">
						<ele>16</ele>
						<time>2026-07-24T21:11:05Z</time>
					</trkpt>
					<trkpt lat="50.691320" lon="2.902800">
						<ele>16</ele>
						<time>2026-07-24T21:11:17Z</time>
					</trkpt>
					<trkpt lat="50.691430" lon="2.903030">
						<ele>16</ele>
						<time>2026-07-24T21:11:31Z</time>
					</trkpt>
					<trkpt lat="50.691430" lon="2.903030">
						<ele>16</ele>
						<time>2026-07-24T21:11:31Z</time>
					</trkpt>
					<trkpt lat="50.691430" lon="2.903030">
						<ele>16</ele>
						<time>2026-07-24T21:11:31Z</time>
					</trkpt>
					<trkpt lat="50.692770" lon="2.902890">
						<ele>13</ele>
						<time>2026-07-24T21:13:19Z</time>
					</trkpt>
					<trkpt lat="50.692780" lon="2.902890">
						<ele>13</ele>
						<time>2026-07-24T21:13:20Z</time>
					</trkpt>
					<trkpt lat="50.692770" lon="2.902890">
						<ele>13</ele>
						<time>2026-07-24T21:13:20Z</time>
					</trkpt>
					<trkpt lat="50.692960" lon="2.902760">
						<ele>13</ele>
						<time>2026-07-24T21:13:37Z</time>
					</trkpt>
					<trkpt lat="50.693060" lon="2.902550">
						<ele>13</ele>
						<time>2026-07-24T21:13:50Z</time>
					</trkpt>
					<trkpt lat="50.693140" lon="2.902490">
						<ele>12</ele>
						<time>2026-07-24T21:13:57Z</time>
					</trkpt>
					<trkpt lat="50.693160" lon="2.902470">
						<ele>12</ele>
						<time>2026-07-24T21:13:59Z</time>
					</trkpt>
					<trkpt lat="50.693170" lon="2.902940">
						<ele>12</ele>
						<time>2026-07-24T21:14:23Z</time>
					</trkpt>
					<trkpt lat="50.693140" lon="2.903050">
						<ele>12</ele>
						<time>2026-07-24T21:14:29Z</time>
					</trkpt>
					<trkpt lat="50.693170" lon="2.903540">
						<ele>12</ele>
						<time>2026-07-24T21:14:54Z</time>
					</trkpt>
					<trkpt lat="50.693230" lon="2.903990">
						<ele>12</ele>
						<time>2026-07-24T21:15:17Z</time>
					</trkpt>
					<trkpt lat="50.693280" lon="2.904250">
						<ele>12</ele>
						<time>2026-07-24T21:15:31Z</time>
					</trkpt>
					<trkpt lat="50.693340" lon="2.904560">
						<ele>12</ele>
						<time>2026-07-24T21:15:48Z</time>
					</trkpt>
					<trkpt lat="50.693620" lon="2.905570">
						<ele>9</ele>
						<time>2026-07-24T21:16:44Z</time>
					</trkpt>
					<trkpt lat="50.693720" lon="2.905860">
						<ele>9</ele>
						<time>2026-07-24T21:17:00Z</time>
					</trkpt>
					<trkpt lat="50.693900" lon="2.906340">
						<ele>9</ele>
						<time>2026-07-24T21:17:29Z</time>
					</trkpt>
					<trkpt lat="50.694020" lon="2.906600">
						<ele>9</ele>
						<time>2026-07-24T21:17:45Z</time>
					</trkpt>
					<trkpt lat="50.694130" lon="2.906860">
						<ele>9</ele>
						<time>2026-07-24T21:18:01Z</time>
					</trkpt>
					<trkpt lat="50.694290" lon="2.907140">
						<ele>10</ele>
						<time>2026-07-24T21:18:20Z</time>
					</trkpt>
					<trkpt lat="50.694320" lon="2.907240">
						<ele>10</ele>
						<time>2026-07-24T21:18:26Z</time>
					</trkpt>
					<trkpt lat="50.694360" lon="2.907420">
						<ele>10</ele>
						<time>2026-07-24T21:18:35Z</time>
					</trkpt>
					<trkpt lat="50.694490" lon="2.907890">
						<ele>11</ele>
						<time>2026-07-24T21:19:01Z</time>
					</trkpt>
					<trkpt lat="50.694540" lon="2.908010">
						<ele>11</ele>
						<time>2026-07-24T21:19:09Z</time>
					</trkpt>
					<trkpt lat="50.694570" lon="2.908140">
						<ele>12</ele>
						<time>2026-07-24T21:19:16Z</time>
					</trkpt>
					<trkpt lat="50.694550" lon="2.908260">
						<ele>12</ele>
						<time>2026-07-24T21:19:22Z</time>
					</trkpt>
					<trkpt lat="50.694560" lon="2.908460">
						<ele>12</ele>
						<time>2026-07-24T21:19:32Z</time>
					</trkpt>
					<trkpt lat="50.694640" lon="2.908830">
						<ele>13</ele>
						<time>2026-07-24T21:19:52Z</time>
					</trkpt>
					<trkpt lat="50.694650" lon="2.908860">
						<ele>13</ele>
						<time>2026-07-24T21:19:54Z</time>
					</trkpt>
					<trkpt lat="50.694850" lon="2.908810">
						<ele>13</ele>
						<time>2026-07-24T21:20:10Z</time>
					</trkpt>
					<trkpt lat="50.694990" lon="2.908790">
						<ele>13</ele>
						<time>2026-07-24T21:20:21Z</time>
					</trkpt>
					<trkpt lat="50.695110" lon="2.908820">
						<ele>13</ele>
						<time>2026-07-24T21:20:31Z</time>
					</trkpt>
					<trkpt lat="50.695270" lon="2.908890">
						<ele>13</ele>
						<time>2026-07-24T21:20:44Z</time>
					</trkpt>
					<trkpt lat="50.695450" lon="2.909010">
						<ele>13</ele>
						<time>2026-07-24T21:21:00Z</time>
					</trkpt>
					<trkpt lat="50.695600" lon="2.909170">
						<ele>13</ele>
						<time>2026-07-24T21:21:14Z</time>
					</trkpt>
					<trkpt lat="50.695610" lon="2.909180">
						<ele>13</ele>
						<time>2026-07-24T21:21:15Z</time>
					</trkpt>
					<trkpt lat="50.695460" lon="2.909400">
						<ele>13</ele>
						<time>2026-07-24T21:21:32Z</time>
					</trkpt>
					<trkpt lat="50.695020" lon="2.910050">
						<ele>14</ele>
						<time>2026-07-24T21:22:20Z</time>
					</trkpt>
					<trkpt lat="50.694990" lon="2.910090">
						<ele>14</ele>
						<time>2026-07-24T21:22:23Z</time>
					</trkpt>
					<trkpt lat="50.694930" lon="2.910190">
						<ele>14</ele>
						<time>2026-07-24T21:22:30Z</time>
					</trkpt>
					<trkpt lat="50.694880" lon="2.910290">
						<ele>14</ele>
						<time>2026-07-24T21:22:36Z</time>
					</trkpt>
					<trkpt lat="50.694840" lon="2.910390">
						<ele>14</ele>
						<time>2026-07-24T21:22:42Z</time>
					</trkpt>
					<trkpt lat="50.694820" lon="2.910470">
						<ele>14</ele>
						<time>2026-07-24T21:22:47Z</time>
					</trkpt>
					<trkpt lat="50.694780" lon="2.910650">
						<ele>15</ele>
						<time>2026-07-24T21:22:56Z</time>
					</trkpt>
					<trkpt lat="50.694760" lon="2.910880">
						<ele>15</ele>
						<time>2026-07-24T21:23:08Z</time>
					</trkpt>
					<trkpt lat="50.694690" lon="2.911440">
						<ele>16</ele>
						<time>2026-07-24T21:23:37Z</time>
					</trkpt>
					<trkpt lat="50.694650" lon="2.911560">
						<ele>17</ele>
						<time>2026-07-24T21:23:44Z</time>
					</trkpt>
					<trkpt lat="50.694620" lon="2.911650">
						<ele>17</ele>
						<time>2026-07-24T21:23:49Z</time>
					</trkpt>
					<trkpt lat="50.694380" lon="2.912130">
						<ele>17</ele>
						<time>2026-07-24T21:24:20Z</time>
					</trkpt>
					<trkpt lat="50.694250" lon="2.912430">
						<ele>18</ele>
						<time>2026-07-24T21:24:39Z</time>
					</trkpt>
					<trkpt lat="50.694170" lon="2.912580">
						<ele>18</ele>
						<time>2026-07-24T21:24:49Z</time>
					</trkpt>
					<trkpt lat="50.693690" lon="2.913360">
						<ele>18</ele>
						<time>2026-07-24T21:25:44Z</time>
					</trkpt>
					<trkpt lat="50.693650" lon="2.913430">
						<ele>18</ele>
						<time>2026-07-24T21:25:48Z</time>
					</trkpt>
					<trkpt lat="50.693990" lon="2.914060">
						<ele>18</ele>
						<time>2026-07-24T21:26:30Z</time>
					</trkpt>
					<trkpt lat="50.693890" lon="2.914210">
						<ele>18</ele>
						<time>2026-07-24T21:26:42Z</time>
					</trkpt>
					<trkpt lat="50.693670" lon="2.914570">
						<ele>19</ele>
						<time>2026-07-24T21:27:07Z</time>
					</trkpt>
					<trkpt lat="50.693420" lon="2.914970">
						<ele>20</ele>
						<time>2026-07-24T21:27:35Z</time>
					</trkpt>
					<trkpt lat="50.693150" lon="2.915420">
						<ele>19</ele>
						<time>2026-07-24T21:28:07Z</time>
					</trkpt>
					<trkpt lat="50.693280" lon="2.915620">
						<ele>18</ele>
						<time>2026-07-24T21:28:21Z</time>
					</trkpt>
					<trkpt lat="50.693260" lon="2.915650">
						<ele>18</ele>
						<time>2026-07-24T21:28:24Z</time>
					</trkpt>
					</trkseg>
				</trk>
			</gpx>
