<?xml version="1.0" encoding="UTF-8" ?>
<gpx version="1.1" xmlns:xsi="http://www.w3.org/2001/XMLSchema-instance"
    xmlns="http://www.topografix.com/GPX/1/1"
    xsi:schemaLocation="http://www.topografix.com/GPX/1/1 http://www.topografix.com/GPX/1/1/gpx.xsd"
    creator="Openrunner - https://www.openrunner.com" >
                <wpt lat="50.776754" lon="2.818012">
                        <ele>0</ele>
                        <name><![CDATA[RAVITO]]></name>
                        <desc><![CDATA[]]></desc>
                    <sym>1</sym>
                </wpt>
            	<trk>
	                   <name>UCH VTT 64KM AOÛT 2026-24470268</name>
						<trkseg>
					<trkpt lat="50.693160" lon="2.915700">
						<ele>18</ele>
						<time>2026-07-24T20:24:39Z</time>
					</trkpt>
					<trkpt lat="50.693090" lon="2.915580">
						<ele>18</ele>
						<time>2026-07-24T20:24:41Z</time>
					</trkpt>
					<trkpt lat="50.692750" lon="2.915970">
						<ele>17</ele>
						<time>2026-07-24T20:24:51Z</time>
					</trkpt>
					<trkpt lat="50.692370" lon="2.915520">
						<ele>18</ele>
						<time>2026-07-24T20:25:02Z</time>
					</trkpt>
					<trkpt lat="50.692180" lon="2.915750">
						<ele>18</ele>
						<time>2026-07-24T20:25:08Z</time>
					</trkpt>
					<trkpt lat="50.692080" lon="2.915730">
						<ele>18</ele>
						<time>2026-07-24T20:25:10Z</time>
					</trkpt>
					<trkpt lat="50.691830" lon="2.915440">
						<ele>18</ele>
						<time>2026-07-24T20:25:18Z</time>
					</trkpt>
					<trkpt lat="50.691500" lon="2.914850">
						<ele>19</ele>
						<time>2026-07-24T20:25:29Z</time>
					</trkpt>
					<trkpt lat="50.691660" lon="2.914520">
						<ele>18</ele>
						<time>2026-07-24T20:25:35Z</time>
					</trkpt>
					<trkpt lat="50.692150" lon="2.913740">
						<ele>18</ele>
						<time>2026-07-24T20:25:52Z</time>
					</trkpt>
					<trkpt lat="50.692230" lon="2.913680">
						<ele>18</ele>
						<time>2026-07-24T20:25:54Z</time>
					</trkpt>
					<trkpt lat="50.692440" lon="2.913610">
						<ele>18</ele>
						<time>2026-07-24T20:25:59Z</time>
					</trkpt>
					<trkpt lat="50.692540" lon="2.913520">
						<ele>18</ele>
						<time>2026-07-24T20:26:01Z</time>
					</trkpt>
					<trkpt lat="50.693050" lon="2.912590">
						<ele>18</ele>
						<time>2026-07-24T20:26:20Z</time>
					</trkpt>
					<trkpt lat="50.693070" lon="2.912500">
						<ele>18</ele>
						<time>2026-07-24T20:26:21Z</time>
					</trkpt>
					<trkpt lat="50.693810" lon="2.912310">
						<ele>18</ele>
						<time>2026-07-24T20:26:38Z</time>
					</trkpt>
					<trkpt lat="50.693990" lon="2.912320">
						<ele>18</ele>
						<time>2026-07-24T20:26:43Z</time>
					</trkpt>
					<trkpt lat="50.694240" lon="2.912420">
						<ele>18</ele>
						<time>2026-07-24T20:26:49Z</time>
					</trkpt>
					<trkpt lat="50.694390" lon="2.912060">
						<ele>17</ele>
						<time>2026-07-24T20:26:55Z</time>
					</trkpt>
					<trkpt lat="50.694570" lon="2.911740">
						<ele>17</ele>
						<time>2026-07-24T20:27:01Z</time>
					</trkpt>
					<trkpt lat="50.694990" lon="2.910230">
						<ele>14</ele>
						<time>2026-07-24T20:27:26Z</time>
					</trkpt>
					<trkpt lat="50.695570" lon="2.909170">
						<ele>13</ele>
						<time>2026-07-24T20:27:46Z</time>
					</trkpt>
					<trkpt lat="50.695100" lon="2.908860">
						<ele>13</ele>
						<time>2026-07-24T20:27:58Z</time>
					</trkpt>
					<trkpt lat="50.694650" lon="2.908890">
						<ele>13</ele>
						<time>2026-07-24T20:28:09Z</time>
					</trkpt>
					<trkpt lat="50.694450" lon="2.907760">
						<ele>11</ele>
						<time>2026-07-24T20:28:26Z</time>
					</trkpt>
					<trkpt lat="50.693530" lon="2.905380">
						<ele>10</ele>
						<time>2026-07-24T20:29:08Z</time>
					</trkpt>
					<trkpt lat="50.693090" lon="2.902980">
						<ele>13</ele>
						<time>2026-07-24T20:29:44Z</time>
					</trkpt>
					<trkpt lat="50.692880" lon="2.898960">
						<ele>13</ele>
						<time>2026-07-24T20:30:44Z</time>
					</trkpt>
					<trkpt lat="50.692560" lon="2.895720">
						<ele>13</ele>
						<time>2026-07-24T20:31:33Z</time>
					</trkpt>
					<trkpt lat="50.692290" lon="2.894100">
						<ele>14</ele>
						<time>2026-07-24T20:31:57Z</time>
					</trkpt>
					<trkpt lat="50.692250" lon="2.890460">
						<ele>16</ele>
						<time>2026-07-24T20:32:51Z</time>
					</trkpt>
					<trkpt lat="50.692370" lon="2.889180">
						<ele>15</ele>
						<time>2026-07-24T20:33:10Z</time>
					</trkpt>
					<trkpt lat="50.693470" lon="2.882280">
						<ele>14</ele>
						<time>2026-07-24T20:34:56Z</time>
					</trkpt>
					<trkpt lat="50.693690" lon="2.880720">
						<ele>17</ele>
						<time>2026-07-24T20:35:19Z</time>
					</trkpt>
					<trkpt lat="50.696510" lon="2.882500">
						<ele>15</ele>
						<time>2026-07-24T20:36:30Z</time>
					</trkpt>
					<trkpt lat="50.696880" lon="2.883530">
						<ele>16</ele>
						<time>2026-07-24T20:36:48Z</time>
					</trkpt>
					<trkpt lat="50.697630" lon="2.884020">
						<ele>17</ele>
						<time>2026-07-24T20:37:07Z</time>
					</trkpt>
					<trkpt lat="50.700090" lon="2.884680">
						<ele>18</ele>
						<time>2026-07-24T20:38:05Z</time>
					</trkpt>
					<trkpt lat="50.701250" lon="2.884460">
						<ele>18</ele>
						<time>2026-07-24T20:38:32Z</time>
					</trkpt>
					<trkpt lat="50.701740" lon="2.884300">
						<ele>18</ele>
						<time>2026-07-24T20:38:44Z</time>
					</trkpt>
					<trkpt lat="50.703070" lon="2.883450">
						<ele>17</ele>
						<time>2026-07-24T20:39:17Z</time>
					</trkpt>
					<trkpt lat="50.703180" lon="2.883330">
						<ele>17</ele>
						<time>2026-07-24T20:39:21Z</time>
					</trkpt>
					<trkpt lat="50.703360" lon="2.883210">
						<ele>17</ele>
						<time>2026-07-24T20:39:25Z</time>
					</trkpt>
					<trkpt lat="50.703500" lon="2.883180">
						<ele>17</ele>
						<time>2026-07-24T20:39:28Z</time>
					</trkpt>
					<trkpt lat="50.703850" lon="2.882860">
						<ele>16</ele>
						<time>2026-07-24T20:39:38Z</time>
					</trkpt>
					<trkpt lat="50.704690" lon="2.882160">
						<ele>14</ele>
						<time>2026-07-24T20:40:00Z</time>
					</trkpt>
					<trkpt lat="50.703510" lon="2.880610">
						<ele>12</ele>
						<time>2026-07-24T20:40:36Z</time>
					</trkpt>
					<trkpt lat="50.704410" lon="2.875340">
						<ele>13</ele>
						<time>2026-07-24T20:41:57Z</time>
					</trkpt>
					<trkpt lat="50.704340" lon="2.871750">
						<ele>14</ele>
						<time>2026-07-24T20:42:50Z</time>
					</trkpt>
					<trkpt lat="50.703780" lon="2.869330">
						<ele>16</ele>
						<time>2026-07-24T20:43:28Z</time>
					</trkpt>
					<trkpt lat="50.706160" lon="2.867040">
						<ele>17</ele>
						<time>2026-07-24T20:44:33Z</time>
					</trkpt>
					<trkpt lat="50.705920" lon="2.866460">
						<ele>17</ele>
						<time>2026-07-24T20:44:43Z</time>
					</trkpt>
					<trkpt lat="50.710000" lon="2.860480">
						<ele>16</ele>
						<time>2026-07-24T20:46:53Z</time>
					</trkpt>
					<trkpt lat="50.711110" lon="2.858500">
						<ele>19</ele>
						<time>2026-07-24T20:47:32Z</time>
					</trkpt>
					<trkpt lat="50.712010" lon="2.858330">
						<ele>18</ele>
						<time>2026-07-24T20:47:53Z</time>
					</trkpt>
					<trkpt lat="50.715680" lon="2.853410">
						<ele>19</ele>
						<time>2026-07-24T20:49:46Z</time>
					</trkpt>
					<trkpt lat="50.718950" lon="2.851660">
						<ele>16</ele>
						<time>2026-07-24T20:51:07Z</time>
					</trkpt>
					<trkpt lat="50.723050" lon="2.848130">
						<ele>19</ele>
						<time>2026-07-24T20:52:56Z</time>
					</trkpt>
					<trkpt lat="50.725480" lon="2.856160">
						<ele>17</ele>
						<time>2026-07-24T20:55:07Z</time>
					</trkpt>
					<trkpt lat="50.726380" lon="2.861080">
						<ele>18</ele>
						<time>2026-07-24T20:56:23Z</time>
					</trkpt>
					<trkpt lat="50.730880" lon="2.857050">
						<ele>17</ele>
						<time>2026-07-24T20:58:24Z</time>
					</trkpt>
					<trkpt lat="50.730670" lon="2.855490">
						<ele>16</ele>
						<time>2026-07-24T20:58:47Z</time>
					</trkpt>
					<trkpt lat="50.731500" lon="2.854660">
						<ele>17</ele>
						<time>2026-07-24T20:59:10Z</time>
					</trkpt>
					<trkpt lat="50.731350" lon="2.854230">
						<ele>16</ele>
						<time>2026-07-24T20:59:17Z</time>
					</trkpt>
					<trkpt lat="50.732080" lon="2.852930">
						<ele>18</ele>
						<time>2026-07-24T20:59:43Z</time>
					</trkpt>
					<trkpt lat="50.733040" lon="2.852310">
						<ele>19</ele>
						<time>2026-07-24T21:00:07Z</time>
					</trkpt>
					<trkpt lat="50.734080" lon="2.853900">
						<ele>17</ele>
						<time>2026-07-24T21:00:41Z</time>
					</trkpt>
					<trkpt lat="50.734360" lon="2.854660">
						<ele>17</ele>
						<time>2026-07-24T21:00:54Z</time>
					</trkpt>
					<trkpt lat="50.735020" lon="2.854280">
						<ele>20</ele>
						<time>2026-07-24T21:01:11Z</time>
					</trkpt>
					<trkpt lat="50.734900" lon="2.852570">
						<ele>21</ele>
						<time>2026-07-24T21:01:36Z</time>
					</trkpt>
					<trkpt lat="50.739620" lon="2.849440">
						<ele>18</ele>
						<time>2026-07-24T21:03:36Z</time>
					</trkpt>
					<trkpt lat="50.740180" lon="2.846810">
						<ele>17</ele>
						<time>2026-07-24T21:04:17Z</time>
					</trkpt>
					<trkpt lat="50.741370" lon="2.844920">
						<ele>21</ele>
						<time>2026-07-24T21:04:56Z</time>
					</trkpt>
					<trkpt lat="50.742080" lon="2.844690">
						<ele>23</ele>
						<time>2026-07-24T21:05:13Z</time>
					</trkpt>
					<trkpt lat="50.742880" lon="2.845710">
						<ele>24</ele>
						<time>2026-07-24T21:05:37Z</time>
					</trkpt>
					<trkpt lat="50.743420" lon="2.845090">
						<ele>29</ele>
						<time>2026-07-24T21:05:52Z</time>
					</trkpt>
					<trkpt lat="50.742870" lon="2.843590">
						<ele>31</ele>
						<time>2026-07-24T21:06:18Z</time>
					</trkpt>
					<trkpt lat="50.743440" lon="2.839880">
						<ele>45</ele>
						<time>2026-07-24T21:07:15Z</time>
					</trkpt>
					<trkpt lat="50.743810" lon="2.838990">
						<ele>46</ele>
						<time>2026-07-24T21:07:30Z</time>
					</trkpt>
					<trkpt lat="50.744110" lon="2.836210">
						<ele>46</ele>
						<time>2026-07-24T21:08:12Z</time>
					</trkpt>
					<trkpt lat="50.743680" lon="2.834110">
						<ele>44</ele>
						<time>2026-07-24T21:08:45Z</time>
					</trkpt>
					<trkpt lat="50.745810" lon="2.832440">
						<ele>56</ele>
						<time>2026-07-24T21:09:40Z</time>
					</trkpt>
					<trkpt lat="50.748240" lon="2.831110">
						<ele>62</ele>
						<time>2026-07-24T21:10:40Z</time>
					</trkpt>
					<trkpt lat="50.748480" lon="2.831390">
						<ele>61</ele>
						<time>2026-07-24T21:10:47Z</time>
					</trkpt>
					<trkpt lat="50.751410" lon="2.827040">
						<ele>42</ele>
						<time>2026-07-24T21:12:21Z</time>
					</trkpt>
					<trkpt lat="50.749320" lon="2.825530">
						<ele>50</ele>
						<time>2026-07-24T21:13:15Z</time>
					</trkpt>
					<trkpt lat="50.747080" lon="2.822100">
						<ele>66</ele>
						<time>2026-07-24T21:14:27Z</time>
					</trkpt>
					<trkpt lat="50.749470" lon="2.821930">
						<ele>60</ele>
						<time>2026-07-24T21:15:23Z</time>
					</trkpt>
					<trkpt lat="50.749620" lon="2.818640">
						<ele>59</ele>
						<time>2026-07-24T21:16:12Z</time>
					</trkpt>
					<trkpt lat="50.749850" lon="2.816980">
						<ele>56</ele>
						<time>2026-07-24T21:16:37Z</time>
					</trkpt>
					<trkpt lat="50.749650" lon="2.816590">
						<ele>56</ele>
						<time>2026-07-24T21:16:45Z</time>
					</trkpt>
					<trkpt lat="50.751600" lon="2.810700">
						<ele>40</ele>
						<time>2026-07-24T21:18:23Z</time>
					</trkpt>
					<trkpt lat="50.753100" lon="2.812320">
						<ele>41</ele>
						<time>2026-07-24T21:19:05Z</time>
					</trkpt>
					<trkpt lat="50.754050" lon="2.811560">
						<ele>43</ele>
						<time>2026-07-24T21:19:30Z</time>
					</trkpt>
					<trkpt lat="50.756180" lon="2.808550">
						<ele>39</ele>
						<time>2026-07-24T21:20:37Z</time>
					</trkpt>
					<trkpt lat="50.757030" lon="2.805790">
						<ele>35</ele>
						<time>2026-07-24T21:21:22Z</time>
					</trkpt>
					<trkpt lat="50.758650" lon="2.805660">
						<ele>31</ele>
						<time>2026-07-24T21:22:00Z</time>
					</trkpt>
					<trkpt lat="50.758690" lon="2.805680">
						<ele>31</ele>
						<time>2026-07-24T21:22:01Z</time>
					</trkpt>
					<trkpt lat="50.759150" lon="2.805600">
						<ele>30</ele>
						<time>2026-07-24T21:22:12Z</time>
					</trkpt>
					<trkpt lat="50.759310" lon="2.805540">
						<ele>31</ele>
						<time>2026-07-24T21:22:16Z</time>
					</trkpt>
					<trkpt lat="50.759400" lon="2.805440">
						<ele>31</ele>
						<time>2026-07-24T21:22:18Z</time>
					</trkpt>
					<trkpt lat="50.759460" lon="2.805300">
						<ele>31</ele>
						<time>2026-07-24T21:22:21Z</time>
					</trkpt>
					<trkpt lat="50.759590" lon="2.804710">
						<ele>32</ele>
						<time>2026-07-24T21:22:30Z</time>
					</trkpt>
					<trkpt lat="50.759740" lon="2.804500">
						<ele>31</ele>
						<time>2026-07-24T21:22:35Z</time>
					</trkpt>
					<trkpt lat="50.760000" lon="2.804370">
						<ele>31</ele>
						<time>2026-07-24T21:22:41Z</time>
					</trkpt>
					<trkpt lat="50.760630" lon="2.804180">
						<ele>33</ele>
						<time>2026-07-24T21:22:56Z</time>
					</trkpt>
					<trkpt lat="50.761250" lon="2.803950">
						<ele>35</ele>
						<time>2026-07-24T21:23:11Z</time>
					</trkpt>
					<trkpt lat="50.762630" lon="2.803330">
						<ele>40</ele>
						<time>2026-07-24T21:23:44Z</time>
					</trkpt>
					<trkpt lat="50.762820" lon="2.803280">
						<ele>40</ele>
						<time>2026-07-24T21:23:49Z</time>
					</trkpt>
					<trkpt lat="50.763040" lon="2.803280">
						<ele>41</ele>
						<time>2026-07-24T21:23:54Z</time>
					</trkpt>
					<trkpt lat="50.764040" lon="2.803430">
						<ele>45</ele>
						<time>2026-07-24T21:24:17Z</time>
					</trkpt>
					<trkpt lat="50.766410" lon="2.807640">
						<ele>46</ele>
						<time>2026-07-24T21:25:41Z</time>
					</trkpt>
					<trkpt lat="50.766450" lon="2.807810">
						<ele>46</ele>
						<time>2026-07-24T21:25:43Z</time>
					</trkpt>
					<trkpt lat="50.766740" lon="2.808560">
						<ele>45</ele>
						<time>2026-07-24T21:25:56Z</time>
					</trkpt>
					<trkpt lat="50.766930" lon="2.809210">
						<ele>44</ele>
						<time>2026-07-24T21:26:07Z</time>
					</trkpt>
					<trkpt lat="50.767070" lon="2.809760">
						<ele>43</ele>
						<time>2026-07-24T21:26:16Z</time>
					</trkpt>
					<trkpt lat="50.767290" lon="2.810970">
						<ele>43</ele>
						<time>2026-07-24T21:26:34Z</time>
					</trkpt>
					<trkpt lat="50.767320" lon="2.811050">
						<ele>44</ele>
						<time>2026-07-24T21:26:36Z</time>
					</trkpt>
					<trkpt lat="50.767360" lon="2.811090">
						<ele>44</ele>
						<time>2026-07-24T21:26:37Z</time>
					</trkpt>
					<trkpt lat="50.767410" lon="2.811100">
						<ele>44</ele>
						<time>2026-07-24T21:26:38Z</time>
					</trkpt>
					<trkpt lat="50.768110" lon="2.815220">
						<ele>45</ele>
						<time>2026-07-24T21:27:41Z</time>
					</trkpt>
					<trkpt lat="50.768620" lon="2.816820">
						<ele>49</ele>
						<time>2026-07-24T21:28:07Z</time>
					</trkpt>
					<trkpt lat="50.770390" lon="2.820340">
						<ele>49</ele>
						<time>2026-07-24T21:29:14Z</time>
					</trkpt>
					<trkpt lat="50.770910" lon="2.819750">
						<ele>51</ele>
						<time>2026-07-24T21:29:29Z</time>
					</trkpt>
					<trkpt lat="50.771700" lon="2.817790">
						<ele>60</ele>
						<time>2026-07-24T21:30:03Z</time>
					</trkpt>
					<trkpt lat="50.772220" lon="2.817190">
						<ele>64</ele>
						<time>2026-07-24T21:30:18Z</time>
					</trkpt>
					<trkpt lat="50.772050" lon="2.816450">
						<ele>66</ele>
						<time>2026-07-24T21:30:30Z</time>
					</trkpt>
					<trkpt lat="50.772120" lon="2.815430">
						<ele>69</ele>
						<time>2026-07-24T21:30:45Z</time>
					</trkpt>
					<trkpt lat="50.772090" lon="2.814850">
						<ele>71</ele>
						<time>2026-07-24T21:30:54Z</time>
					</trkpt>
					<trkpt lat="50.772160" lon="2.814800">
						<ele>71</ele>
						<time>2026-07-24T21:30:55Z</time>
					</trkpt>
					<trkpt lat="50.772180" lon="2.814620">
						<ele>72</ele>
						<time>2026-07-24T21:30:58Z</time>
					</trkpt>
					<trkpt lat="50.774580" lon="2.812980">
						<ele>99</ele>
						<time>2026-07-24T21:31:59Z</time>
					</trkpt>
					<trkpt lat="50.774170" lon="2.811500">
						<ele>106</ele>
						<time>2026-07-24T21:32:23Z</time>
					</trkpt>
					<trkpt lat="50.773940" lon="2.809530">
						<ele>110</ele>
						<time>2026-07-24T21:32:53Z</time>
					</trkpt>
					<trkpt lat="50.773010" lon="2.805250">
						<ele>103</ele>
						<time>2026-07-24T21:33:59Z</time>
					</trkpt>
					<trkpt lat="50.771350" lon="2.801660">
						<ele>93</ele>
						<time>2026-07-24T21:35:05Z</time>
					</trkpt>
					<trkpt lat="50.772760" lon="2.801870">
						<ele>101</ele>
						<time>2026-07-24T21:35:38Z</time>
					</trkpt>
					<trkpt lat="50.773000" lon="2.803120">
						<ele>106</ele>
						<time>2026-07-24T21:35:57Z</time>
					</trkpt>
					<trkpt lat="50.773360" lon="2.803480">
						<ele>110</ele>
						<time>2026-07-24T21:36:07Z</time>
					</trkpt>
					<trkpt lat="50.774630" lon="2.804110">
						<ele>114</ele>
						<time>2026-07-24T21:36:38Z</time>
					</trkpt>
					<trkpt lat="50.775090" lon="2.803910">
						<ele>110</ele>
						<time>2026-07-24T21:36:50Z</time>
					</trkpt>
					<trkpt lat="50.775470" lon="2.803130">
						<ele>105</ele>
						<time>2026-07-24T21:37:04Z</time>
					</trkpt>
					<trkpt lat="50.777560" lon="2.803040">
						<ele>85</ele>
						<time>2026-07-24T21:37:53Z</time>
					</trkpt>
					<trkpt lat="50.778770" lon="2.802090">
						<ele>82</ele>
						<time>2026-07-24T21:38:25Z</time>
					</trkpt>
					<trkpt lat="50.778830" lon="2.808200">
						<ele>122</ele>
						<time>2026-07-24T21:39:55Z</time>
					</trkpt>
					<trkpt lat="50.778800" lon="2.808330">
						<ele>124</ele>
						<time>2026-07-24T21:39:57Z</time>
					</trkpt>
					<trkpt lat="50.778640" lon="2.808670">
						<ele>132</ele>
						<time>2026-07-24T21:40:03Z</time>
					</trkpt>
					<trkpt lat="50.778530" lon="2.809060">
						<ele>141</ele>
						<time>2026-07-24T21:40:09Z</time>
					</trkpt>
					<trkpt lat="50.778410" lon="2.809320">
						<ele>146</ele>
						<time>2026-07-24T21:40:14Z</time>
					</trkpt>
					<trkpt lat="50.778300" lon="2.809740">
						<ele>151</ele>
						<time>2026-07-24T21:40:21Z</time>
					</trkpt>
					<trkpt lat="50.778260" lon="2.809780">
						<ele>151</ele>
						<time>2026-07-24T21:40:22Z</time>
					</trkpt>
					<trkpt lat="50.778230" lon="2.809870">
						<ele>152</ele>
						<time>2026-07-24T21:40:23Z</time>
					</trkpt>
					<trkpt lat="50.778190" lon="2.810030">
						<ele>153</ele>
						<time>2026-07-24T21:40:26Z</time>
					</trkpt>
					<trkpt lat="50.778170" lon="2.810300">
						<ele>153</ele>
						<time>2026-07-24T21:40:30Z</time>
					</trkpt>
					<trkpt lat="50.778190" lon="2.810500">
						<ele>153</ele>
						<time>2026-07-24T21:40:33Z</time>
					</trkpt>
					<trkpt lat="50.778420" lon="2.811350">
						<ele>155</ele>
						<time>2026-07-24T21:40:47Z</time>
					</trkpt>
					<trkpt lat="50.778790" lon="2.812420">
						<ele>156</ele>
						<time>2026-07-24T21:41:05Z</time>
					</trkpt>
					<trkpt lat="50.778880" lon="2.813060">
						<ele>157</ele>
						<time>2026-07-24T21:41:14Z</time>
					</trkpt>
					<trkpt lat="50.778990" lon="2.813600">
						<ele>158</ele>
						<time>2026-07-24T21:41:23Z</time>
					</trkpt>
					<trkpt lat="50.779240" lon="2.814710">
						<ele>158</ele>
						<time>2026-07-24T21:41:40Z</time>
					</trkpt>
					<trkpt lat="50.779340" lon="2.815050">
						<ele>156</ele>
						<time>2026-07-24T21:41:46Z</time>
					</trkpt>
					<trkpt lat="50.779370" lon="2.815390">
						<ele>152</ele>
						<time>2026-07-24T21:41:51Z</time>
					</trkpt>
					<trkpt lat="50.779540" lon="2.816010">
						<ele>145</ele>
						<time>2026-07-24T21:42:01Z</time>
					</trkpt>
					<trkpt lat="50.779430" lon="2.816960">
						<ele>137</ele>
						<time>2026-07-24T21:42:15Z</time>
					</trkpt>
					<trkpt lat="50.777810" lon="2.817450">
						<ele>124</ele>
						<time>2026-07-24T21:42:53Z</time>
					</trkpt>
					<trkpt lat="50.777610" lon="2.817620">
						<ele>119</ele>
						<time>2026-07-24T21:42:59Z</time>
					</trkpt>
					<trkpt lat="50.777150" lon="2.818100">
						<ele>108</ele>
						<time>2026-07-24T21:43:12Z</time>
					</trkpt>
					<trkpt lat="50.777030" lon="2.818540">
						<ele>103</ele>
						<time>2026-07-24T21:43:19Z</time>
					</trkpt>
					<trkpt lat="50.776820" lon="2.818210">
						<ele>102</ele>
						<time>2026-07-24T21:43:26Z</time>
					</trkpt>
					<trkpt lat="50.776740" lon="2.817970">
						<ele>103</ele>
						<time>2026-07-24T21:43:30Z</time>
					</trkpt>
					<trkpt lat="50.776820" lon="2.818210">
						<ele>102</ele>
						<time>2026-07-24T21:43:34Z</time>
					</trkpt>
					<trkpt lat="50.777070" lon="2.818600">
						<ele>103</ele>
						<time>2026-07-24T21:43:42Z</time>
					</trkpt>
					<trkpt lat="50.778620" lon="2.820860">
						<ele>90</ele>
						<time>2026-07-24T21:44:31Z</time>
					</trkpt>
					<trkpt lat="50.779970" lon="2.819950">
						<ele>95</ele>
						<time>2026-07-24T21:45:05Z</time>
					</trkpt>
					<trkpt lat="50.780410" lon="2.819310">
						<ele>100</ele>
						<time>2026-07-24T21:45:19Z</time>
					</trkpt>
					<trkpt lat="50.780670" lon="2.818830">
						<ele>100</ele>
						<time>2026-07-24T21:45:29Z</time>
					</trkpt>
					<trkpt lat="50.781000" lon="2.818460">
						<ele>100</ele>
						<time>2026-07-24T21:45:38Z</time>
					</trkpt>
					<trkpt lat="50.781070" lon="2.818310">
						<ele>101</ele>
						<time>2026-07-24T21:45:41Z</time>
					</trkpt>
					<trkpt lat="50.781230" lon="2.818100">
						<ele>99</ele>
						<time>2026-07-24T21:45:46Z</time>
					</trkpt>
					<trkpt lat="50.781380" lon="2.817930">
						<ele>97</ele>
						<time>2026-07-24T21:45:50Z</time>
					</trkpt>
					<trkpt lat="50.781870" lon="2.817550">
						<ele>91</ele>
						<time>2026-07-24T21:46:03Z</time>
					</trkpt>
					<trkpt lat="50.782350" lon="2.816940">
						<ele>89</ele>
						<time>2026-07-24T21:46:17Z</time>
					</trkpt>
					<trkpt lat="50.782390" lon="2.816850">
						<ele>89</ele>
						<time>2026-07-24T21:46:19Z</time>
					</trkpt>
					<trkpt lat="50.782380" lon="2.816510">
						<ele>89</ele>
						<time>2026-07-24T21:46:24Z</time>
					</trkpt>
					<trkpt lat="50.782460" lon="2.815180">
						<ele>89</ele>
						<time>2026-07-24T21:46:43Z</time>
					</trkpt>
					<trkpt lat="50.782440" lon="2.814580">
						<ele>91</ele>
						<time>2026-07-24T21:46:52Z</time>
					</trkpt>
					<trkpt lat="50.782370" lon="2.813850">
						<ele>95</ele>
						<time>2026-07-24T21:47:03Z</time>
					</trkpt>
					<trkpt lat="50.782400" lon="2.813050">
						<ele>97</ele>
						<time>2026-07-24T21:47:15Z</time>
					</trkpt>
					<trkpt lat="50.782240" lon="2.812230">
						<ele>101</ele>
						<time>2026-07-24T21:47:28Z</time>
					</trkpt>
					<trkpt lat="50.782180" lon="2.811800">
						<ele>102</ele>
						<time>2026-07-24T21:47:34Z</time>
					</trkpt>
					<trkpt lat="50.782140" lon="2.811270">
						<ele>103</ele>
						<time>2026-07-24T21:47:42Z</time>
					</trkpt>
					<trkpt lat="50.782150" lon="2.810780">
						<ele>102</ele>
						<time>2026-07-24T21:47:49Z</time>
					</trkpt>
					<trkpt lat="50.782220" lon="2.809830">
						<ele>92</ele>
						<time>2026-07-24T21:48:04Z</time>
					</trkpt>
					<trkpt lat="50.782250" lon="2.808770">
						<ele>84</ele>
						<time>2026-07-24T21:48:19Z</time>
					</trkpt>
					<trkpt lat="50.782270" lon="2.807310">
						<ele>82</ele>
						<time>2026-07-24T21:48:41Z</time>
					</trkpt>
					<trkpt lat="50.782230" lon="2.806800">
						<ele>82</ele>
						<time>2026-07-24T21:48:48Z</time>
					</trkpt>
					<trkpt lat="50.782040" lon="2.805600">
						<ele>82</ele>
						<time>2026-07-24T21:49:07Z</time>
					</trkpt>
					<trkpt lat="50.781480" lon="2.803010">
						<ele>79</ele>
						<time>2026-07-24T21:49:47Z</time>
					</trkpt>
					<trkpt lat="50.781260" lon="2.802200">
						<ele>80</ele>
						<time>2026-07-24T21:50:00Z</time>
					</trkpt>
					<trkpt lat="50.780730" lon="2.801160">
						<ele>81</ele>
						<time>2026-07-24T21:50:20Z</time>
					</trkpt>
					<trkpt lat="50.780650" lon="2.800890">
						<ele>80</ele>
						<time>2026-07-24T21:50:24Z</time>
					</trkpt>
					<trkpt lat="50.780650" lon="2.800660">
						<ele>79</ele>
						<time>2026-07-24T21:50:28Z</time>
					</trkpt>
					<trkpt lat="50.782790" lon="2.793920">
						<ele>74</ele>
						<time>2026-07-24T21:52:19Z</time>
					</trkpt>
					<trkpt lat="50.783080" lon="2.793170">
						<ele>72</ele>
						<time>2026-07-24T21:52:32Z</time>
					</trkpt>
					<trkpt lat="50.783560" lon="2.792090">
						<ele>71</ele>
						<time>2026-07-24T21:52:51Z</time>
					</trkpt>
					<trkpt lat="50.783620" lon="2.791790">
						<ele>71</ele>
						<time>2026-07-24T21:52:56Z</time>
					</trkpt>
					<trkpt lat="50.783750" lon="2.791610">
						<ele>71</ele>
						<time>2026-07-24T21:53:00Z</time>
					</trkpt>
					<trkpt lat="50.784000" lon="2.791060">
						<ele>72</ele>
						<time>2026-07-24T21:53:10Z</time>
					</trkpt>
					<trkpt lat="50.784250" lon="2.790590">
						<ele>72</ele>
						<time>2026-07-24T21:53:19Z</time>
					</trkpt>
					<trkpt lat="50.785010" lon="2.789450">
						<ele>69</ele>
						<time>2026-07-24T21:53:44Z</time>
					</trkpt>
					<trkpt lat="50.785350" lon="2.788710">
						<ele>68</ele>
						<time>2026-07-24T21:53:57Z</time>
					</trkpt>
					<trkpt lat="50.785790" lon="2.787640">
						<ele>70</ele>
						<time>2026-07-24T21:54:16Z</time>
					</trkpt>
					<trkpt lat="50.786290" lon="2.786930">
						<ele>71</ele>
						<time>2026-07-24T21:54:32Z</time>
					</trkpt>
					<trkpt lat="50.786470" lon="2.786590">
						<ele>71</ele>
						<time>2026-07-24T21:54:38Z</time>
					</trkpt>
					<trkpt lat="50.786980" lon="2.785200">
						<ele>71</ele>
						<time>2026-07-24T21:55:02Z</time>
					</trkpt>
					<trkpt lat="50.787610" lon="2.783710">
						<ele>74</ele>
						<time>2026-07-24T21:55:28Z</time>
					</trkpt>
					<trkpt lat="50.787810" lon="2.782880">
						<ele>75</ele>
						<time>2026-07-24T21:55:42Z</time>
					</trkpt>
					<trkpt lat="50.788030" lon="2.780950">
						<ele>75</ele>
						<time>2026-07-24T21:56:10Z</time>
					</trkpt>
					<trkpt lat="50.788380" lon="2.780080">
						<ele>76</ele>
						<time>2026-07-24T21:56:26Z</time>
					</trkpt>
					<trkpt lat="50.788920" lon="2.777630">
						<ele>82</ele>
						<time>2026-07-24T21:57:04Z</time>
					</trkpt>
					<trkpt lat="50.789350" lon="2.776670">
						<ele>87</ele>
						<time>2026-07-24T21:57:21Z</time>
					</trkpt>
					<trkpt lat="50.789970" lon="2.778110">
						<ele>88</ele>
						<time>2026-07-24T21:57:47Z</time>
					</trkpt>
					<trkpt lat="50.790510" lon="2.777770">
						<ele>91</ele>
						<time>2026-07-24T21:58:01Z</time>
					</trkpt>
					<trkpt lat="50.791300" lon="2.778970">
						<ele>92</ele>
						<time>2026-07-24T21:58:26Z</time>
					</trkpt>
					<trkpt lat="50.791970" lon="2.780670">
						<ele>96</ele>
						<time>2026-07-24T21:58:56Z</time>
					</trkpt>
					<trkpt lat="50.792720" lon="2.782420">
						<ele>105</ele>
						<time>2026-07-24T21:59:27Z</time>
					</trkpt>
					<trkpt lat="50.792920" lon="2.782420">
						<ele>109</ele>
						<time>2026-07-24T21:59:32Z</time>
					</trkpt>
					<trkpt lat="50.793030" lon="2.782340">
						<ele>111</ele>
						<time>2026-07-24T21:59:35Z</time>
					</trkpt>
					<trkpt lat="50.793190" lon="2.782300">
						<ele>114</ele>
						<time>2026-07-24T21:59:38Z</time>
					</trkpt>
					<trkpt lat="50.793300" lon="2.782450">
						<ele>115</ele>
						<time>2026-07-24T21:59:42Z</time>
					</trkpt>
					<trkpt lat="50.793380" lon="2.782680">
						<ele>114</ele>
						<time>2026-07-24T21:59:46Z</time>
					</trkpt>
					<trkpt lat="50.793490" lon="2.782810">
						<ele>114</ele>
						<time>2026-07-24T21:59:49Z</time>
					</trkpt>
					<trkpt lat="50.793600" lon="2.782840">
						<ele>115</ele>
						<time>2026-07-24T21:59:51Z</time>
					</trkpt>
					<trkpt lat="50.793750" lon="2.782810">
						<ele>116</ele>
						<time>2026-07-24T21:59:55Z</time>
					</trkpt>
					<trkpt lat="50.793770" lon="2.782880">
						<ele>116</ele>
						<time>2026-07-24T21:59:56Z</time>
					</trkpt>
					<trkpt lat="50.793850" lon="2.782870">
						<ele>117</ele>
						<time>2026-07-24T21:59:58Z</time>
					</trkpt>
					<trkpt lat="50.794010" lon="2.783010">
						<ele>116</ele>
						<time>2026-07-24T22:00:02Z</time>
					</trkpt>
					<trkpt lat="50.794370" lon="2.783090">
						<ele>114</ele>
						<time>2026-07-24T22:00:11Z</time>
					</trkpt>
					<trkpt lat="50.794460" lon="2.783170">
						<ele>111</ele>
						<time>2026-07-24T22:00:13Z</time>
					</trkpt>
					<trkpt lat="50.794500" lon="2.783260">
						<ele>110</ele>
						<time>2026-07-24T22:00:15Z</time>
					</trkpt>
					<trkpt lat="50.794550" lon="2.783280">
						<ele>109</ele>
						<time>2026-07-24T22:00:16Z</time>
					</trkpt>
					<trkpt lat="50.794610" lon="2.783360">
						<ele>107</ele>
						<time>2026-07-24T22:00:18Z</time>
					</trkpt>
					<trkpt lat="50.794700" lon="2.783380">
						<ele>106</ele>
						<time>2026-07-24T22:00:20Z</time>
					</trkpt>
					<trkpt lat="50.794920" lon="2.783330">
						<ele>103</ele>
						<time>2026-07-24T22:00:25Z</time>
					</trkpt>
					<trkpt lat="50.795340" lon="2.783330">
						<ele>98</ele>
						<time>2026-07-24T22:00:35Z</time>
					</trkpt>
					<trkpt lat="50.795380" lon="2.783270">
						<ele>98</ele>
						<time>2026-07-24T22:00:36Z</time>
					</trkpt>
					<trkpt lat="50.795780" lon="2.783780">
						<ele>94</ele>
						<time>2026-07-24T22:00:48Z</time>
					</trkpt>
					<trkpt lat="50.796960" lon="2.784650">
						<ele>83</ele>
						<time>2026-07-24T22:01:19Z</time>
					</trkpt>
					<trkpt lat="50.796280" lon="2.782470">
						<ele>88</ele>
						<time>2026-07-24T22:01:54Z</time>
					</trkpt>
					<trkpt lat="50.796070" lon="2.782090">
						<ele>89</ele>
						<time>2026-07-24T22:02:02Z</time>
					</trkpt>
					<trkpt lat="50.796090" lon="2.781910">
						<ele>89</ele>
						<time>2026-07-24T22:02:05Z</time>
					</trkpt>
					<trkpt lat="50.795980" lon="2.781640">
						<ele>90</ele>
						<time>2026-07-24T22:02:09Z</time>
					</trkpt>
					<trkpt lat="50.795610" lon="2.780980">
						<ele>93</ele>
						<time>2026-07-24T22:02:22Z</time>
					</trkpt>
					<trkpt lat="50.794890" lon="2.779920">
						<ele>90</ele>
						<time>2026-07-24T22:02:45Z</time>
					</trkpt>
					<trkpt lat="50.793400" lon="2.779660">
						<ele>96</ele>
						<time>2026-07-24T22:03:20Z</time>
					</trkpt>
					<trkpt lat="50.792690" lon="2.780330">
						<ele>99</ele>
						<time>2026-07-24T22:03:40Z</time>
					</trkpt>
					<trkpt lat="50.792110" lon="2.779430">
						<ele>93</ele>
						<time>2026-07-24T22:03:59Z</time>
					</trkpt>
					<trkpt lat="50.791600" lon="2.777700">
						<ele>93</ele>
						<time>2026-07-24T22:04:27Z</time>
					</trkpt>
					<trkpt lat="50.791140" lon="2.776630">
						<ele>92</ele>
						<time>2026-07-24T22:04:46Z</time>
					</trkpt>
					<trkpt lat="50.789990" lon="2.775410">
						<ele>92</ele>
						<time>2026-07-24T22:05:18Z</time>
					</trkpt>
					<trkpt lat="50.790010" lon="2.774710">
						<ele>92</ele>
						<time>2026-07-24T22:05:29Z</time>
					</trkpt>
					<trkpt lat="50.790450" lon="2.773500">
						<ele>90</ele>
						<time>2026-07-24T22:05:49Z</time>
					</trkpt>
					<trkpt lat="50.790240" lon="2.773160">
						<ele>91</ele>
						<time>2026-07-24T22:05:56Z</time>
					</trkpt>
					<trkpt lat="50.790230" lon="2.773080">
						<ele>91</ele>
						<time>2026-07-24T22:05:57Z</time>
					</trkpt>
					<trkpt lat="50.790250" lon="2.773010">
						<ele>91</ele>
						<time>2026-07-24T22:05:59Z</time>
					</trkpt>
					<trkpt lat="50.792080" lon="2.770210">
						<ele>80</ele>
						<time>2026-07-24T22:06:58Z</time>
					</trkpt>
					<trkpt lat="50.792940" lon="2.768810">
						<ele>74</ele>
						<time>2026-07-24T22:07:27Z</time>
					</trkpt>
					<trkpt lat="50.793190" lon="2.768630">
						<ele>74</ele>
						<time>2026-07-24T22:07:33Z</time>
					</trkpt>
					<trkpt lat="50.793360" lon="2.768380">
						<ele>74</ele>
						<time>2026-07-24T22:07:39Z</time>
					</trkpt>
					<trkpt lat="50.793730" lon="2.767590">
						<ele>73</ele>
						<time>2026-07-24T22:07:53Z</time>
					</trkpt>
					<trkpt lat="50.794100" lon="2.766870">
						<ele>73</ele>
						<time>2026-07-24T22:08:07Z</time>
					</trkpt>
					<trkpt lat="50.794120" lon="2.766620">
						<ele>72</ele>
						<time>2026-07-24T22:08:11Z</time>
					</trkpt>
					<trkpt lat="50.794230" lon="2.766320">
						<ele>71</ele>
						<time>2026-07-24T22:08:16Z</time>
					</trkpt>
					<trkpt lat="50.794240" lon="2.766200">
						<ele>70</ele>
						<time>2026-07-24T22:08:17Z</time>
					</trkpt>
					<trkpt lat="50.794030" lon="2.765480">
						<ele>65</ele>
						<time>2026-07-24T22:08:29Z</time>
					</trkpt>
					<trkpt lat="50.793950" lon="2.765300">
						<ele>65</ele>
						<time>2026-07-24T22:08:32Z</time>
					</trkpt>
					<trkpt lat="50.793940" lon="2.765020">
						<ele>64</ele>
						<time>2026-07-24T22:08:37Z</time>
					</trkpt>
					<trkpt lat="50.793910" lon="2.764970">
						<ele>64</ele>
						<time>2026-07-24T22:08:38Z</time>
					</trkpt>
					<trkpt lat="50.793890" lon="2.765020">
						<ele>64</ele>
						<time>2026-07-24T22:08:38Z</time>
					</trkpt>
					<trkpt lat="50.793690" lon="2.764560">
						<ele>63</ele>
						<time>2026-07-24T22:08:47Z</time>
					</trkpt>
					<trkpt lat="50.792680" lon="2.764090">
						<ele>65</ele>
						<time>2026-07-24T22:09:11Z</time>
					</trkpt>
					<trkpt lat="50.791930" lon="2.765470">
						<ele>71</ele>
						<time>2026-07-24T22:09:38Z</time>
					</trkpt>
					<trkpt lat="50.791110" lon="2.765290">
						<ele>78</ele>
						<time>2026-07-24T22:09:57Z</time>
					</trkpt>
					<trkpt lat="50.790450" lon="2.764550">
						<ele>87</ele>
						<time>2026-07-24T22:10:16Z</time>
					</trkpt>
					<trkpt lat="50.790410" lon="2.764380">
						<ele>88</ele>
						<time>2026-07-24T22:10:19Z</time>
					</trkpt>
					<trkpt lat="50.790320" lon="2.764220">
						<ele>89</ele>
						<time>2026-07-24T22:10:22Z</time>
					</trkpt>
					<trkpt lat="50.789910" lon="2.763570">
						<ele>92</ele>
						<time>2026-07-24T22:10:36Z</time>
					</trkpt>
					<trkpt lat="50.789830" lon="2.763480">
						<ele>93</ele>
						<time>2026-07-24T22:10:38Z</time>
					</trkpt>
					<trkpt lat="50.789730" lon="2.763510">
						<ele>94</ele>
						<time>2026-07-24T22:10:40Z</time>
					</trkpt>
					<trkpt lat="50.789450" lon="2.763820">
						<ele>98</ele>
						<time>2026-07-24T22:10:48Z</time>
					</trkpt>
					<trkpt lat="50.789380" lon="2.763800">
						<ele>99</ele>
						<time>2026-07-24T22:10:50Z</time>
					</trkpt>
					<trkpt lat="50.789290" lon="2.763660">
						<ele>100</ele>
						<time>2026-07-24T22:10:53Z</time>
					</trkpt>
					<trkpt lat="50.789270" lon="2.763640">
						<ele>100</ele>
						<time>2026-07-24T22:10:54Z</time>
					</trkpt>
					<trkpt lat="50.789240" lon="2.763650">
						<ele>100</ele>
						<time>2026-07-24T22:10:54Z</time>
					</trkpt>
					<trkpt lat="50.788660" lon="2.764100">
						<ele>110</ele>
						<time>2026-07-24T22:11:09Z</time>
					</trkpt>
					<trkpt lat="50.788540" lon="2.764230">
						<ele>111</ele>
						<time>2026-07-24T22:11:13Z</time>
					</trkpt>
					<trkpt lat="50.788350" lon="2.764330">
						<ele>112</ele>
						<time>2026-07-24T22:11:17Z</time>
					</trkpt>
					<trkpt lat="50.788240" lon="2.764240">
						<ele>116</ele>
						<time>2026-07-24T22:11:20Z</time>
					</trkpt>
					<trkpt lat="50.788140" lon="2.764070">
						<ele>118</ele>
						<time>2026-07-24T22:11:24Z</time>
					</trkpt>
					<trkpt lat="50.788070" lon="2.764020">
						<ele>120</ele>
						<time>2026-07-24T22:11:26Z</time>
					</trkpt>
					<trkpt lat="50.787920" lon="2.763970">
						<ele>123</ele>
						<time>2026-07-24T22:11:29Z</time>
					</trkpt>
					<trkpt lat="50.787770" lon="2.763860">
						<ele>126</ele>
						<time>2026-07-24T22:11:33Z</time>
					</trkpt>
					<trkpt lat="50.787620" lon="2.763700">
						<ele>129</ele>
						<time>2026-07-24T22:11:37Z</time>
					</trkpt>
					<trkpt lat="50.787460" lon="2.763420">
						<ele>131</ele>
						<time>2026-07-24T22:11:43Z</time>
					</trkpt>
					<trkpt lat="50.787390" lon="2.763080">
						<ele>131</ele>
						<time>2026-07-24T22:11:48Z</time>
					</trkpt>
					<trkpt lat="50.787770" lon="2.763010">
						<ele>125</ele>
						<time>2026-07-24T22:11:57Z</time>
					</trkpt>
					<trkpt lat="50.787980" lon="2.762180">
						<ele>119</ele>
						<time>2026-07-24T22:12:10Z</time>
					</trkpt>
					<trkpt lat="50.787900" lon="2.761100">
						<ele>115</ele>
						<time>2026-07-24T22:12:26Z</time>
					</trkpt>
					<trkpt lat="50.787760" lon="2.760510">
						<ele>115</ele>
						<time>2026-07-24T22:12:36Z</time>
					</trkpt>
					<trkpt lat="50.788060" lon="2.759690">
						<ele>104</ele>
						<time>2026-07-24T22:12:50Z</time>
					</trkpt>
					<trkpt lat="50.789280" lon="2.758660">
						<ele>94</ele>
						<time>2026-07-24T22:13:22Z</time>
					</trkpt>
					<trkpt lat="50.790280" lon="2.757610">
						<ele>92</ele>
						<time>2026-07-24T22:13:50Z</time>
					</trkpt>
					<trkpt lat="50.791660" lon="2.759490">
						<ele>78</ele>
						<time>2026-07-24T22:14:32Z</time>
					</trkpt>
					<trkpt lat="50.793370" lon="2.757480">
						<ele>65</ele>
						<time>2026-07-24T22:15:22Z</time>
					</trkpt>
					<trkpt lat="50.792260" lon="2.755590">
						<ele>67</ele>
						<time>2026-07-24T22:16:00Z</time>
					</trkpt>
					<trkpt lat="50.791110" lon="2.753390">
						<ele>60</ele>
						<time>2026-07-24T22:16:42Z</time>
					</trkpt>
					<trkpt lat="50.790270" lon="2.752090">
						<ele>66</ele>
						<time>2026-07-24T22:17:10Z</time>
					</trkpt>
					<trkpt lat="50.789900" lon="2.751760">
						<ele>68</ele>
						<time>2026-07-24T22:17:20Z</time>
					</trkpt>
					<trkpt lat="50.789440" lon="2.750760">
						<ele>70</ele>
						<time>2026-07-24T22:17:38Z</time>
					</trkpt>
					<trkpt lat="50.787180" lon="2.750010">
						<ele>88</ele>
						<time>2026-07-24T22:18:32Z</time>
					</trkpt>
					<trkpt lat="50.785530" lon="2.750740">
						<ele>100</ele>
						<time>2026-07-24T22:19:12Z</time>
					</trkpt>
					<trkpt lat="50.785400" lon="2.750730">
						<ele>101</ele>
						<time>2026-07-24T22:19:15Z</time>
					</trkpt>
					<trkpt lat="50.785460" lon="2.750560">
						<ele>101</ele>
						<time>2026-07-24T22:19:18Z</time>
					</trkpt>
					<trkpt lat="50.786340" lon="2.749010">
						<ele>100</ele>
						<time>2026-07-24T22:19:49Z</time>
					</trkpt>
					<trkpt lat="50.786730" lon="2.747680">
						<ele>96</ele>
						<time>2026-07-24T22:20:10Z</time>
					</trkpt>
					<trkpt lat="50.787000" lon="2.744700">
						<ele>93</ele>
						<time>2026-07-24T22:20:55Z</time>
					</trkpt>
					<trkpt lat="50.785330" lon="2.744740">
						<ele>110</ele>
						<time>2026-07-24T22:21:34Z</time>
					</trkpt>
					<trkpt lat="50.784620" lon="2.744450">
						<ele>117</ele>
						<time>2026-07-24T22:21:51Z</time>
					</trkpt>
					<trkpt lat="50.783890" lon="2.744450">
						<ele>122</ele>
						<time>2026-07-24T22:22:08Z</time>
					</trkpt>
					<trkpt lat="50.782840" lon="2.743740">
						<ele>122</ele>
						<time>2026-07-24T22:22:35Z</time>
					</trkpt>
					<trkpt lat="50.783090" lon="2.744790">
						<ele>124</ele>
						<time>2026-07-24T22:22:51Z</time>
					</trkpt>
					<trkpt lat="50.783230" lon="2.747520">
						<ele>124</ele>
						<time>2026-07-24T22:23:32Z</time>
					</trkpt>
					<trkpt lat="50.784520" lon="2.751590">
						<ele>107</ele>
						<time>2026-07-24T22:24:39Z</time>
					</trkpt>
					<trkpt lat="50.784410" lon="2.753710">
						<ele>113</ele>
						<time>2026-07-24T22:25:10Z</time>
					</trkpt>
					<trkpt lat="50.784450" lon="2.754460">
						<ele>116</ele>
						<time>2026-07-24T22:25:21Z</time>
					</trkpt>
					<trkpt lat="50.784650" lon="2.755330">
						<ele>121</ele>
						<time>2026-07-24T22:25:35Z</time>
					</trkpt>
					<trkpt lat="50.784330" lon="2.755290">
						<ele>126</ele>
						<time>2026-07-24T22:25:42Z</time>
					</trkpt>
					<trkpt lat="50.784190" lon="2.755060">
						<ele>125</ele>
						<time>2026-07-24T22:25:47Z</time>
					</trkpt>
					<trkpt lat="50.783890" lon="2.755020">
						<ele>123</ele>
						<time>2026-07-24T22:25:54Z</time>
					</trkpt>
					<trkpt lat="50.783700" lon="2.755350">
						<ele>126</ele>
						<time>2026-07-24T22:26:01Z</time>
					</trkpt>
					<trkpt lat="50.783740" lon="2.755500">
						<ele>128</ele>
						<time>2026-07-24T22:26:03Z</time>
					</trkpt>
					<trkpt lat="50.784110" lon="2.755750">
						<ele>133</ele>
						<time>2026-07-24T22:26:13Z</time>
					</trkpt>
					<trkpt lat="50.784120" lon="2.756370">
						<ele>137</ele>
						<time>2026-07-24T22:26:22Z</time>
					</trkpt>
					<trkpt lat="50.783710" lon="2.756590">
						<ele>140</ele>
						<time>2026-07-24T22:26:32Z</time>
					</trkpt>
					<trkpt lat="50.783660" lon="2.756530">
						<ele>139</ele>
						<time>2026-07-24T22:26:33Z</time>
					</trkpt>
					<trkpt lat="50.783500" lon="2.756060">
						<ele>134</ele>
						<time>2026-07-24T22:26:41Z</time>
					</trkpt>
					<trkpt lat="50.783500" lon="2.755930">
						<ele>132</ele>
						<time>2026-07-24T22:26:43Z</time>
					</trkpt>
					<trkpt lat="50.783610" lon="2.755540">
						<ele>127</ele>
						<time>2026-07-24T22:26:49Z</time>
					</trkpt>
					<trkpt lat="50.783540" lon="2.755400">
						<ele>125</ele>
						<time>2026-07-24T22:26:52Z</time>
					</trkpt>
					<trkpt lat="50.783480" lon="2.755180">
						<ele>122</ele>
						<time>2026-07-24T22:26:56Z</time>
					</trkpt>
					<trkpt lat="50.783380" lon="2.755070">
						<ele>119</ele>
						<time>2026-07-24T22:26:58Z</time>
					</trkpt>
					<trkpt lat="50.783320" lon="2.754890">
						<ele>117</ele>
						<time>2026-07-24T22:27:01Z</time>
					</trkpt>
					<trkpt lat="50.783270" lon="2.754850">
						<ele>117</ele>
						<time>2026-07-24T22:27:03Z</time>
					</trkpt>
					<trkpt lat="50.782760" lon="2.754920">
						<ele>116</ele>
						<time>2026-07-24T22:27:15Z</time>
					</trkpt>
					<trkpt lat="50.782550" lon="2.754990">
						<ele>116</ele>
						<time>2026-07-24T22:27:20Z</time>
					</trkpt>
					<trkpt lat="50.782320" lon="2.755000">
						<ele>115</ele>
						<time>2026-07-24T22:27:25Z</time>
					</trkpt>
					<trkpt lat="50.781970" lon="2.755110">
						<ele>113</ele>
						<time>2026-07-24T22:27:33Z</time>
					</trkpt>
					<trkpt lat="50.781920" lon="2.755180">
						<ele>113</ele>
						<time>2026-07-24T22:27:35Z</time>
					</trkpt>
					<trkpt lat="50.781900" lon="2.755300">
						<ele>114</ele>
						<time>2026-07-24T22:27:37Z</time>
					</trkpt>
					<trkpt lat="50.781930" lon="2.755700">
						<ele>117</ele>
						<time>2026-07-24T22:27:43Z</time>
					</trkpt>
					<trkpt lat="50.781930" lon="2.756390">
						<ele>124</ele>
						<time>2026-07-24T22:27:53Z</time>
					</trkpt>
					<trkpt lat="50.781970" lon="2.756670">
						<ele>127</ele>
						<time>2026-07-24T22:27:57Z</time>
					</trkpt>
					<trkpt lat="50.781950" lon="2.757090">
						<ele>127</ele>
						<time>2026-07-24T22:28:03Z</time>
					</trkpt>
					<trkpt lat="50.781970" lon="2.757160">
						<ele>127</ele>
						<time>2026-07-24T22:28:05Z</time>
					</trkpt>
					<trkpt lat="50.781880" lon="2.757290">
						<ele>126</ele>
						<time>2026-07-24T22:28:07Z</time>
					</trkpt>
					<trkpt lat="50.781820" lon="2.757450">
						<ele>125</ele>
						<time>2026-07-24T22:28:10Z</time>
					</trkpt>
					<trkpt lat="50.781780" lon="2.757390">
						<ele>125</ele>
						<time>2026-07-24T22:28:11Z</time>
					</trkpt>
					<trkpt lat="50.781740" lon="2.757210">
						<ele>124</ele>
						<time>2026-07-24T22:28:14Z</time>
					</trkpt>
					<trkpt lat="50.781710" lon="2.757170">
						<ele>124</ele>
						<time>2026-07-24T22:28:15Z</time>
					</trkpt>
					<trkpt lat="50.781680" lon="2.757170">
						<ele>124</ele>
						<time>2026-07-24T22:28:16Z</time>
					</trkpt>
					<trkpt lat="50.781650" lon="2.757210">
						<ele>123</ele>
						<time>2026-07-24T22:28:17Z</time>
					</trkpt>
					<trkpt lat="50.781610" lon="2.757350">
						<ele>122</ele>
						<time>2026-07-24T22:28:19Z</time>
					</trkpt>
					<trkpt lat="50.781610" lon="2.757650">
						<ele>121</ele>
						<time>2026-07-24T22:28:24Z</time>
					</trkpt>
					<trkpt lat="50.781570" lon="2.757730">
						<ele>120</ele>
						<time>2026-07-24T22:28:25Z</time>
					</trkpt>
					<trkpt lat="50.781550" lon="2.757730">
						<ele>119</ele>
						<time>2026-07-24T22:28:25Z</time>
					</trkpt>
					<trkpt lat="50.781370" lon="2.757430">
						<ele>117</ele>
						<time>2026-07-24T22:28:32Z</time>
					</trkpt>
					<trkpt lat="50.781270" lon="2.757450">
						<ele>115</ele>
						<time>2026-07-24T22:28:34Z</time>
					</trkpt>
					<trkpt lat="50.781260" lon="2.757580">
						<ele>114</ele>
						<time>2026-07-24T22:28:36Z</time>
					</trkpt>
					<trkpt lat="50.781210" lon="2.756580">
						<ele>115</ele>
						<time>2026-07-24T22:28:51Z</time>
					</trkpt>
					<trkpt lat="50.781180" lon="2.756350">
						<ele>113</ele>
						<time>2026-07-24T22:28:54Z</time>
					</trkpt>
					<trkpt lat="50.781090" lon="2.755970">
						<ele>110</ele>
						<time>2026-07-24T22:29:00Z</time>
					</trkpt>
					<trkpt lat="50.781020" lon="2.755840">
						<ele>109</ele>
						<time>2026-07-24T22:29:03Z</time>
					</trkpt>
					<trkpt lat="50.780950" lon="2.755820">
						<ele>108</ele>
						<time>2026-07-24T22:29:04Z</time>
					</trkpt>
					<trkpt lat="50.780670" lon="2.755880">
						<ele>107</ele>
						<time>2026-07-24T22:29:11Z</time>
					</trkpt>
					<trkpt lat="50.780410" lon="2.755760">
						<ele>106</ele>
						<time>2026-07-24T22:29:17Z</time>
					</trkpt>
					<trkpt lat="50.780240" lon="2.755710">
						<ele>105</ele>
						<time>2026-07-24T22:29:21Z</time>
					</trkpt>
					<trkpt lat="50.779600" lon="2.755370">
						<ele>101</ele>
						<time>2026-07-24T22:29:37Z</time>
					</trkpt>
					<trkpt lat="50.779090" lon="2.755370">
						<ele>96</ele>
						<time>2026-07-24T22:29:49Z</time>
					</trkpt>
					<trkpt lat="50.778770" lon="2.755320">
						<ele>94</ele>
						<time>2026-07-24T22:29:56Z</time>
					</trkpt>
					<trkpt lat="50.778560" lon="2.755340">
						<ele>92</ele>
						<time>2026-07-24T22:30:01Z</time>
					</trkpt>
					<trkpt lat="50.778230" lon="2.755430">
						<ele>89</ele>
						<time>2026-07-24T22:30:09Z</time>
					</trkpt>
					<trkpt lat="50.776900" lon="2.755890">
						<ele>81</ele>
						<time>2026-07-24T22:30:41Z</time>
					</trkpt>
					<trkpt lat="50.775410" lon="2.756240">
						<ele>73</ele>
						<time>2026-07-24T22:31:16Z</time>
					</trkpt>
					<trkpt lat="50.775350" lon="2.756280">
						<ele>73</ele>
						<time>2026-07-24T22:31:18Z</time>
					</trkpt>
					<trkpt lat="50.775310" lon="2.756380">
						<ele>73</ele>
						<time>2026-07-24T22:31:19Z</time>
					</trkpt>
					<trkpt lat="50.775270" lon="2.756650">
						<ele>73</ele>
						<time>2026-07-24T22:31:24Z</time>
					</trkpt>
					<trkpt lat="50.775360" lon="2.756930">
						<ele>72</ele>
						<time>2026-07-24T22:31:28Z</time>
					</trkpt>
					<trkpt lat="50.775370" lon="2.757140">
						<ele>71</ele>
						<time>2026-07-24T22:31:31Z</time>
					</trkpt>
					<trkpt lat="50.775300" lon="2.757300">
						<ele>70</ele>
						<time>2026-07-24T22:31:34Z</time>
					</trkpt>
					<trkpt lat="50.774890" lon="2.757650">
						<ele>67</ele>
						<time>2026-07-24T22:31:45Z</time>
					</trkpt>
					<trkpt lat="50.774430" lon="2.757890">
						<ele>63</ele>
						<time>2026-07-24T22:31:56Z</time>
					</trkpt>
					<trkpt lat="50.774100" lon="2.758290">
						<ele>60</ele>
						<time>2026-07-24T22:32:06Z</time>
					</trkpt>
					<trkpt lat="50.773990" lon="2.758460">
						<ele>61</ele>
						<time>2026-07-24T22:32:10Z</time>
					</trkpt>
					<trkpt lat="50.773870" lon="2.758520">
						<ele>61</ele>
						<time>2026-07-24T22:32:13Z</time>
					</trkpt>
					<trkpt lat="50.773740" lon="2.758520">
						<ele>62</ele>
						<time>2026-07-24T22:32:16Z</time>
					</trkpt>
					<trkpt lat="50.773690" lon="2.758590">
						<ele>62</ele>
						<time>2026-07-24T22:32:17Z</time>
					</trkpt>
					<trkpt lat="50.774030" lon="2.759040">
						<ele>65</ele>
						<time>2026-07-24T22:32:28Z</time>
					</trkpt>
					<trkpt lat="50.774140" lon="2.759320">
						<ele>67</ele>
						<time>2026-07-24T22:32:32Z</time>
					</trkpt>
					<trkpt lat="50.774270" lon="2.759370">
						<ele>69</ele>
						<time>2026-07-24T22:32:36Z</time>
					</trkpt>
					<trkpt lat="50.774470" lon="2.759530">
						<ele>72</ele>
						<time>2026-07-24T22:32:41Z</time>
					</trkpt>
					<trkpt lat="50.774620" lon="2.759570">
						<ele>73</ele>
						<time>2026-07-24T22:32:44Z</time>
					</trkpt>
					<trkpt lat="50.774830" lon="2.759740">
						<ele>76</ele>
						<time>2026-07-24T22:32:50Z</time>
					</trkpt>
					<trkpt lat="50.774920" lon="2.759770">
						<ele>77</ele>
						<time>2026-07-24T22:32:52Z</time>
					</trkpt>
					<trkpt lat="50.774970" lon="2.759840">
						<ele>77</ele>
						<time>2026-07-24T22:32:54Z</time>
					</trkpt>
					<trkpt lat="50.775090" lon="2.759880">
						<ele>78</ele>
						<time>2026-07-24T22:32:56Z</time>
					</trkpt>
					<trkpt lat="50.775240" lon="2.759990">
						<ele>79</ele>
						<time>2026-07-24T22:33:00Z</time>
					</trkpt>
					<trkpt lat="50.775450" lon="2.760040">
						<ele>79</ele>
						<time>2026-07-24T22:33:05Z</time>
					</trkpt>
					<trkpt lat="50.775500" lon="2.760130">
						<ele>80</ele>
						<time>2026-07-24T22:33:07Z</time>
					</trkpt>
					<trkpt lat="50.775490" lon="2.760270">
						<ele>80</ele>
						<time>2026-07-24T22:33:09Z</time>
					</trkpt>
					<trkpt lat="50.775330" lon="2.760880">
						<ele>81</ele>
						<time>2026-07-24T22:33:19Z</time>
					</trkpt>
					<trkpt lat="50.775210" lon="2.761030">
						<ele>81</ele>
						<time>2026-07-24T22:33:22Z</time>
					</trkpt>
					<trkpt lat="50.774980" lon="2.761780">
						<ele>81</ele>
						<time>2026-07-24T22:33:35Z</time>
					</trkpt>
					<trkpt lat="50.774880" lon="2.762350">
						<ele>80</ele>
						<time>2026-07-24T22:33:43Z</time>
					</trkpt>
					<trkpt lat="50.774920" lon="2.762440">
						<ele>80</ele>
						<time>2026-07-24T22:33:45Z</time>
					</trkpt>
					<trkpt lat="50.775230" lon="2.762380">
						<ele>80</ele>
						<time>2026-07-24T22:33:52Z</time>
					</trkpt>
					<trkpt lat="50.775550" lon="2.762420">
						<ele>81</ele>
						<time>2026-07-24T22:34:00Z</time>
					</trkpt>
					<trkpt lat="50.775840" lon="2.762420">
						<ele>81</ele>
						<time>2026-07-24T22:34:07Z</time>
					</trkpt>
					<trkpt lat="50.776150" lon="2.762340">
						<ele>82</ele>
						<time>2026-07-24T22:34:14Z</time>
					</trkpt>
					<trkpt lat="50.776400" lon="2.762240">
						<ele>83</ele>
						<time>2026-07-24T22:34:20Z</time>
					</trkpt>
					<trkpt lat="50.777010" lon="2.762120">
						<ele>84</ele>
						<time>2026-07-24T22:34:34Z</time>
					</trkpt>
					<trkpt lat="50.777940" lon="2.761890">
						<ele>87</ele>
						<time>2026-07-24T22:34:56Z</time>
					</trkpt>
					<trkpt lat="50.778270" lon="2.761840">
						<ele>88</ele>
						<time>2026-07-24T22:35:04Z</time>
					</trkpt>
					<trkpt lat="50.778650" lon="2.761850">
						<ele>89</ele>
						<time>2026-07-24T22:35:13Z</time>
					</trkpt>
					<trkpt lat="50.779440" lon="2.761930">
						<ele>90</ele>
						<time>2026-07-24T22:35:31Z</time>
					</trkpt>
					<trkpt lat="50.779900" lon="2.761940">
						<ele>90</ele>
						<time>2026-07-24T22:35:42Z</time>
					</trkpt>
					<trkpt lat="50.780410" lon="2.762010">
						<ele>90</ele>
						<time>2026-07-24T22:35:54Z</time>
					</trkpt>
					<trkpt lat="50.780610" lon="2.762000">
						<ele>90</ele>
						<time>2026-07-24T22:35:59Z</time>
					</trkpt>
					<trkpt lat="50.780700" lon="2.762060">
						<ele>90</ele>
						<time>2026-07-24T22:36:01Z</time>
					</trkpt>
					<trkpt lat="50.780740" lon="2.762130">
						<ele>90</ele>
						<time>2026-07-24T22:36:02Z</time>
					</trkpt>
					<trkpt lat="50.780750" lon="2.762210">
						<ele>90</ele>
						<time>2026-07-24T22:36:04Z</time>
					</trkpt>
					<trkpt lat="50.780750" lon="2.763140">
						<ele>89</ele>
						<time>2026-07-24T22:36:17Z</time>
					</trkpt>
					<trkpt lat="50.780830" lon="2.763450">
						<ele>88</ele>
						<time>2026-07-24T22:36:22Z</time>
					</trkpt>
					<trkpt lat="50.781040" lon="2.763910">
						<ele>87</ele>
						<time>2026-07-24T22:36:31Z</time>
					</trkpt>
					<trkpt lat="50.781090" lon="2.764130">
						<ele>86</ele>
						<time>2026-07-24T22:36:34Z</time>
					</trkpt>
					<trkpt lat="50.781150" lon="2.765140">
						<ele>85</ele>
						<time>2026-07-24T22:36:49Z</time>
					</trkpt>
					<trkpt lat="50.781160" lon="2.765800">
						<ele>85</ele>
						<time>2026-07-24T22:36:59Z</time>
					</trkpt>
					<trkpt lat="50.781200" lon="2.766210">
						<ele>85</ele>
						<time>2026-07-24T22:37:05Z</time>
					</trkpt>
					<trkpt lat="50.781370" lon="2.766900">
						<ele>85</ele>
						<time>2026-07-24T22:37:16Z</time>
					</trkpt>
					<trkpt lat="50.781880" lon="2.768510">
						<ele>85</ele>
						<time>2026-07-24T22:37:43Z</time>
					</trkpt>
					<trkpt lat="50.781870" lon="2.768670">
						<ele>85</ele>
						<time>2026-07-24T22:37:45Z</time>
					</trkpt>
					<trkpt lat="50.781840" lon="2.768720">
						<ele>84</ele>
						<time>2026-07-24T22:37:46Z</time>
					</trkpt>
					<trkpt lat="50.781330" lon="2.769060">
						<ele>81</ele>
						<time>2026-07-24T22:37:59Z</time>
					</trkpt>
					<trkpt lat="50.780750" lon="2.769680">
						<ele>79</ele>
						<time>2026-07-24T22:38:15Z</time>
					</trkpt>
					<trkpt lat="50.780510" lon="2.770030">
						<ele>79</ele>
						<time>2026-07-24T22:38:23Z</time>
					</trkpt>
					<trkpt lat="50.780420" lon="2.770230">
						<ele>79</ele>
						<time>2026-07-24T22:38:26Z</time>
					</trkpt>
					<trkpt lat="50.780250" lon="2.770980">
						<ele>79</ele>
						<time>2026-07-24T22:38:38Z</time>
					</trkpt>
					<trkpt lat="50.780150" lon="2.771240">
						<ele>80</ele>
						<time>2026-07-24T22:38:43Z</time>
					</trkpt>
					<trkpt lat="50.779930" lon="2.771520">
						<ele>79</ele>
						<time>2026-07-24T22:38:49Z</time>
					</trkpt>
					<trkpt lat="50.779430" lon="2.772330">
						<ele>77</ele>
						<time>2026-07-24T22:39:06Z</time>
					</trkpt>
					<trkpt lat="50.779170" lon="2.772660">
						<ele>77</ele>
						<time>2026-07-24T22:39:14Z</time>
					</trkpt>
					<trkpt lat="50.778450" lon="2.773410">
						<ele>76</ele>
						<time>2026-07-24T22:39:34Z</time>
					</trkpt>
					<trkpt lat="50.777850" lon="2.773730">
						<ele>74</ele>
						<time>2026-07-24T22:39:49Z</time>
					</trkpt>
					<trkpt lat="50.777370" lon="2.773850">
						<ele>73</ele>
						<time>2026-07-24T22:40:00Z</time>
					</trkpt>
					<trkpt lat="50.776280" lon="2.774030">
						<ele>70</ele>
						<time>2026-07-24T22:40:26Z</time>
					</trkpt>
					<trkpt lat="50.776140" lon="2.774080">
						<ele>70</ele>
						<time>2026-07-24T22:40:29Z</time>
					</trkpt>
					<trkpt lat="50.775860" lon="2.774240">
						<ele>69</ele>
						<time>2026-07-24T22:40:36Z</time>
					</trkpt>
					<trkpt lat="50.775530" lon="2.774450">
						<ele>70</ele>
						<time>2026-07-24T22:40:44Z</time>
					</trkpt>
					<trkpt lat="50.775340" lon="2.774620">
						<ele>71</ele>
						<time>2026-07-24T22:40:49Z</time>
					</trkpt>
					<trkpt lat="50.774680" lon="2.775430">
						<ele>74</ele>
						<time>2026-07-24T22:41:09Z</time>
					</trkpt>
					<trkpt lat="50.774550" lon="2.775700">
						<ele>74</ele>
						<time>2026-07-24T22:41:14Z</time>
					</trkpt>
					<trkpt lat="50.774590" lon="2.775920">
						<ele>74</ele>
						<time>2026-07-24T22:41:17Z</time>
					</trkpt>
					<trkpt lat="50.775310" lon="2.776790">
						<ele>72</ele>
						<time>2026-07-24T22:41:38Z</time>
					</trkpt>
					<trkpt lat="50.775410" lon="2.776940">
						<ele>72</ele>
						<time>2026-07-24T22:41:42Z</time>
					</trkpt>
					<trkpt lat="50.775500" lon="2.777140">
						<ele>71</ele>
						<time>2026-07-24T22:41:45Z</time>
					</trkpt>
					<trkpt lat="50.775990" lon="2.779360">
						<ele>65</ele>
						<time>2026-07-24T22:42:20Z</time>
					</trkpt>
					<trkpt lat="50.776160" lon="2.780340">
						<ele>62</ele>
						<time>2026-07-24T22:42:35Z</time>
					</trkpt>
					<trkpt lat="50.776300" lon="2.780840">
						<ele>61</ele>
						<time>2026-07-24T22:42:43Z</time>
					</trkpt>
					<trkpt lat="50.776680" lon="2.781940">
						<ele>58</ele>
						<time>2026-07-24T22:43:02Z</time>
					</trkpt>
					<trkpt lat="50.776860" lon="2.782670">
						<ele>57</ele>
						<time>2026-07-24T22:43:13Z</time>
					</trkpt>
					<trkpt lat="50.777340" lon="2.785410">
						<ele>50</ele>
						<time>2026-07-24T22:43:55Z</time>
					</trkpt>
					<trkpt lat="50.777400" lon="2.786210">
						<ele>51</ele>
						<time>2026-07-24T22:44:07Z</time>
					</trkpt>
					<trkpt lat="50.777450" lon="2.786410">
						<ele>51</ele>
						<time>2026-07-24T22:44:10Z</time>
					</trkpt>
					<trkpt lat="50.777490" lon="2.786480">
						<ele>52</ele>
						<time>2026-07-24T22:44:12Z</time>
					</trkpt>
					<trkpt lat="50.777590" lon="2.786570">
						<ele>52</ele>
						<time>2026-07-24T22:44:14Z</time>
					</trkpt>
					<trkpt lat="50.777960" lon="2.786700">
						<ele>54</ele>
						<time>2026-07-24T22:44:23Z</time>
					</trkpt>
					<trkpt lat="50.778210" lon="2.786860">
						<ele>55</ele>
						<time>2026-07-24T22:44:29Z</time>
					</trkpt>
					<trkpt lat="50.778940" lon="2.787610">
						<ele>61</ele>
						<time>2026-07-24T22:44:50Z</time>
					</trkpt>
					<trkpt lat="50.778980" lon="2.787680">
						<ele>61</ele>
						<time>2026-07-24T22:44:51Z</time>
					</trkpt>
					<trkpt lat="50.778940" lon="2.789830">
						<ele>67</ele>
						<time>2026-07-24T22:45:23Z</time>
					</trkpt>
					<trkpt lat="50.779040" lon="2.790610">
						<ele>69</ele>
						<time>2026-07-24T22:45:35Z</time>
					</trkpt>
					<trkpt lat="50.779240" lon="2.791510">
						<ele>68</ele>
						<time>2026-07-24T22:45:49Z</time>
					</trkpt>
					<trkpt lat="50.779320" lon="2.791980">
						<ele>68</ele>
						<time>2026-07-24T22:45:56Z</time>
					</trkpt>
					<trkpt lat="50.779350" lon="2.792400">
						<ele>68</ele>
						<time>2026-07-24T22:46:02Z</time>
					</trkpt>
					<trkpt lat="50.779470" lon="2.793310">
						<ele>69</ele>
						<time>2026-07-24T22:46:16Z</time>
					</trkpt>
					<trkpt lat="50.779490" lon="2.793750">
						<ele>69</ele>
						<time>2026-07-24T22:46:22Z</time>
					</trkpt>
					<trkpt lat="50.779480" lon="2.795130">
						<ele>69</ele>
						<time>2026-07-24T22:46:43Z</time>
					</trkpt>
					<trkpt lat="50.779440" lon="2.795770">
						<ele>69</ele>
						<time>2026-07-24T22:46:52Z</time>
					</trkpt>
					<trkpt lat="50.779300" lon="2.796510">
						<ele>69</ele>
						<time>2026-07-24T22:47:04Z</time>
					</trkpt>
					<trkpt lat="50.779240" lon="2.796990">
						<ele>70</ele>
						<time>2026-07-24T22:47:11Z</time>
					</trkpt>
					<trkpt lat="50.779250" lon="2.797650">
						<ele>71</ele>
						<time>2026-07-24T22:47:21Z</time>
					</trkpt>
					<trkpt lat="50.779430" lon="2.798800">
						<ele>73</ele>
						<time>2026-07-24T22:47:38Z</time>
					</trkpt>
					<trkpt lat="50.779900" lon="2.801100">
						<ele>80</ele>
						<time>2026-07-24T22:48:14Z</time>
					</trkpt>
					<trkpt lat="50.779890" lon="2.801160">
						<ele>80</ele>
						<time>2026-07-24T22:48:15Z</time>
					</trkpt>
					<trkpt lat="50.779830" lon="2.801240">
						<ele>80</ele>
						<time>2026-07-24T22:48:17Z</time>
					</trkpt>
					<trkpt lat="50.778870" lon="2.802000">
						<ele>82</ele>
						<time>2026-07-24T22:48:42Z</time>
					</trkpt>
					<trkpt lat="50.778790" lon="2.802160">
						<ele>82</ele>
						<time>2026-07-24T22:48:45Z</time>
					</trkpt>
					<trkpt lat="50.778810" lon="2.803160">
						<ele>86</ele>
						<time>2026-07-24T22:49:00Z</time>
					</trkpt>
					<trkpt lat="50.778710" lon="2.804520">
						<ele>91</ele>
						<time>2026-07-24T22:49:20Z</time>
					</trkpt>
					<trkpt lat="50.778920" lon="2.805980">
						<ele>101</ele>
						<time>2026-07-24T22:49:42Z</time>
					</trkpt>
					<trkpt lat="50.778910" lon="2.806280">
						<ele>103</ele>
						<time>2026-07-24T22:49:46Z</time>
					</trkpt>
					<trkpt lat="50.778820" lon="2.806840">
						<ele>108</ele>
						<time>2026-07-24T22:49:55Z</time>
					</trkpt>
					<trkpt lat="50.778790" lon="2.807280">
						<ele>112</ele>
						<time>2026-07-24T22:50:01Z</time>
					</trkpt>
					<trkpt lat="50.778790" lon="2.807460">
						<ele>113</ele>
						<time>2026-07-24T22:50:04Z</time>
					</trkpt>
					<trkpt lat="50.778850" lon="2.807590">
						<ele>115</ele>
						<time>2026-07-24T22:50:06Z</time>
					</trkpt>
					<trkpt lat="50.778850" lon="2.807950">
						<ele>119</ele>
						<time>2026-07-24T22:50:12Z</time>
					</trkpt>
					<trkpt lat="50.778810" lon="2.808170">
						<ele>122</ele>
						<time>2026-07-24T22:50:15Z</time>
					</trkpt>
					<trkpt lat="50.778710" lon="2.808400">
						<ele>127</ele>
						<time>2026-07-24T22:50:19Z</time>
					</trkpt>
					<trkpt lat="50.778640" lon="2.808790">
						<ele>134</ele>
						<time>2026-07-24T22:50:25Z</time>
					</trkpt>
					<trkpt lat="50.778560" lon="2.809070">
						<ele>140</ele>
						<time>2026-07-24T22:50:30Z</time>
					</trkpt>
					<trkpt lat="50.778480" lon="2.809220">
						<ele>144</ele>
						<time>2026-07-24T22:50:33Z</time>
					</trkpt>
					<trkpt lat="50.778460" lon="2.809390">
						<ele>146</ele>
						<time>2026-07-24T22:50:35Z</time>
					</trkpt>
					<trkpt lat="50.778390" lon="2.809500">
						<ele>148</ele>
						<time>2026-07-24T22:50:37Z</time>
					</trkpt>
					<trkpt lat="50.778410" lon="2.809560">
						<ele>149</ele>
						<time>2026-07-24T22:50:39Z</time>
					</trkpt>
					<trkpt lat="50.778270" lon="2.809800">
						<ele>152</ele>
						<time>2026-07-24T22:50:43Z</time>
					</trkpt>
					<trkpt lat="50.778200" lon="2.809980">
						<ele>153</ele>
						<time>2026-07-24T22:50:46Z</time>
					</trkpt>
					<trkpt lat="50.778180" lon="2.810190">
						<ele>153</ele>
						<time>2026-07-24T22:50:50Z</time>
					</trkpt>
					<trkpt lat="50.778210" lon="2.810480">
						<ele>153</ele>
						<time>2026-07-24T22:50:54Z</time>
					</trkpt>
					<trkpt lat="50.778310" lon="2.810680">
						<ele>155</ele>
						<time>2026-07-24T22:50:58Z</time>
					</trkpt>
					<trkpt lat="50.778430" lon="2.811170">
						<ele>155</ele>
						<time>2026-07-24T22:51:05Z</time>
					</trkpt>
					<trkpt lat="50.778520" lon="2.811310">
						<ele>155</ele>
						<time>2026-07-24T22:51:08Z</time>
					</trkpt>
					<trkpt lat="50.778700" lon="2.811890">
						<ele>156</ele>
						<time>2026-07-24T22:51:18Z</time>
					</trkpt>
					<trkpt lat="50.778810" lon="2.812360">
						<ele>156</ele>
						<time>2026-07-24T22:51:25Z</time>
					</trkpt>
					<trkpt lat="50.778800" lon="2.812520">
						<ele>156</ele>
						<time>2026-07-24T22:51:28Z</time>
					</trkpt>
					<trkpt lat="50.779680" lon="2.816300">
						<ele>141</ele>
						<time>2026-07-24T22:52:27Z</time>
					</trkpt>
					<trkpt lat="50.779630" lon="2.816450">
						<ele>140</ele>
						<time>2026-07-24T22:52:30Z</time>
					</trkpt>
					<trkpt lat="50.779450" lon="2.816780">
						<ele>138</ele>
						<time>2026-07-24T22:52:36Z</time>
					</trkpt>
					<trkpt lat="50.779380" lon="2.816990">
						<ele>137</ele>
						<time>2026-07-24T22:52:40Z</time>
					</trkpt>
					<trkpt lat="50.779200" lon="2.817180">
						<ele>136</ele>
						<time>2026-07-24T22:52:45Z</time>
					</trkpt>
					<trkpt lat="50.779000" lon="2.817270">
						<ele>136</ele>
						<time>2026-07-24T22:52:50Z</time>
					</trkpt>
					<trkpt lat="50.777690" lon="2.817540">
						<ele>121</ele>
						<time>2026-07-24T22:53:20Z</time>
					</trkpt>
					<trkpt lat="50.777080" lon="2.818240">
						<ele>106</ele>
						<time>2026-07-24T22:53:38Z</time>
					</trkpt>
					<trkpt lat="50.776880" lon="2.818590">
						<ele>100</ele>
						<time>2026-07-24T22:53:45Z</time>
					</trkpt>
					<trkpt lat="50.777080" lon="2.818930">
						<ele>100</ele>
						<time>2026-07-24T22:53:52Z</time>
					</trkpt>
					<trkpt lat="50.777160" lon="2.818990">
						<ele>100</ele>
						<time>2026-07-24T22:53:54Z</time>
					</trkpt>
					<trkpt lat="50.777290" lon="2.819350">
						<ele>99</ele>
						<time>2026-07-24T22:54:00Z</time>
					</trkpt>
					<trkpt lat="50.777410" lon="2.819390">
						<ele>99</ele>
						<time>2026-07-24T22:54:03Z</time>
					</trkpt>
					<trkpt lat="50.777650" lon="2.819860">
						<ele>95</ele>
						<time>2026-07-24T22:54:12Z</time>
					</trkpt>
					<trkpt lat="50.778210" lon="2.820620">
						<ele>92</ele>
						<time>2026-07-24T22:54:29Z</time>
					</trkpt>
					<trkpt lat="50.778550" lon="2.820970">
						<ele>90</ele>
						<time>2026-07-24T22:54:38Z</time>
					</trkpt>
					<trkpt lat="50.778650" lon="2.820820">
						<ele>90</ele>
						<time>2026-07-24T22:54:42Z</time>
					</trkpt>
					<trkpt lat="50.779460" lon="2.821250">
						<ele>86</ele>
						<time>2026-07-24T22:55:02Z</time>
					</trkpt>
					<trkpt lat="50.780860" lon="2.823020">
						<ele>75</ele>
						<time>2026-07-24T22:55:44Z</time>
					</trkpt>
					<trkpt lat="50.781290" lon="2.823380">
						<ele>72</ele>
						<time>2026-07-24T22:55:55Z</time>
					</trkpt>
					<trkpt lat="50.782460" lon="2.824490">
						<ele>67</ele>
						<time>2026-07-24T22:56:27Z</time>
					</trkpt>
					<trkpt lat="50.782830" lon="2.825140">
						<ele>64</ele>
						<time>2026-07-24T22:56:40Z</time>
					</trkpt>
					<trkpt lat="50.783200" lon="2.825890">
						<ele>62</ele>
						<time>2026-07-24T22:56:54Z</time>
					</trkpt>
					<trkpt lat="50.783180" lon="2.826670">
						<ele>59</ele>
						<time>2026-07-24T22:57:05Z</time>
					</trkpt>
					<trkpt lat="50.783740" lon="2.827600">
						<ele>56</ele>
						<time>2026-07-24T22:57:24Z</time>
					</trkpt>
					<trkpt lat="50.784140" lon="2.826920">
						<ele>57</ele>
						<time>2026-07-24T22:57:38Z</time>
					</trkpt>
					<trkpt lat="50.786820" lon="2.828950">
						<ele>48</ele>
						<time>2026-07-24T22:58:47Z</time>
					</trkpt>
					<trkpt lat="50.786160" lon="2.830550">
						<ele>46</ele>
						<time>2026-07-24T22:59:16Z</time>
					</trkpt>
					<trkpt lat="50.785330" lon="2.829060">
						<ele>55</ele>
						<time>2026-07-24T22:59:45Z</time>
					</trkpt>
					<trkpt lat="50.784520" lon="2.828080">
						<ele>57</ele>
						<time>2026-07-24T23:00:09Z</time>
					</trkpt>
					<trkpt lat="50.783920" lon="2.829040">
						<ele>54</ele>
						<time>2026-07-24T23:00:29Z</time>
					</trkpt>
					<trkpt lat="50.783280" lon="2.828740">
						<ele>55</ele>
						<time>2026-07-24T23:00:44Z</time>
					</trkpt>
					<trkpt lat="50.782020" lon="2.826780">
						<ele>64</ele>
						<time>2026-07-24T23:01:25Z</time>
					</trkpt>
					<trkpt lat="50.780650" lon="2.828850">
						<ele>65</ele>
						<time>2026-07-24T23:02:10Z</time>
					</trkpt>
					<trkpt lat="50.780120" lon="2.827960">
						<ele>68</ele>
						<time>2026-07-24T23:02:28Z</time>
					</trkpt>
					<trkpt lat="50.779030" lon="2.826610">
						<ele>73</ele>
						<time>2026-07-24T23:03:00Z</time>
					</trkpt>
					<trkpt lat="50.777810" lon="2.824170">
						<ele>81</ele>
						<time>2026-07-24T23:03:46Z</time>
					</trkpt>
					<trkpt lat="50.776970" lon="2.822850">
						<ele>83</ele>
						<time>2026-07-24T23:04:14Z</time>
					</trkpt>
					<trkpt lat="50.776570" lon="2.822620">
						<ele>82</ele>
						<time>2026-07-24T23:04:24Z</time>
					</trkpt>
					<trkpt lat="50.776440" lon="2.823630">
						<ele>81</ele>
						<time>2026-07-24T23:04:39Z</time>
					</trkpt>
					<trkpt lat="50.776330" lon="2.824200">
						<ele>79</ele>
						<time>2026-07-24T23:04:48Z</time>
					</trkpt>
					<trkpt lat="50.776200" lon="2.825080">
						<ele>79</ele>
						<time>2026-07-24T23:05:01Z</time>
					</trkpt>
					<trkpt lat="50.775910" lon="2.826540">
						<ele>76</ele>
						<time>2026-07-24T23:05:24Z</time>
					</trkpt>
					<trkpt lat="50.775880" lon="2.827460">
						<ele>76</ele>
						<time>2026-07-24T23:05:37Z</time>
					</trkpt>
					<trkpt lat="50.773670" lon="2.827700">
						<ele>67</ele>
						<time>2026-07-24T23:06:29Z</time>
					</trkpt>
					<trkpt lat="50.771780" lon="2.825160">
						<ele>55</ele>
						<time>2026-07-24T23:07:27Z</time>
					</trkpt>
					<trkpt lat="50.770720" lon="2.822920">
						<ele>47</ele>
						<time>2026-07-24T23:08:08Z</time>
					</trkpt>
					<trkpt lat="50.770460" lon="2.824390">
						<ele>50</ele>
						<time>2026-07-24T23:08:31Z</time>
					</trkpt>
					<trkpt lat="50.769150" lon="2.825400">
						<ele>50</ele>
						<time>2026-07-24T23:09:05Z</time>
					</trkpt>
					<trkpt lat="50.768000" lon="2.826440">
						<ele>47</ele>
						<time>2026-07-24T23:09:36Z</time>
					</trkpt>
					<trkpt lat="50.767530" lon="2.827290">
						<ele>48</ele>
						<time>2026-07-24T23:09:52Z</time>
					</trkpt>
					<trkpt lat="50.767580" lon="2.827730">
						<ele>50</ele>
						<time>2026-07-24T23:09:59Z</time>
					</trkpt>
					<trkpt lat="50.766800" lon="2.828670">
						<ele>48</ele>
						<time>2026-07-24T23:10:22Z</time>
					</trkpt>
					<trkpt lat="50.766940" lon="2.829930">
						<ele>50</ele>
						<time>2026-07-24T23:10:41Z</time>
					</trkpt>
					<trkpt lat="50.767920" lon="2.830810">
						<ele>59</ele>
						<time>2026-07-24T23:11:07Z</time>
					</trkpt>
					<trkpt lat="50.770020" lon="2.829090">
						<ele>66</ele>
						<time>2026-07-24T23:12:02Z</time>
					</trkpt>
					<trkpt lat="50.771610" lon="2.829220">
						<ele>70</ele>
						<time>2026-07-24T23:12:39Z</time>
					</trkpt>
					<trkpt lat="50.772040" lon="2.830350">
						<ele>69</ele>
						<time>2026-07-24T23:12:59Z</time>
					</trkpt>
					<trkpt lat="50.774340" lon="2.828780">
						<ele>72</ele>
						<time>2026-07-24T23:13:57Z</time>
					</trkpt>
					<trkpt lat="50.775780" lon="2.828480">
						<ele>76</ele>
						<time>2026-07-24T23:14:31Z</time>
					</trkpt>
					<trkpt lat="50.775330" lon="2.836510">
						<ele>68</ele>
						<time>2026-07-24T23:16:30Z</time>
					</trkpt>
					<trkpt lat="50.775420" lon="2.840390">
						<ele>64</ele>
						<time>2026-07-24T23:17:28Z</time>
					</trkpt>
					<trkpt lat="50.773570" lon="2.842430">
						<ele>58</ele>
						<time>2026-07-24T23:18:20Z</time>
					</trkpt>
					<trkpt lat="50.766830" lon="2.851650">
						<ele>34</ele>
						<time>2026-07-24T23:21:49Z</time>
					</trkpt>
					<trkpt lat="50.764760" lon="2.855930">
						<ele>30</ele>
						<time>2026-07-24T23:23:08Z</time>
					</trkpt>
					<trkpt lat="50.765470" lon="2.856900">
						<ele>30</ele>
						<time>2026-07-24T23:23:30Z</time>
					</trkpt>
					<trkpt lat="50.768180" lon="2.856110">
						<ele>35</ele>
						<time>2026-07-24T23:24:34Z</time>
					</trkpt>
					<trkpt lat="50.771020" lon="2.852770">
						<ele>39</ele>
						<time>2026-07-24T23:25:57Z</time>
					</trkpt>
					<trkpt lat="50.771530" lon="2.852730">
						<ele>42</ele>
						<time>2026-07-24T23:26:09Z</time>
					</trkpt>
					<trkpt lat="50.772780" lon="2.852160">
						<ele>50</ele>
						<time>2026-07-24T23:26:39Z</time>
					</trkpt>
					<trkpt lat="50.774160" lon="2.852420">
						<ele>59</ele>
						<time>2026-07-24T23:27:12Z</time>
					</trkpt>
					<trkpt lat="50.774740" lon="2.853960">
						<ele>60</ele>
						<time>2026-07-24T23:27:38Z</time>
					</trkpt>
					<trkpt lat="50.775600" lon="2.855880">
						<ele>63</ele>
						<time>2026-07-24T23:28:13Z</time>
					</trkpt>
					<trkpt lat="50.775130" lon="2.859430">
						<ele>64</ele>
						<time>2026-07-24T23:29:07Z</time>
					</trkpt>
					<trkpt lat="50.776230" lon="2.859490">
						<ele>69</ele>
						<time>2026-07-24T23:29:32Z</time>
					</trkpt>
					<trkpt lat="50.776100" lon="2.860400">
						<ele>70</ele>
						<time>2026-07-24T23:29:46Z</time>
					</trkpt>
					<trkpt lat="50.775560" lon="2.861450">
						<ele>71</ele>
						<time>2026-07-24T23:30:06Z</time>
					</trkpt>
					<trkpt lat="50.775370" lon="2.862290">
						<ele>72</ele>
						<time>2026-07-24T23:30:19Z</time>
					</trkpt>
					<trkpt lat="50.776010" lon="2.862860">
						<ele>74</ele>
						<time>2026-07-24T23:30:36Z</time>
					</trkpt>
					<trkpt lat="50.776400" lon="2.862690">
						<ele>74</ele>
						<time>2026-07-24T23:30:46Z</time>
					</trkpt>
					<trkpt lat="50.777560" lon="2.865210">
						<ele>66</ele>
						<time>2026-07-24T23:31:32Z</time>
					</trkpt>
					<trkpt lat="50.774520" lon="2.870340">
						<ele>57</ele>
						<time>2026-07-24T23:33:16Z</time>
					</trkpt>
					<trkpt lat="50.771900" lon="2.873920">
						<ele>42</ele>
						<time>2026-07-24T23:34:37Z</time>
					</trkpt>
					<trkpt lat="50.770700" lon="2.873540">
						<ele>44</ele>
						<time>2026-07-24T23:35:05Z</time>
					</trkpt>
					<trkpt lat="50.770020" lon="2.872740">
						<ele>44</ele>
						<time>2026-07-24T23:35:25Z</time>
					</trkpt>
					<trkpt lat="50.767450" lon="2.872500">
						<ele>43</ele>
						<time>2026-07-24T23:36:25Z</time>
					</trkpt>
					<trkpt lat="50.767140" lon="2.870350">
						<ele>46</ele>
						<time>2026-07-24T23:36:58Z</time>
					</trkpt>
					<trkpt lat="50.760830" lon="2.873270">
						<ele>39</ele>
						<time>2026-07-24T23:39:31Z</time>
					</trkpt>
					<trkpt lat="50.760440" lon="2.872420">
						<ele>40</ele>
						<time>2026-07-24T23:39:47Z</time>
					</trkpt>
					<trkpt lat="50.756620" lon="2.874010">
						<ele>29</ele>
						<time>2026-07-24T23:41:19Z</time>
					</trkpt>
					<trkpt lat="50.756560" lon="2.875540">
						<ele>25</ele>
						<time>2026-07-24T23:41:42Z</time>
					</trkpt>
					<trkpt lat="50.755820" lon="2.876000">
						<ele>23</ele>
						<time>2026-07-24T23:42:00Z</time>
					</trkpt>
					<trkpt lat="50.756120" lon="2.881420">
						<ele>24</ele>
						<time>2026-07-24T23:43:21Z</time>
					</trkpt>
					<trkpt lat="50.756560" lon="2.884290">
						<ele>24</ele>
						<time>2026-07-24T23:44:04Z</time>
					</trkpt>
					<trkpt lat="50.754530" lon="2.884210">
						<ele>19</ele>
						<time>2026-07-24T23:44:52Z</time>
					</trkpt>
					<trkpt lat="50.752260" lon="2.881720">
						<ele>27</ele>
						<time>2026-07-24T23:45:56Z</time>
					</trkpt>
					<trkpt lat="50.749080" lon="2.879510">
						<ele>37</ele>
						<time>2026-07-24T23:47:17Z</time>
					</trkpt>
					<trkpt lat="50.748030" lon="2.879460">
						<ele>43</ele>
						<time>2026-07-24T23:47:42Z</time>
					</trkpt>
					<trkpt lat="50.747390" lon="2.879970">
						<ele>47</ele>
						<time>2026-07-24T23:47:58Z</time>
					</trkpt>
					<trkpt lat="50.746710" lon="2.878020">
						<ele>52</ele>
						<time>2026-07-24T23:48:31Z</time>
					</trkpt>
					<trkpt lat="50.746360" lon="2.874480">
						<ele>53</ele>
						<time>2026-07-24T23:49:24Z</time>
					</trkpt>
					<trkpt lat="50.746060" lon="2.874550">
						<ele>55</ele>
						<time>2026-07-24T23:49:31Z</time>
					</trkpt>
					<trkpt lat="50.745110" lon="2.874700">
						<ele>57</ele>
						<time>2026-07-24T23:49:54Z</time>
					</trkpt>
					<trkpt lat="50.744360" lon="2.874790">
						<ele>56</ele>
						<time>2026-07-24T23:50:11Z</time>
					</trkpt>
					<trkpt lat="50.743540" lon="2.874940">
						<ele>56</ele>
						<time>2026-07-24T23:50:31Z</time>
					</trkpt>
					<trkpt lat="50.743060" lon="2.874970">
						<ele>54</ele>
						<time>2026-07-24T23:50:42Z</time>
					</trkpt>
					<trkpt lat="50.742220" lon="2.874810">
						<ele>48</ele>
						<time>2026-07-24T23:51:02Z</time>
					</trkpt>
					<trkpt lat="50.741990" lon="2.874810">
						<ele>46</ele>
						<time>2026-07-24T23:51:07Z</time>
					</trkpt>
					<trkpt lat="50.741620" lon="2.874640">
						<ele>41</ele>
						<time>2026-07-24T23:51:16Z</time>
					</trkpt>
					<trkpt lat="50.741470" lon="2.874480">
						<ele>38</ele>
						<time>2026-07-24T23:51:20Z</time>
					</trkpt>
					<trkpt lat="50.741320" lon="2.874420">
						<ele>36</ele>
						<time>2026-07-24T23:51:24Z</time>
					</trkpt>
					<trkpt lat="50.741240" lon="2.874430">
						<ele>35</ele>
						<time>2026-07-24T23:51:26Z</time>
					</trkpt>
					<trkpt lat="50.741150" lon="2.874330">
						<ele>33</ele>
						<time>2026-07-24T23:51:28Z</time>
					</trkpt>
					<trkpt lat="50.741070" lon="2.874300">
						<ele>31</ele>
						<time>2026-07-24T23:51:30Z</time>
					</trkpt>
					<trkpt lat="50.740810" lon="2.874250">
						<ele>27</ele>
						<time>2026-07-24T23:51:36Z</time>
					</trkpt>
					<trkpt lat="50.740600" lon="2.874260">
						<ele>28</ele>
						<time>2026-07-24T23:51:41Z</time>
					</trkpt>
					<trkpt lat="50.740250" lon="2.874180">
						<ele>27</ele>
						<time>2026-07-24T23:51:49Z</time>
					</trkpt>
					<trkpt lat="50.739900" lon="2.874180">
						<ele>28</ele>
						<time>2026-07-24T23:51:58Z</time>
					</trkpt>
					<trkpt lat="50.739800" lon="2.874270">
						<ele>29</ele>
						<time>2026-07-24T23:52:00Z</time>
					</trkpt>
					<trkpt lat="50.739450" lon="2.874330">
						<ele>31</ele>
						<time>2026-07-24T23:52:08Z</time>
					</trkpt>
					<trkpt lat="50.738910" lon="2.874540">
						<ele>32</ele>
						<time>2026-07-24T23:52:21Z</time>
					</trkpt>
					<trkpt lat="50.738430" lon="2.874830">
						<ele>32</ele>
						<time>2026-07-24T23:52:33Z</time>
					</trkpt>
					<trkpt lat="50.737980" lon="2.875060">
						<ele>31</ele>
						<time>2026-07-24T23:52:45Z</time>
					</trkpt>
					<trkpt lat="50.737000" lon="2.875480">
						<ele>25</ele>
						<time>2026-07-24T23:53:08Z</time>
					</trkpt>
					<trkpt lat="50.736270" lon="2.875750">
						<ele>20</ele>
						<time>2026-07-24T23:53:26Z</time>
					</trkpt>
					<trkpt lat="50.736010" lon="2.875790">
						<ele>19</ele>
						<time>2026-07-24T23:53:32Z</time>
					</trkpt>
					<trkpt lat="50.735190" lon="2.875760">
						<ele>18</ele>
						<time>2026-07-24T23:53:51Z</time>
					</trkpt>
					<trkpt lat="50.734560" lon="2.875840">
						<ele>17</ele>
						<time>2026-07-24T23:54:06Z</time>
					</trkpt>
					<trkpt lat="50.733470" lon="2.875830">
						<ele>16</ele>
						<time>2026-07-24T23:54:31Z</time>
					</trkpt>
					<trkpt lat="50.732870" lon="2.875880">
						<ele>17</ele>
						<time>2026-07-24T23:54:45Z</time>
					</trkpt>
					<trkpt lat="50.732440" lon="2.875950">
						<ele>17</ele>
						<time>2026-07-24T23:54:55Z</time>
					</trkpt>
					<trkpt lat="50.732380" lon="2.876000">
						<ele>17</ele>
						<time>2026-07-24T23:54:57Z</time>
					</trkpt>
					<trkpt lat="50.732340" lon="2.876080">
						<ele>17</ele>
						<time>2026-07-24T23:54:58Z</time>
					</trkpt>
					<trkpt lat="50.732300" lon="2.876290">
						<ele>17</ele>
						<time>2026-07-24T23:55:02Z</time>
					</trkpt>
					<trkpt lat="50.732310" lon="2.877970">
						<ele>17</ele>
						<time>2026-07-24T23:55:26Z</time>
					</trkpt>
					<trkpt lat="50.732240" lon="2.878110">
						<ele>17</ele>
						<time>2026-07-24T23:55:29Z</time>
					</trkpt>
					<trkpt lat="50.732110" lon="2.878100">
						<ele>17</ele>
						<time>2026-07-24T23:55:32Z</time>
					</trkpt>
					<trkpt lat="50.731330" lon="2.877730">
						<ele>17</ele>
						<time>2026-07-24T23:55:51Z</time>
					</trkpt>
					<trkpt lat="50.730680" lon="2.877530">
						<ele>16</ele>
						<time>2026-07-24T23:56:07Z</time>
					</trkpt>
					<trkpt lat="50.730100" lon="2.877430">
						<ele>16</ele>
						<time>2026-07-24T23:56:20Z</time>
					</trkpt>
					<trkpt lat="50.729740" lon="2.877440">
						<ele>17</ele>
						<time>2026-07-24T23:56:29Z</time>
					</trkpt>
					<trkpt lat="50.729610" lon="2.877470">
						<ele>17</ele>
						<time>2026-07-24T23:56:32Z</time>
					</trkpt>
					<trkpt lat="50.729540" lon="2.877530">
						<ele>17</ele>
						<time>2026-07-24T23:56:34Z</time>
					</trkpt>
					<trkpt lat="50.729440" lon="2.877720">
						<ele>18</ele>
						<time>2026-07-24T23:56:37Z</time>
					</trkpt>
					<trkpt lat="50.729210" lon="2.878540">
						<ele>19</ele>
						<time>2026-07-24T23:56:51Z</time>
					</trkpt>
					<trkpt lat="50.729120" lon="2.878680">
						<ele>19</ele>
						<time>2026-07-24T23:56:53Z</time>
					</trkpt>
					<trkpt lat="50.726650" lon="2.880370">
						<ele>19</ele>
						<time>2026-07-24T23:57:56Z</time>
					</trkpt>
					<trkpt lat="50.726440" lon="2.880420">
						<ele>19</ele>
						<time>2026-07-24T23:58:01Z</time>
					</trkpt>
					<trkpt lat="50.726200" lon="2.880690">
						<ele>19</ele>
						<time>2026-07-24T23:58:08Z</time>
					</trkpt>
					<trkpt lat="50.726000" lon="2.880870">
						<ele>19</ele>
						<time>2026-07-24T23:58:14Z</time>
					</trkpt>
					<trkpt lat="50.725200" lon="2.881360">
						<ele>19</ele>
						<time>2026-07-24T23:58:34Z</time>
					</trkpt>
					<trkpt lat="50.724840" lon="2.881510">
						<ele>19</ele>
						<time>2026-07-24T23:58:42Z</time>
					</trkpt>
					<trkpt lat="50.724770" lon="2.881510">
						<ele>19</ele>
						<time>2026-07-24T23:58:44Z</time>
					</trkpt>
					<trkpt lat="50.724720" lon="2.881440">
						<ele>19</ele>
						<time>2026-07-24T23:58:45Z</time>
					</trkpt>
					<trkpt lat="50.724700" lon="2.881340">
						<ele>19</ele>
						<time>2026-07-24T23:58:47Z</time>
					</trkpt>
					<trkpt lat="50.724590" lon="2.880280">
						<ele>18</ele>
						<time>2026-07-24T23:59:03Z</time>
					</trkpt>
					<trkpt lat="50.724460" lon="2.879480">
						<ele>17</ele>
						<time>2026-07-24T23:59:15Z</time>
					</trkpt>
					<trkpt lat="50.724380" lon="2.879160">
						<ele>18</ele>
						<time>2026-07-24T23:59:20Z</time>
					</trkpt>
					<trkpt lat="50.723650" lon="2.877360">
						<ele>17</ele>
						<time>2026-07-24T23:59:52Z</time>
					</trkpt>
					<trkpt lat="50.723160" lon="2.876710">
						<ele>17</ele>
						<time>2026-07-25T00:00:07Z</time>
					</trkpt>
					<trkpt lat="50.723110" lon="2.876510">
						<ele>17</ele>
						<time>2026-07-25T00:00:10Z</time>
					</trkpt>
					<trkpt lat="50.723030" lon="2.875580">
						<ele>18</ele>
						<time>2026-07-25T00:00:24Z</time>
					</trkpt>
					<trkpt lat="50.722880" lon="2.875000">
						<ele>17</ele>
						<time>2026-07-25T00:00:33Z</time>
					</trkpt>
					<trkpt lat="50.722790" lon="2.874880">
						<ele>17</ele>
						<time>2026-07-25T00:00:36Z</time>
					</trkpt>
					<trkpt lat="50.722730" lon="2.874840">
						<ele>17</ele>
						<time>2026-07-25T00:00:37Z</time>
					</trkpt>
					<trkpt lat="50.721800" lon="2.874490">
						<ele>15</ele>
						<time>2026-07-25T00:01:00Z</time>
					</trkpt>
					<trkpt lat="50.721620" lon="2.874550">
						<ele>15</ele>
						<time>2026-07-25T00:01:04Z</time>
					</trkpt>
					<trkpt lat="50.720680" lon="2.875120">
						<ele>16</ele>
						<time>2026-07-25T00:01:27Z</time>
					</trkpt>
					<trkpt lat="50.719910" lon="2.875540">
						<ele>17</ele>
						<time>2026-07-25T00:01:46Z</time>
					</trkpt>
					<trkpt lat="50.719690" lon="2.875630">
						<ele>16</ele>
						<time>2026-07-25T00:01:52Z</time>
					</trkpt>
					<trkpt lat="50.719530" lon="2.875590">
						<ele>16</ele>
						<time>2026-07-25T00:01:56Z</time>
					</trkpt>
					<trkpt lat="50.719460" lon="2.875530">
						<ele>16</ele>
						<time>2026-07-25T00:01:57Z</time>
					</trkpt>
					<trkpt lat="50.719410" lon="2.875450">
						<ele>16</ele>
						<time>2026-07-25T00:01:59Z</time>
					</trkpt>
					<trkpt lat="50.719380" lon="2.875340">
						<ele>16</ele>
						<time>2026-07-25T00:02:01Z</time>
					</trkpt>
					<trkpt lat="50.718990" lon="2.873540">
						<ele>17</ele>
						<time>2026-07-25T00:02:29Z</time>
					</trkpt>
					<trkpt lat="50.718880" lon="2.873140">
						<ele>17</ele>
						<time>2026-07-25T00:02:35Z</time>
					</trkpt>
					<trkpt lat="50.718520" lon="2.872130">
						<ele>18</ele>
						<time>2026-07-25T00:02:53Z</time>
					</trkpt>
					<trkpt lat="50.718430" lon="2.872000">
						<ele>18</ele>
						<time>2026-07-25T00:02:55Z</time>
					</trkpt>
					<trkpt lat="50.718370" lon="2.871980">
						<ele>18</ele>
						<time>2026-07-25T00:02:57Z</time>
					</trkpt>
					<trkpt lat="50.717830" lon="2.871990">
						<ele>17</ele>
						<time>2026-07-25T00:03:09Z</time>
					</trkpt>
					<trkpt lat="50.717760" lon="2.871970">
						<ele>17</ele>
						<time>2026-07-25T00:03:11Z</time>
					</trkpt>
					<trkpt lat="50.717640" lon="2.871850">
						<ele>17</ele>
						<time>2026-07-25T00:03:14Z</time>
					</trkpt>
					<trkpt lat="50.717320" lon="2.871150">
						<ele>16</ele>
						<time>2026-07-25T00:03:27Z</time>
					</trkpt>
					<trkpt lat="50.716910" lon="2.869830">
						<ele>17</ele>
						<time>2026-07-25T00:03:49Z</time>
					</trkpt>
					<trkpt lat="50.716710" lon="2.869320">
						<ele>17</ele>
						<time>2026-07-25T00:03:58Z</time>
					</trkpt>
					<trkpt lat="50.716590" lon="2.869090">
						<ele>17</ele>
						<time>2026-07-25T00:04:02Z</time>
					</trkpt>
					<trkpt lat="50.716490" lon="2.868970">
						<ele>17</ele>
						<time>2026-07-25T00:04:05Z</time>
					</trkpt>
					<trkpt lat="50.716370" lon="2.868940">
						<ele>17</ele>
						<time>2026-07-25T00:04:08Z</time>
					</trkpt>
					<trkpt lat="50.716260" lon="2.869060">
						<ele>17</ele>
						<time>2026-07-25T00:04:11Z</time>
					</trkpt>
					<trkpt lat="50.716070" lon="2.869370">
						<ele>17</ele>
						<time>2026-07-25T00:04:18Z</time>
					</trkpt>
					<trkpt lat="50.715280" lon="2.870830">
						<ele>17</ele>
						<time>2026-07-25T00:04:46Z</time>
					</trkpt>
					<trkpt lat="50.715220" lon="2.870900">
						<ele>17</ele>
						<time>2026-07-25T00:04:48Z</time>
					</trkpt>
					<trkpt lat="50.714740" lon="2.871260">
						<ele>17</ele>
						<time>2026-07-25T00:05:00Z</time>
					</trkpt>
					<trkpt lat="50.714570" lon="2.871510">
						<ele>17</ele>
						<time>2026-07-25T00:05:05Z</time>
					</trkpt>
					<trkpt lat="50.713870" lon="2.872990">
						<ele>17</ele>
						<time>2026-07-25T00:05:33Z</time>
					</trkpt>
					<trkpt lat="50.713480" lon="2.874030">
						<ele>16</ele>
						<time>2026-07-25T00:05:51Z</time>
					</trkpt>
					<trkpt lat="50.713250" lon="2.874520">
						<ele>16</ele>
						<time>2026-07-25T00:06:00Z</time>
					</trkpt>
					<trkpt lat="50.711800" lon="2.876400">
						<ele>17</ele>
						<time>2026-07-25T00:06:44Z</time>
					</trkpt>
					<trkpt lat="50.709550" lon="2.879490">
						<ele>18</ele>
						<time>2026-07-25T00:07:53Z</time>
					</trkpt>
					<trkpt lat="50.709400" lon="2.879210">
						<ele>19</ele>
						<time>2026-07-25T00:07:59Z</time>
					</trkpt>
					<trkpt lat="50.704690" lon="2.882130">
						<ele>14</ele>
						<time>2026-07-25T00:09:57Z</time>
					</trkpt>
					<trkpt lat="50.701200" lon="2.884580">
						<ele>17</ele>
						<time>2026-07-25T00:11:26Z</time>
					</trkpt>
					<trkpt lat="50.701280" lon="2.885260">
						<ele>17</ele>
						<time>2026-07-25T00:11:36Z</time>
					</trkpt>
					<trkpt lat="50.701330" lon="2.886150">
						<ele>17</ele>
						<time>2026-07-25T00:11:49Z</time>
					</trkpt>
					<trkpt lat="50.701730" lon="2.887370">
						<ele>17</ele>
						<time>2026-07-25T00:12:10Z</time>
					</trkpt>
					<trkpt lat="50.701360" lon="2.887800">
						<ele>16</ele>
						<time>2026-07-25T00:12:20Z</time>
					</trkpt>
					<trkpt lat="50.701230" lon="2.888900">
						<ele>16</ele>
						<time>2026-07-25T00:12:37Z</time>
					</trkpt>
					<trkpt lat="50.699880" lon="2.888740">
						<ele>15</ele>
						<time>2026-07-25T00:13:09Z</time>
					</trkpt>
					<trkpt lat="50.699770" lon="2.890340">
						<ele>16</ele>
						<time>2026-07-25T00:13:32Z</time>
					</trkpt>
					<trkpt lat="50.700570" lon="2.892360">
						<ele>17</ele>
						<time>2026-07-25T00:14:08Z</time>
					</trkpt>
					<trkpt lat="50.695630" lon="2.897250">
						<ele>14</ele>
						<time>2026-07-25T00:16:24Z</time>
					</trkpt>
					<trkpt lat="50.695060" lon="2.897720">
						<ele>13</ele>
						<time>2026-07-25T00:16:39Z</time>
					</trkpt>
					<trkpt lat="50.696880" lon="2.901990">
						<ele>13</ele>
						<time>2026-07-25T00:17:55Z</time>
					</trkpt>
					<trkpt lat="50.696980" lon="2.902440">
						<ele>14</ele>
						<time>2026-07-25T00:18:02Z</time>
					</trkpt>
					<trkpt lat="50.698430" lon="2.905180">
						<ele>13</ele>
						<time>2026-07-25T00:18:55Z</time>
					</trkpt>
					<trkpt lat="50.694890" lon="2.910280">
						<ele>14</ele>
						<time>2026-07-25T00:20:47Z</time>
					</trkpt>
					<trkpt lat="50.694720" lon="2.910990">
						<ele>15</ele>
						<time>2026-07-25T00:20:58Z</time>
					</trkpt>
					<trkpt lat="50.694650" lon="2.911510">
						<ele>17</ele>
						<time>2026-07-25T00:21:06Z</time>
					</trkpt>
					<trkpt lat="50.694240" lon="2.912360">
						<ele>18</ele>
						<time>2026-07-25T00:21:22Z</time>
					</trkpt>
					<trkpt lat="50.693650" lon="2.913420">
						<ele>18</ele>
						<time>2026-07-25T00:21:43Z</time>
					</trkpt>
					<trkpt lat="50.693980" lon="2.914050">
						<ele>18</ele>
						<time>2026-07-25T00:21:55Z</time>
					</trkpt>
					<trkpt lat="50.693150" lon="2.915500">
						<ele>19</ele>
						<time>2026-07-25T00:22:24Z</time>
					</trkpt>
					</trkseg>
				</trk>
			</gpx>