<?xml version="1.0" encoding="UTF-8" ?>
<gpx version="1.1" xmlns:xsi="http://www.w3.org/2001/XMLSchema-instance"
    xmlns="http://www.topografix.com/GPX/1/1"
    xsi:schemaLocation="http://www.topografix.com/GPX/1/1 http://www.topografix.com/GPX/1/1/gpx.xsd"
    creator="Openrunner - https://www.openrunner.com" >	<trk>
	                   <name>UCH MARCHE 8KM AOÛT 2026-23895369</name>
						<trkseg>
					<trkpt lat="50.693210" lon="2.915730">
						<ele>18</ele>
						<time>2026-07-24T20:25:18Z</time>
					</trkpt>
					<trkpt lat="50.693280" lon="2.915620">
						<ele>18</ele>
						<time>2026-07-24T20:25:26Z</time>
					</trkpt>
					<trkpt lat="50.693150" lon="2.915420">
						<ele>19</ele>
						<time>2026-07-24T20:25:40Z</time>
					</trkpt>
					<trkpt lat="50.693420" lon="2.914970">
						<ele>20</ele>
						<time>2026-07-24T20:26:12Z</time>
					</trkpt>
					<trkpt lat="50.693670" lon="2.914570">
						<ele>19</ele>
						<time>2026-07-24T20:26:40Z</time>
					</trkpt>
					<trkpt lat="50.693890" lon="2.914210">
						<ele>18</ele>
						<time>2026-07-24T20:27:06Z</time>
					</trkpt>
					<trkpt lat="50.693990" lon="2.914060">
						<ele>18</ele>
						<time>2026-07-24T20:27:17Z</time>
					</trkpt>
					<trkpt lat="50.693650" lon="2.913430">
						<ele>18</ele>
						<time>2026-07-24T20:27:59Z</time>
					</trkpt>
					<trkpt lat="50.693690" lon="2.913360">
						<ele>18</ele>
						<time>2026-07-24T20:28:04Z</time>
					</trkpt>
					<trkpt lat="50.694170" lon="2.912580">
						<ele>18</ele>
						<time>2026-07-24T20:28:59Z</time>
					</trkpt>
					<trkpt lat="50.694250" lon="2.912430">
						<ele>18</ele>
						<time>2026-07-24T20:29:09Z</time>
					</trkpt>
					<trkpt lat="50.694380" lon="2.912130">
						<ele>17</ele>
						<time>2026-07-24T20:29:27Z</time>
					</trkpt>
					<trkpt lat="50.694620" lon="2.911650">
						<ele>17</ele>
						<time>2026-07-24T20:29:58Z</time>
					</trkpt>
					<trkpt lat="50.694650" lon="2.911560">
						<ele>17</ele>
						<time>2026-07-24T20:30:03Z</time>
					</trkpt>
					<trkpt lat="50.694690" lon="2.911440">
						<ele>16</ele>
						<time>2026-07-24T20:30:10Z</time>
					</trkpt>
					<trkpt lat="50.694730" lon="2.911050">
						<ele>15</ele>
						<time>2026-07-24T20:30:30Z</time>
					</trkpt>
					<trkpt lat="50.694760" lon="2.910880">
						<ele>15</ele>
						<time>2026-07-24T20:30:39Z</time>
					</trkpt>
					<trkpt lat="50.694780" lon="2.910650">
						<ele>15</ele>
						<time>2026-07-24T20:30:51Z</time>
					</trkpt>
					<trkpt lat="50.694820" lon="2.910470">
						<ele>14</ele>
						<time>2026-07-24T20:31:01Z</time>
					</trkpt>
					<trkpt lat="50.694840" lon="2.910390">
						<ele>14</ele>
						<time>2026-07-24T20:31:05Z</time>
					</trkpt>
					<trkpt lat="50.694890" lon="2.910260">
						<ele>14</ele>
						<time>2026-07-24T20:31:13Z</time>
					</trkpt>
					<trkpt lat="50.695020" lon="2.910050">
						<ele>14</ele>
						<time>2026-07-24T20:31:28Z</time>
					</trkpt>
					<trkpt lat="50.695590" lon="2.909200">
						<ele>13</ele>
						<time>2026-07-24T20:32:30Z</time>
					</trkpt>
					<trkpt lat="50.695610" lon="2.909180">
						<ele>13</ele>
						<time>2026-07-24T20:32:32Z</time>
					</trkpt>
					<trkpt lat="50.695690" lon="2.909060">
						<ele>13</ele>
						<time>2026-07-24T20:32:41Z</time>
					</trkpt>
					<trkpt lat="50.696110" lon="2.908430">
						<ele>12</ele>
						<time>2026-07-24T20:33:27Z</time>
					</trkpt>
					<trkpt lat="50.696160" lon="2.908350">
						<ele>12</ele>
						<time>2026-07-24T20:33:33Z</time>
					</trkpt>
					<trkpt lat="50.696660" lon="2.907610">
						<ele>12</ele>
						<time>2026-07-24T20:34:28Z</time>
					</trkpt>
					<trkpt lat="50.697130" lon="2.906930">
						<ele>13</ele>
						<time>2026-07-24T20:35:19Z</time>
					</trkpt>
					<trkpt lat="50.697290" lon="2.906710">
						<ele>13</ele>
						<time>2026-07-24T20:35:36Z</time>
					</trkpt>
					<trkpt lat="50.697660" lon="2.906120">
						<ele>13</ele>
						<time>2026-07-24T20:36:18Z</time>
					</trkpt>
					<trkpt lat="50.698130" lon="2.905420">
						<ele>13</ele>
						<time>2026-07-24T20:37:10Z</time>
					</trkpt>
					<trkpt lat="50.698330" lon="2.905110">
						<ele>13</ele>
						<time>2026-07-24T20:37:32Z</time>
					</trkpt>
					<trkpt lat="50.698340" lon="2.905100">
						<ele>13</ele>
						<time>2026-07-24T20:37:33Z</time>
					</trkpt>
					<trkpt lat="50.698330" lon="2.905110">
						<ele>13</ele>
						<time>2026-07-24T20:37:34Z</time>
					</trkpt>
					<trkpt lat="50.697880" lon="2.904300">
						<ele>14</ele>
						<time>2026-07-24T20:38:29Z</time>
					</trkpt>
					<trkpt lat="50.697370" lon="2.903290">
						<ele>14</ele>
						<time>2026-07-24T20:39:34Z</time>
					</trkpt>
					<trkpt lat="50.697040" lon="2.902600">
						<ele>14</ele>
						<time>2026-07-24T20:40:18Z</time>
					</trkpt>
					<trkpt lat="50.696970" lon="2.902470">
						<ele>14</ele>
						<time>2026-07-24T20:40:27Z</time>
					</trkpt>
					<trkpt lat="50.696940" lon="2.902350">
						<ele>14</ele>
						<time>2026-07-24T20:40:33Z</time>
					</trkpt>
					<trkpt lat="50.696870" lon="2.901990">
						<ele>13</ele>
						<time>2026-07-24T20:40:53Z</time>
					</trkpt>
					<trkpt lat="50.696870" lon="2.901990">
						<ele>13</ele>
						<time>2026-07-24T20:40:53Z</time>
					</trkpt>
					<trkpt lat="50.696870" lon="2.901990">
						<ele>13</ele>
						<time>2026-07-24T20:40:53Z</time>
					</trkpt>
					<trkpt lat="50.697050" lon="2.901810">
						<ele>13</ele>
						<time>2026-07-24T20:41:10Z</time>
					</trkpt>
					<trkpt lat="50.697220" lon="2.901610">
						<ele>13</ele>
						<time>2026-07-24T20:41:27Z</time>
					</trkpt>
					<trkpt lat="50.697330" lon="2.901450">
						<ele>13</ele>
						<time>2026-07-24T20:41:39Z</time>
					</trkpt>
					<trkpt lat="50.697400" lon="2.901320">
						<ele>13</ele>
						<time>2026-07-24T20:41:47Z</time>
					</trkpt>
					<trkpt lat="50.697480" lon="2.901160">
						<ele>14</ele>
						<time>2026-07-24T20:41:58Z</time>
					</trkpt>
					<trkpt lat="50.697770" lon="2.900470">
						<ele>14</ele>
						<time>2026-07-24T20:42:40Z</time>
					</trkpt>
					<trkpt lat="50.697900" lon="2.900200">
						<ele>14</ele>
						<time>2026-07-24T20:42:57Z</time>
					</trkpt>
					<trkpt lat="50.697890" lon="2.900180">
						<ele>14</ele>
						<time>2026-07-24T20:42:58Z</time>
					</trkpt>
					<trkpt lat="50.697360" lon="2.899180">
						<ele>13</ele>
						<time>2026-07-24T20:44:04Z</time>
					</trkpt>
					<trkpt lat="50.696870" lon="2.898270">
						<ele>12</ele>
						<time>2026-07-24T20:45:05Z</time>
					</trkpt>
					<trkpt lat="50.696260" lon="2.897880">
						<ele>13</ele>
						<time>2026-07-24T20:45:57Z</time>
					</trkpt>
					<trkpt lat="50.695830" lon="2.897290">
						<ele>14</ele>
						<time>2026-07-24T20:46:43Z</time>
					</trkpt>
					<trkpt lat="50.695770" lon="2.897140">
						<ele>14</ele>
						<time>2026-07-24T20:46:52Z</time>
					</trkpt>
					<trkpt lat="50.695790" lon="2.897130">
						<ele>14</ele>
						<time>2026-07-24T20:46:54Z</time>
					</trkpt>
					<trkpt lat="50.695870" lon="2.897060">
						<ele>13</ele>
						<time>2026-07-24T20:47:01Z</time>
					</trkpt>
					<trkpt lat="50.696050" lon="2.896880">
						<ele>13</ele>
						<time>2026-07-24T20:47:18Z</time>
					</trkpt>
					<trkpt lat="50.696250" lon="2.896630">
						<ele>13</ele>
						<time>2026-07-24T20:47:39Z</time>
					</trkpt>
					<trkpt lat="50.696850" lon="2.895970">
						<ele>13</ele>
						<time>2026-07-24T20:48:37Z</time>
					</trkpt>
					<trkpt lat="50.697230" lon="2.895430">
						<ele>13</ele>
						<time>2026-07-24T20:49:18Z</time>
					</trkpt>
					<trkpt lat="50.697420" lon="2.895240">
						<ele>13</ele>
						<time>2026-07-24T20:49:36Z</time>
					</trkpt>
					<trkpt lat="50.697790" lon="2.894890">
						<ele>14</ele>
						<time>2026-07-24T20:50:11Z</time>
					</trkpt>
					<trkpt lat="50.698080" lon="2.894630">
						<ele>15</ele>
						<time>2026-07-24T20:50:37Z</time>
					</trkpt>
					<trkpt lat="50.698410" lon="2.894300">
						<ele>17</ele>
						<time>2026-07-24T20:51:09Z</time>
					</trkpt>
					<trkpt lat="50.698730" lon="2.894020">
						<ele>16</ele>
						<time>2026-07-24T20:51:38Z</time>
					</trkpt>
					<trkpt lat="50.699110" lon="2.893730">
						<ele>16</ele>
						<time>2026-07-24T20:52:12Z</time>
					</trkpt>
					<trkpt lat="50.699200" lon="2.893660">
						<ele>17</ele>
						<time>2026-07-24T20:52:20Z</time>
					</trkpt>
					<trkpt lat="50.699790" lon="2.893110">
						<ele>17</ele>
						<time>2026-07-24T20:53:15Z</time>
					</trkpt>
					<trkpt lat="50.700250" lon="2.892640">
						<ele>17</ele>
						<time>2026-07-24T20:53:58Z</time>
					</trkpt>
					<trkpt lat="50.700570" lon="2.892320">
						<ele>17</ele>
						<time>2026-07-24T20:54:29Z</time>
					</trkpt>
					<trkpt lat="50.700830" lon="2.892070">
						<ele>17</ele>
						<time>2026-07-24T20:54:53Z</time>
					</trkpt>
					<trkpt lat="50.700960" lon="2.891950">
						<ele>17</ele>
						<time>2026-07-24T20:55:05Z</time>
					</trkpt>
					<trkpt lat="50.701040" lon="2.891910">
						<ele>17</ele>
						<time>2026-07-24T20:55:12Z</time>
					</trkpt>
					<trkpt lat="50.701090" lon="2.891920">
						<ele>16</ele>
						<time>2026-07-24T20:55:16Z</time>
					</trkpt>
					<trkpt lat="50.701130" lon="2.891930">
						<ele>16</ele>
						<time>2026-07-24T20:55:19Z</time>
					</trkpt>
					<trkpt lat="50.701220" lon="2.892040">
						<ele>16</ele>
						<time>2026-07-24T20:55:28Z</time>
					</trkpt>
					<trkpt lat="50.701280" lon="2.892170">
						<ele>16</ele>
						<time>2026-07-24T20:55:36Z</time>
					</trkpt>
					<trkpt lat="50.701360" lon="2.892410">
						<ele>16</ele>
						<time>2026-07-24T20:55:50Z</time>
					</trkpt>
					<trkpt lat="50.701450" lon="2.892750">
						<ele>16</ele>
						<time>2026-07-24T20:56:09Z</time>
					</trkpt>
					<trkpt lat="50.701550" lon="2.892970">
						<ele>16</ele>
						<time>2026-07-24T20:56:23Z</time>
					</trkpt>
					<trkpt lat="50.701850" lon="2.893520">
						<ele>16</ele>
						<time>2026-07-24T20:56:59Z</time>
					</trkpt>
					<trkpt lat="50.702140" lon="2.894010">
						<ele>17</ele>
						<time>2026-07-24T20:57:33Z</time>
					</trkpt>
					<trkpt lat="50.702410" lon="2.894380">
						<ele>17</ele>
						<time>2026-07-24T20:58:02Z</time>
					</trkpt>
					<trkpt lat="50.702520" lon="2.894550">
						<ele>17</ele>
						<time>2026-07-24T20:58:14Z</time>
					</trkpt>
					<trkpt lat="50.702600" lon="2.894710">
						<ele>17</ele>
						<time>2026-07-24T20:58:25Z</time>
					</trkpt>
					<trkpt lat="50.702820" lon="2.895230">
						<ele>16</ele>
						<time>2026-07-24T20:58:56Z</time>
					</trkpt>
					<trkpt lat="50.702840" lon="2.895260">
						<ele>16</ele>
						<time>2026-07-24T20:58:59Z</time>
					</trkpt>
					<trkpt lat="50.703350" lon="2.894740">
						<ele>16</ele>
						<time>2026-07-24T20:59:47Z</time>
					</trkpt>
					<trkpt lat="50.704280" lon="2.893570">
						<ele>16</ele>
						<time>2026-07-24T21:01:22Z</time>
					</trkpt>
					<trkpt lat="50.704520" lon="2.893320">
						<ele>16</ele>
						<time>2026-07-24T21:01:45Z</time>
					</trkpt>
					<trkpt lat="50.705020" lon="2.892710">
						<ele>17</ele>
						<time>2026-07-24T21:02:36Z</time>
					</trkpt>
					<trkpt lat="50.705440" lon="2.892250">
						<ele>17</ele>
						<time>2026-07-24T21:03:17Z</time>
					</trkpt>
					<trkpt lat="50.704820" lon="2.890870">
						<ele>17</ele>
						<time>2026-07-24T21:04:43Z</time>
					</trkpt>
					<trkpt lat="50.704440" lon="2.890030">
						<ele>16</ele>
						<time>2026-07-24T21:05:35Z</time>
					</trkpt>
					<trkpt lat="50.704430" lon="2.889820">
						<ele>16</ele>
						<time>2026-07-24T21:05:46Z</time>
					</trkpt>
					<trkpt lat="50.704770" lon="2.889300">
						<ele>17</ele>
						<time>2026-07-24T21:06:24Z</time>
					</trkpt>
					<trkpt lat="50.704950" lon="2.889010">
						<ele>17</ele>
						<time>2026-07-24T21:06:44Z</time>
					</trkpt>
					<trkpt lat="50.704960" lon="2.888940">
						<ele>17</ele>
						<time>2026-07-24T21:06:48Z</time>
					</trkpt>
					<trkpt lat="50.704990" lon="2.888880">
						<ele>17</ele>
						<time>2026-07-24T21:06:52Z</time>
					</trkpt>
					<trkpt lat="50.704870" lon="2.888640">
						<ele>18</ele>
						<time>2026-07-24T21:07:07Z</time>
					</trkpt>
					<trkpt lat="50.704600" lon="2.888140">
						<ele>17</ele>
						<time>2026-07-24T21:07:41Z</time>
					</trkpt>
					<trkpt lat="50.704580" lon="2.888180">
						<ele>17</ele>
						<time>2026-07-24T21:07:43Z</time>
					</trkpt>
					<trkpt lat="50.704600" lon="2.888140">
						<ele>17</ele>
						<time>2026-07-24T21:07:46Z</time>
					</trkpt>
					<trkpt lat="50.705080" lon="2.887490">
						<ele>17</ele>
						<time>2026-07-24T21:08:36Z</time>
					</trkpt>
					<trkpt lat="50.705200" lon="2.887360">
						<ele>17</ele>
						<time>2026-07-24T21:08:48Z</time>
					</trkpt>
					<trkpt lat="50.705530" lon="2.886960">
						<ele>17</ele>
						<time>2026-07-24T21:09:21Z</time>
					</trkpt>
					<trkpt lat="50.705730" lon="2.886660">
						<ele>17</ele>
						<time>2026-07-24T21:09:43Z</time>
					</trkpt>
					<trkpt lat="50.706240" lon="2.885810">
						<ele>17</ele>
						<time>2026-07-24T21:10:43Z</time>
					</trkpt>
					<trkpt lat="50.706490" lon="2.885420">
						<ele>17</ele>
						<time>2026-07-24T21:11:11Z</time>
					</trkpt>
					<trkpt lat="50.706530" lon="2.885390">
						<ele>17</ele>
						<time>2026-07-24T21:11:15Z</time>
					</trkpt>
					<trkpt lat="50.706580" lon="2.885380">
						<ele>17</ele>
						<time>2026-07-24T21:11:19Z</time>
					</trkpt>
					<trkpt lat="50.706570" lon="2.885040">
						<ele>17</ele>
						<time>2026-07-24T21:11:36Z</time>
					</trkpt>
					<trkpt lat="50.706540" lon="2.884020">
						<ele>18</ele>
						<time>2026-07-24T21:12:28Z</time>
					</trkpt>
					<trkpt lat="50.706530" lon="2.883920">
						<ele>17</ele>
						<time>2026-07-24T21:12:33Z</time>
					</trkpt>
					<trkpt lat="50.706500" lon="2.883780">
						<ele>17</ele>
						<time>2026-07-24T21:12:40Z</time>
					</trkpt>
					<trkpt lat="50.707070" lon="2.883360">
						<ele>18</ele>
						<time>2026-07-24T21:13:31Z</time>
					</trkpt>
					<trkpt lat="50.707200" lon="2.883260">
						<ele>18</ele>
						<time>2026-07-24T21:13:42Z</time>
					</trkpt>
					<trkpt lat="50.707490" lon="2.883060">
						<ele>19</ele>
						<time>2026-07-24T21:14:08Z</time>
					</trkpt>
					<trkpt lat="50.707520" lon="2.883030">
						<ele>19</ele>
						<time>2026-07-24T21:14:10Z</time>
					</trkpt>
					<trkpt lat="50.707540" lon="2.883080">
						<ele>19</ele>
						<time>2026-07-24T21:14:13Z</time>
					</trkpt>
					<trkpt lat="50.707520" lon="2.883030">
						<ele>19</ele>
						<time>2026-07-24T21:14:16Z</time>
					</trkpt>
					<trkpt lat="50.707760" lon="2.882850">
						<ele>18</ele>
						<time>2026-07-24T21:14:38Z</time>
					</trkpt>
					<trkpt lat="50.707860" lon="2.882800">
						<ele>18</ele>
						<time>2026-07-24T21:14:46Z</time>
					</trkpt>
					<trkpt lat="50.707980" lon="2.882630">
						<ele>18</ele>
						<time>2026-07-24T21:14:59Z</time>
					</trkpt>
					<trkpt lat="50.708120" lon="2.882520">
						<ele>18</ele>
						<time>2026-07-24T21:15:11Z</time>
					</trkpt>
					<trkpt lat="50.708150" lon="2.882540">
						<ele>18</ele>
						<time>2026-07-24T21:15:14Z</time>
					</trkpt>
					<trkpt lat="50.708250" lon="2.882440">
						<ele>18</ele>
						<time>2026-07-24T21:15:24Z</time>
					</trkpt>
					<trkpt lat="50.707980" lon="2.881560">
						<ele>18</ele>
						<time>2026-07-24T21:16:13Z</time>
					</trkpt>
					<trkpt lat="50.708830" lon="2.880920">
						<ele>18</ele>
						<time>2026-07-24T21:17:29Z</time>
					</trkpt>
					<trkpt lat="50.708840" lon="2.880920">
						<ele>18</ele>
						<time>2026-07-24T21:17:29Z</time>
					</trkpt>
					<trkpt lat="50.708670" lon="2.880580">
						<ele>18</ele>
						<time>2026-07-24T21:17:51Z</time>
					</trkpt>
					<trkpt lat="50.708570" lon="2.880250">
						<ele>18</ele>
						<time>2026-07-24T21:18:10Z</time>
					</trkpt>
					<trkpt lat="50.708470" lon="2.879890">
						<ele>19</ele>
						<time>2026-07-24T21:18:30Z</time>
					</trkpt>
					<trkpt lat="50.707300" lon="2.880620">
						<ele>16</ele>
						<time>2026-07-24T21:20:10Z</time>
					</trkpt>
					<trkpt lat="50.706830" lon="2.880860">
						<ele>16</ele>
						<time>2026-07-24T21:20:50Z</time>
					</trkpt>
					<trkpt lat="50.706830" lon="2.880860">
						<ele>16</ele>
						<time>2026-07-24T21:20:50Z</time>
					</trkpt>
					<trkpt lat="50.706770" lon="2.880890">
						<ele>16</ele>
						<time>2026-07-24T21:20:55Z</time>
					</trkpt>
					<trkpt lat="50.706760" lon="2.880840">
						<ele>16</ele>
						<time>2026-07-24T21:20:58Z</time>
					</trkpt>
					<trkpt lat="50.706750" lon="2.880810">
						<ele>16</ele>
						<time>2026-07-24T21:20:59Z</time>
					</trkpt>
					<trkpt lat="50.706760" lon="2.880840">
						<ele>16</ele>
						<time>2026-07-24T21:21:01Z</time>
					</trkpt>
					<trkpt lat="50.705630" lon="2.881520">
						<ele>14</ele>
						<time>2026-07-24T21:22:38Z</time>
					</trkpt>
					<trkpt lat="50.704950" lon="2.881920">
						<ele>14</ele>
						<time>2026-07-24T21:23:36Z</time>
					</trkpt>
					<trkpt lat="50.704710" lon="2.882090">
						<ele>14</ele>
						<time>2026-07-24T21:23:57Z</time>
					</trkpt>
					<trkpt lat="50.704660" lon="2.882180">
						<ele>14</ele>
						<time>2026-07-24T21:24:03Z</time>
					</trkpt>
					<trkpt lat="50.704610" lon="2.882200">
						<ele>14</ele>
						<time>2026-07-24T21:24:07Z</time>
					</trkpt>
					<trkpt lat="50.704570" lon="2.882230">
						<ele>14</ele>
						<time>2026-07-24T21:24:11Z</time>
					</trkpt>
					<trkpt lat="50.703590" lon="2.883080">
						<ele>16</ele>
						<time>2026-07-24T21:25:40Z</time>
					</trkpt>
					<trkpt lat="50.703540" lon="2.883140">
						<ele>17</ele>
						<time>2026-07-24T21:25:45Z</time>
					</trkpt>
					<trkpt lat="50.703520" lon="2.883180">
						<ele>17</ele>
						<time>2026-07-24T21:25:48Z</time>
					</trkpt>
					<trkpt lat="50.703510" lon="2.883210">
						<ele>17</ele>
						<time>2026-07-24T21:25:50Z</time>
					</trkpt>
					<trkpt lat="50.703410" lon="2.883200">
						<ele>17</ele>
						<time>2026-07-24T21:25:58Z</time>
					</trkpt>
					<trkpt lat="50.703360" lon="2.883230">
						<ele>17</ele>
						<time>2026-07-24T21:26:02Z</time>
					</trkpt>
					<trkpt lat="50.702940" lon="2.883500">
						<ele>17</ele>
						<time>2026-07-24T21:26:38Z</time>
					</trkpt>
					<trkpt lat="50.702710" lon="2.883650">
						<ele>17</ele>
						<time>2026-07-24T21:26:58Z</time>
					</trkpt>
					<trkpt lat="50.702410" lon="2.883840">
						<ele>17</ele>
						<time>2026-07-24T21:27:24Z</time>
					</trkpt>
					<trkpt lat="50.701730" lon="2.884290">
						<ele>18</ele>
						<time>2026-07-24T21:28:23Z</time>
					</trkpt>
					<trkpt lat="50.701550" lon="2.884370">
						<ele>18</ele>
						<time>2026-07-24T21:28:38Z</time>
					</trkpt>
					<trkpt lat="50.701250" lon="2.884460">
						<ele>18</ele>
						<time>2026-07-24T21:29:03Z</time>
					</trkpt>
					<trkpt lat="50.701260" lon="2.884530">
						<ele>18</ele>
						<time>2026-07-24T21:29:06Z</time>
					</trkpt>
					<trkpt lat="50.701300" lon="2.884960">
						<ele>17</ele>
						<time>2026-07-24T21:29:28Z</time>
					</trkpt>
					<trkpt lat="50.701310" lon="2.885150">
						<ele>17</ele>
						<time>2026-07-24T21:29:38Z</time>
					</trkpt>
					<trkpt lat="50.701270" lon="2.885360">
						<ele>17</ele>
						<time>2026-07-24T21:29:49Z</time>
					</trkpt>
					<trkpt lat="50.701260" lon="2.885590">
						<ele>17</ele>
						<time>2026-07-24T21:30:01Z</time>
					</trkpt>
					<trkpt lat="50.701340" lon="2.885930">
						<ele>17</ele>
						<time>2026-07-24T21:30:19Z</time>
					</trkpt>
					<trkpt lat="50.701350" lon="2.886010">
						<ele>17</ele>
						<time>2026-07-24T21:30:23Z</time>
					</trkpt>
					<trkpt lat="50.701330" lon="2.886180">
						<ele>17</ele>
						<time>2026-07-24T21:30:32Z</time>
					</trkpt>
					<trkpt lat="50.701350" lon="2.886240">
						<ele>17</ele>
						<time>2026-07-24T21:30:36Z</time>
					</trkpt>
					<trkpt lat="50.701480" lon="2.886550">
						<ele>17</ele>
						<time>2026-07-24T21:30:54Z</time>
					</trkpt>
					<trkpt lat="50.701720" lon="2.887320">
						<ele>17</ele>
						<time>2026-07-24T21:31:38Z</time>
					</trkpt>
					<trkpt lat="50.701730" lon="2.887330">
						<ele>17</ele>
						<time>2026-07-24T21:31:39Z</time>
					</trkpt>
					<trkpt lat="50.701720" lon="2.887320">
						<ele>17</ele>
						<time>2026-07-24T21:31:40Z</time>
					</trkpt>
					<trkpt lat="50.701590" lon="2.887440">
						<ele>17</ele>
						<time>2026-07-24T21:31:52Z</time>
					</trkpt>
					<trkpt lat="50.701490" lon="2.887560">
						<ele>17</ele>
						<time>2026-07-24T21:32:02Z</time>
					</trkpt>
					<trkpt lat="50.701410" lon="2.887720">
						<ele>16</ele>
						<time>2026-07-24T21:32:12Z</time>
					</trkpt>
					<trkpt lat="50.701340" lon="2.887900">
						<ele>16</ele>
						<time>2026-07-24T21:32:23Z</time>
					</trkpt>
					<trkpt lat="50.701300" lon="2.888120">
						<ele>16</ele>
						<time>2026-07-24T21:32:35Z</time>
					</trkpt>
					<trkpt lat="50.701290" lon="2.888330">
						<ele>16</ele>
						<time>2026-07-24T21:32:45Z</time>
					</trkpt>
					<trkpt lat="50.701290" lon="2.888380">
						<ele>16</ele>
						<time>2026-07-24T21:32:48Z</time>
					</trkpt>
					<trkpt lat="50.701270" lon="2.888640">
						<ele>16</ele>
						<time>2026-07-24T21:33:01Z</time>
					</trkpt>
					<trkpt lat="50.701260" lon="2.888680">
						<ele>16</ele>
						<time>2026-07-24T21:33:03Z</time>
					</trkpt>
					<trkpt lat="50.701250" lon="2.888850">
						<ele>16</ele>
						<time>2026-07-24T21:33:12Z</time>
					</trkpt>
					<trkpt lat="50.701250" lon="2.888910">
						<ele>16</ele>
						<time>2026-07-24T21:33:15Z</time>
					</trkpt>
					<trkpt lat="50.701250" lon="2.889050">
						<ele>16</ele>
						<time>2026-07-24T21:33:22Z</time>
					</trkpt>
					<trkpt lat="50.701210" lon="2.889330">
						<ele>16</ele>
						<time>2026-07-24T21:33:37Z</time>
					</trkpt>
					<trkpt lat="50.701180" lon="2.889400">
						<ele>16</ele>
						<time>2026-07-24T21:33:41Z</time>
					</trkpt>
					<trkpt lat="50.701160" lon="2.889510">
						<ele>16</ele>
						<time>2026-07-24T21:33:47Z</time>
					</trkpt>
					<trkpt lat="50.701090" lon="2.889680">
						<ele>16</ele>
						<time>2026-07-24T21:33:57Z</time>
					</trkpt>
					<trkpt lat="50.701030" lon="2.889790">
						<ele>16</ele>
						<time>2026-07-24T21:34:04Z</time>
					</trkpt>
					<trkpt lat="50.700980" lon="2.889850">
						<ele>16</ele>
						<time>2026-07-24T21:34:09Z</time>
					</trkpt>
					<trkpt lat="50.700690" lon="2.890180">
						<ele>16</ele>
						<time>2026-07-24T21:34:38Z</time>
					</trkpt>
					<trkpt lat="50.700680" lon="2.890170">
						<ele>16</ele>
						<time>2026-07-24T21:34:39Z</time>
					</trkpt>
					<trkpt lat="50.700690" lon="2.890180">
						<ele>16</ele>
						<time>2026-07-24T21:34:40Z</time>
					</trkpt>
					<trkpt lat="50.700750" lon="2.890470">
						<ele>16</ele>
						<time>2026-07-24T21:34:55Z</time>
					</trkpt>
					<trkpt lat="50.700770" lon="2.890620">
						<ele>17</ele>
						<time>2026-07-24T21:35:03Z</time>
					</trkpt>
					<trkpt lat="50.700740" lon="2.891070">
						<ele>17</ele>
						<time>2026-07-24T21:35:26Z</time>
					</trkpt>
					<trkpt lat="50.700730" lon="2.891200">
						<ele>17</ele>
						<time>2026-07-24T21:35:33Z</time>
					</trkpt>
					<trkpt lat="50.700680" lon="2.891330">
						<ele>17</ele>
						<time>2026-07-24T21:35:40Z</time>
					</trkpt>
					<trkpt lat="50.700610" lon="2.891410">
						<ele>17</ele>
						<time>2026-07-24T21:35:47Z</time>
					</trkpt>
					<trkpt lat="50.700320" lon="2.891660">
						<ele>16</ele>
						<time>2026-07-24T21:36:14Z</time>
					</trkpt>
					<trkpt lat="50.700360" lon="2.891760">
						<ele>16</ele>
						<time>2026-07-24T21:36:20Z</time>
					</trkpt>
					<trkpt lat="50.699420" lon="2.892670">
						<ele>18</ele>
						<time>2026-07-24T21:37:48Z</time>
					</trkpt>
					<trkpt lat="50.699420" lon="2.892650">
						<ele>18</ele>
						<time>2026-07-24T21:37:49Z</time>
					</trkpt>
					<trkpt lat="50.699070" lon="2.891760">
						<ele>17</ele>
						<time>2026-07-24T21:38:42Z</time>
					</trkpt>
					<trkpt lat="50.699030" lon="2.891780">
						<ele>17</ele>
						<time>2026-07-24T21:38:46Z</time>
					</trkpt>
					<trkpt lat="50.699000" lon="2.891770">
						<ele>17</ele>
						<time>2026-07-24T21:38:48Z</time>
					</trkpt>
					<trkpt lat="50.698950" lon="2.891680">
						<ele>16</ele>
						<time>2026-07-24T21:38:54Z</time>
					</trkpt>
					<trkpt lat="50.698890" lon="2.891470">
						<ele>16</ele>
						<time>2026-07-24T21:39:06Z</time>
					</trkpt>
					<trkpt lat="50.698800" lon="2.891100">
						<ele>16</ele>
						<time>2026-07-24T21:39:26Z</time>
					</trkpt>
					<trkpt lat="50.698680" lon="2.891150">
						<ele>16</ele>
						<time>2026-07-24T21:39:36Z</time>
					</trkpt>
					<trkpt lat="50.698620" lon="2.891190">
						<ele>16</ele>
						<time>2026-07-24T21:39:41Z</time>
					</trkpt>
					<trkpt lat="50.698380" lon="2.891420">
						<ele>16</ele>
						<time>2026-07-24T21:40:04Z</time>
					</trkpt>
					<trkpt lat="50.698370" lon="2.891400">
						<ele>16</ele>
						<time>2026-07-24T21:40:05Z</time>
					</trkpt>
					<trkpt lat="50.698220" lon="2.890930">
						<ele>17</ele>
						<time>2026-07-24T21:40:32Z</time>
					</trkpt>
					<trkpt lat="50.697460" lon="2.891140">
						<ele>16</ele>
						<time>2026-07-24T21:41:33Z</time>
					</trkpt>
					<trkpt lat="50.696890" lon="2.891250">
						<ele>15</ele>
						<time>2026-07-24T21:42:19Z</time>
					</trkpt>
					<trkpt lat="50.696860" lon="2.891240">
						<ele>15</ele>
						<time>2026-07-24T21:42:22Z</time>
					</trkpt>
					<trkpt lat="50.696810" lon="2.891250">
						<ele>15</ele>
						<time>2026-07-24T21:42:26Z</time>
					</trkpt>
					<trkpt lat="50.695750" lon="2.891450">
						<ele>14</ele>
						<time>2026-07-24T21:43:51Z</time>
					</trkpt>
					<trkpt lat="50.695730" lon="2.891430">
						<ele>14</ele>
						<time>2026-07-24T21:43:53Z</time>
					</trkpt>
					<trkpt lat="50.695280" lon="2.891520">
						<ele>15</ele>
						<time>2026-07-24T21:44:29Z</time>
					</trkpt>
					<trkpt lat="50.695270" lon="2.891520">
						<ele>15</ele>
						<time>2026-07-24T21:44:30Z</time>
					</trkpt>
					<trkpt lat="50.695220" lon="2.890670">
						<ele>16</ele>
						<time>2026-07-24T21:45:14Z</time>
					</trkpt>
					<trkpt lat="50.695160" lon="2.890680">
						<ele>16</ele>
						<time>2026-07-24T21:45:18Z</time>
					</trkpt>
					<trkpt lat="50.694820" lon="2.890720">
						<ele>16</ele>
						<time>2026-07-24T21:45:46Z</time>
					</trkpt>
					<trkpt lat="50.694820" lon="2.890800">
						<ele>16</ele>
						<time>2026-07-24T21:45:50Z</time>
					</trkpt>
					<trkpt lat="50.694820" lon="2.890950">
						<ele>16</ele>
						<time>2026-07-24T21:45:57Z</time>
					</trkpt>
					<trkpt lat="50.694930" lon="2.893110">
						<ele>15</ele>
						<time>2026-07-24T21:47:47Z</time>
					</trkpt>
					<trkpt lat="50.694900" lon="2.893080">
						<ele>15</ele>
						<time>2026-07-24T21:47:50Z</time>
					</trkpt>
					<trkpt lat="50.694860" lon="2.893080">
						<ele>15</ele>
						<time>2026-07-24T21:47:53Z</time>
					</trkpt>
					<trkpt lat="50.694830" lon="2.893100">
						<ele>15</ele>
						<time>2026-07-24T21:47:56Z</time>
					</trkpt>
					<trkpt lat="50.694810" lon="2.893150">
						<ele>15</ele>
						<time>2026-07-24T21:47:59Z</time>
					</trkpt>
					<trkpt lat="50.694800" lon="2.893210">
						<ele>15</ele>
						<time>2026-07-24T21:48:02Z</time>
					</trkpt>
					<trkpt lat="50.694820" lon="2.893280">
						<ele>15</ele>
						<time>2026-07-24T21:48:06Z</time>
					</trkpt>
					<trkpt lat="50.694760" lon="2.893320">
						<ele>15</ele>
						<time>2026-07-24T21:48:11Z</time>
					</trkpt>
					<trkpt lat="50.693770" lon="2.893730">
						<ele>14</ele>
						<time>2026-07-24T21:49:33Z</time>
					</trkpt>
					<trkpt lat="50.693650" lon="2.893780">
						<ele>14</ele>
						<time>2026-07-24T21:49:43Z</time>
					</trkpt>
					<trkpt lat="50.693390" lon="2.893870">
						<ele>14</ele>
						<time>2026-07-24T21:50:04Z</time>
					</trkpt>
					<trkpt lat="50.692990" lon="2.893970">
						<ele>13</ele>
						<time>2026-07-24T21:50:37Z</time>
					</trkpt>
					<trkpt lat="50.692900" lon="2.893990">
						<ele>13</ele>
						<time>2026-07-24T21:50:44Z</time>
					</trkpt>
					<trkpt lat="50.692840" lon="2.894010">
						<ele>13</ele>
						<time>2026-07-24T21:50:49Z</time>
					</trkpt>
					<trkpt lat="50.692760" lon="2.894020">
						<ele>13</ele>
						<time>2026-07-24T21:50:55Z</time>
					</trkpt>
					<trkpt lat="50.692390" lon="2.894110">
						<ele>13</ele>
						<time>2026-07-24T21:51:25Z</time>
					</trkpt>
					<trkpt lat="50.692290" lon="2.894120">
						<ele>14</ele>
						<time>2026-07-24T21:51:33Z</time>
					</trkpt>
					<trkpt lat="50.692290" lon="2.894190">
						<ele>14</ele>
						<time>2026-07-24T21:51:37Z</time>
					</trkpt>
					<trkpt lat="50.692340" lon="2.894540">
						<ele>13</ele>
						<time>2026-07-24T21:51:55Z</time>
					</trkpt>
					<trkpt lat="50.692430" lon="2.895020">
						<ele>12</ele>
						<time>2026-07-24T21:52:21Z</time>
					</trkpt>
					<trkpt lat="50.692390" lon="2.895050">
						<ele>13</ele>
						<time>2026-07-24T21:52:24Z</time>
					</trkpt>
					<trkpt lat="50.692430" lon="2.895020">
						<ele>12</ele>
						<time>2026-07-24T21:52:28Z</time>
					</trkpt>
					<trkpt lat="50.692500" lon="2.895380">
						<ele>12</ele>
						<time>2026-07-24T21:52:47Z</time>
					</trkpt>
					<trkpt lat="50.692560" lon="2.895650">
						<ele>13</ele>
						<time>2026-07-24T21:53:01Z</time>
					</trkpt>
					<trkpt lat="50.692580" lon="2.895890">
						<ele>13</ele>
						<time>2026-07-24T21:53:14Z</time>
					</trkpt>
					<trkpt lat="50.692710" lon="2.897260">
						<ele>14</ele>
						<time>2026-07-24T21:54:24Z</time>
					</trkpt>
					<trkpt lat="50.692760" lon="2.897740">
						<ele>14</ele>
						<time>2026-07-24T21:54:48Z</time>
					</trkpt>
					<trkpt lat="50.692890" lon="2.899170">
						<ele>13</ele>
						<time>2026-07-24T21:56:02Z</time>
					</trkpt>
					<trkpt lat="50.692960" lon="2.899900">
						<ele>13</ele>
						<time>2026-07-24T21:56:39Z</time>
					</trkpt>
					<trkpt lat="50.693050" lon="2.900990">
						<ele>12</ele>
						<time>2026-07-24T21:57:35Z</time>
					</trkpt>
					<trkpt lat="50.693080" lon="2.901390">
						<ele>12</ele>
						<time>2026-07-24T21:57:55Z</time>
					</trkpt>
					<trkpt lat="50.693160" lon="2.902470">
						<ele>12</ele>
						<time>2026-07-24T21:58:51Z</time>
					</trkpt>
					<trkpt lat="50.693170" lon="2.902940">
						<ele>12</ele>
						<time>2026-07-24T21:59:14Z</time>
					</trkpt>
					<trkpt lat="50.693140" lon="2.903050">
						<ele>12</ele>
						<time>2026-07-24T21:59:20Z</time>
					</trkpt>
					<trkpt lat="50.693170" lon="2.903540">
						<ele>12</ele>
						<time>2026-07-24T21:59:45Z</time>
					</trkpt>
					<trkpt lat="50.693230" lon="2.903990">
						<ele>12</ele>
						<time>2026-07-24T22:00:09Z</time>
					</trkpt>
					<trkpt lat="50.693280" lon="2.904250">
						<ele>12</ele>
						<time>2026-07-24T22:00:23Z</time>
					</trkpt>
					<trkpt lat="50.693340" lon="2.904560">
						<ele>12</ele>
						<time>2026-07-24T22:00:39Z</time>
					</trkpt>
					<trkpt lat="50.693620" lon="2.905570">
						<ele>9</ele>
						<time>2026-07-24T22:01:35Z</time>
					</trkpt>
					<trkpt lat="50.693720" lon="2.905860">
						<ele>9</ele>
						<time>2026-07-24T22:01:52Z</time>
					</trkpt>
					<trkpt lat="50.693900" lon="2.906340">
						<ele>9</ele>
						<time>2026-07-24T22:02:20Z</time>
					</trkpt>
					<trkpt lat="50.694020" lon="2.906600">
						<ele>9</ele>
						<time>2026-07-24T22:02:36Z</time>
					</trkpt>
					<trkpt lat="50.694130" lon="2.906860">
						<ele>9</ele>
						<time>2026-07-24T22:02:52Z</time>
					</trkpt>
					<trkpt lat="50.694290" lon="2.907140">
						<ele>10</ele>
						<time>2026-07-24T22:03:11Z</time>
					</trkpt>
					<trkpt lat="50.694320" lon="2.907240">
						<ele>10</ele>
						<time>2026-07-24T22:03:17Z</time>
					</trkpt>
					<trkpt lat="50.694360" lon="2.907420">
						<ele>10</ele>
						<time>2026-07-24T22:03:27Z</time>
					</trkpt>
					<trkpt lat="50.694490" lon="2.907890">
						<ele>11</ele>
						<time>2026-07-24T22:03:53Z</time>
					</trkpt>
					<trkpt lat="50.694540" lon="2.908010">
						<ele>11</ele>
						<time>2026-07-24T22:04:00Z</time>
					</trkpt>
					<trkpt lat="50.694570" lon="2.908140">
						<ele>12</ele>
						<time>2026-07-24T22:04:07Z</time>
					</trkpt>
					<trkpt lat="50.694550" lon="2.908260">
						<ele>12</ele>
						<time>2026-07-24T22:04:13Z</time>
					</trkpt>
					<trkpt lat="50.694560" lon="2.908460">
						<ele>12</ele>
						<time>2026-07-24T22:04:23Z</time>
					</trkpt>
					<trkpt lat="50.694630" lon="2.908780">
						<ele>13</ele>
						<time>2026-07-24T22:04:40Z</time>
					</trkpt>
					<trkpt lat="50.694650" lon="2.908860">
						<ele>13</ele>
						<time>2026-07-24T22:04:45Z</time>
					</trkpt>
					<trkpt lat="50.694850" lon="2.908810">
						<ele>13</ele>
						<time>2026-07-24T22:05:01Z</time>
					</trkpt>
					<trkpt lat="50.694990" lon="2.908790">
						<ele>13</ele>
						<time>2026-07-24T22:05:12Z</time>
					</trkpt>
					<trkpt lat="50.695110" lon="2.908820">
						<ele>13</ele>
						<time>2026-07-24T22:05:22Z</time>
					</trkpt>
					<trkpt lat="50.695270" lon="2.908890">
						<ele>13</ele>
						<time>2026-07-24T22:05:35Z</time>
					</trkpt>
					<trkpt lat="50.695440" lon="2.909010">
						<ele>13</ele>
						<time>2026-07-24T22:05:50Z</time>
					</trkpt>
					<trkpt lat="50.695610" lon="2.909180">
						<ele>13</ele>
						<time>2026-07-24T22:06:06Z</time>
					</trkpt>
					<trkpt lat="50.695020" lon="2.910050">
						<ele>14</ele>
						<time>2026-07-24T22:07:11Z</time>
					</trkpt>
					<trkpt lat="50.694980" lon="2.910120">
						<ele>14</ele>
						<time>2026-07-24T22:07:16Z</time>
					</trkpt>
					<trkpt lat="50.694870" lon="2.910310">
						<ele>14</ele>
						<time>2026-07-24T22:07:29Z</time>
					</trkpt>
					<trkpt lat="50.694840" lon="2.910390">
						<ele>14</ele>
						<time>2026-07-24T22:07:34Z</time>
					</trkpt>
					<trkpt lat="50.694820" lon="2.910470">
						<ele>14</ele>
						<time>2026-07-24T22:07:38Z</time>
					</trkpt>
					<trkpt lat="50.694780" lon="2.910650">
						<ele>15</ele>
						<time>2026-07-24T22:07:48Z</time>
					</trkpt>
					<trkpt lat="50.694760" lon="2.910880">
						<ele>15</ele>
						<time>2026-07-24T22:07:59Z</time>
					</trkpt>
					<trkpt lat="50.694690" lon="2.911440">
						<ele>16</ele>
						<time>2026-07-24T22:08:28Z</time>
					</trkpt>
					<trkpt lat="50.694650" lon="2.911560">
						<ele>17</ele>
						<time>2026-07-24T22:08:35Z</time>
					</trkpt>
					<trkpt lat="50.694620" lon="2.911650">
						<ele>17</ele>
						<time>2026-07-24T22:08:40Z</time>
					</trkpt>
					<trkpt lat="50.694380" lon="2.912130">
						<ele>17</ele>
						<time>2026-07-24T22:09:11Z</time>
					</trkpt>
					<trkpt lat="50.694250" lon="2.912430">
						<ele>18</ele>
						<time>2026-07-24T22:09:30Z</time>
					</trkpt>
					<trkpt lat="50.694170" lon="2.912580">
						<ele>18</ele>
						<time>2026-07-24T22:09:40Z</time>
					</trkpt>
					<trkpt lat="50.693690" lon="2.913360">
						<ele>18</ele>
						<time>2026-07-24T22:10:35Z</time>
					</trkpt>
					<trkpt lat="50.693650" lon="2.913430">
						<ele>18</ele>
						<time>2026-07-24T22:10:40Z</time>
					</trkpt>
					<trkpt lat="50.693990" lon="2.914060">
						<ele>18</ele>
						<time>2026-07-24T22:11:22Z</time>
					</trkpt>
					<trkpt lat="50.693890" lon="2.914210">
						<ele>18</ele>
						<time>2026-07-24T22:11:33Z</time>
					</trkpt>
					<trkpt lat="50.693670" lon="2.914570">
						<ele>19</ele>
						<time>2026-07-24T22:11:58Z</time>
					</trkpt>
					<trkpt lat="50.693620" lon="2.914650">
						<ele>19</ele>
						<time>2026-07-24T22:12:04Z</time>
					</trkpt>
					<trkpt lat="50.693420" lon="2.914970">
						<ele>20</ele>
						<time>2026-07-24T22:12:27Z</time>
					</trkpt>
					<trkpt lat="50.693150" lon="2.915420">
						<ele>19</ele>
						<time>2026-07-24T22:12:58Z</time>
					</trkpt>
					<trkpt lat="50.693060" lon="2.915550">
						<ele>18</ele>
						<time>2026-07-24T22:13:08Z</time>
					</trkpt>
					<trkpt lat="50.693070" lon="2.915560">
						<ele>18</ele>
						<time>2026-07-24T22:13:09Z</time>
					</trkpt>
					</trkseg>
				</trk>
			</gpx>