<?xml version="1.0" encoding="UTF-8" ?>
<gpx version="1.1" xmlns:xsi="http://www.w3.org/2001/XMLSchema-instance"
    xmlns="http://www.topografix.com/GPX/1/1"
    xsi:schemaLocation="http://www.topografix.com/GPX/1/1 http://www.topografix.com/GPX/1/1/gpx.xsd"
    creator="Openrunner - https://www.openrunner.com" >
                <wpt lat="50.777401" lon="2.818003">
                        <ele>0</ele>
                        <name><![CDATA[Ravitaillement]]></name>
                        <desc><![CDATA[]]></desc>
                    <sym>3</sym>
                </wpt>
            
                <wpt lat="50.776742" lon="2.817526">
                        <ele>0</ele>
                        <name><![CDATA[Ravitaillement]]></name>
                        <desc><![CDATA[]]></desc>
                    <sym>3</sym>
                </wpt>
            
                <wpt lat="50.776835" lon="2.817685">
                        <ele>0</ele>
                        <name><![CDATA[Ravitaillement]]></name>
                        <desc><![CDATA[]]></desc>
                    <sym>3</sym>
                </wpt>
            	<trk>
	                   <name>UCH ROUTE 54KM AOÛT 2026-24067593</name>
						<trkseg>
					<trkpt lat="50.693210" lon="2.915740">
						<ele>18</ele>
						<time>2026-07-24T20:15:03Z</time>
					</trkpt>
					<trkpt lat="50.693080" lon="2.915540">
						<ele>19</ele>
						<time>2026-07-24T20:15:06Z</time>
					</trkpt>
					<trkpt lat="50.692990" lon="2.915630">
						<ele>18</ele>
						<time>2026-07-24T20:15:08Z</time>
					</trkpt>
					<trkpt lat="50.692740" lon="2.916000">
						<ele>17</ele>
						<time>2026-07-24T20:15:14Z</time>
					</trkpt>
					<trkpt lat="50.692360" lon="2.915500">
						<ele>18</ele>
						<time>2026-07-24T20:15:23Z</time>
					</trkpt>
					<trkpt lat="50.692180" lon="2.915750">
						<ele>18</ele>
						<time>2026-07-24T20:15:27Z</time>
					</trkpt>
					<trkpt lat="50.692080" lon="2.915730">
						<ele>18</ele>
						<time>2026-07-24T20:15:29Z</time>
					</trkpt>
					<trkpt lat="50.691830" lon="2.915440">
						<ele>18</ele>
						<time>2026-07-24T20:15:35Z</time>
					</trkpt>
					<trkpt lat="50.691500" lon="2.914850">
						<ele>19</ele>
						<time>2026-07-24T20:15:43Z</time>
					</trkpt>
					<trkpt lat="50.691660" lon="2.914520">
						<ele>18</ele>
						<time>2026-07-24T20:15:48Z</time>
					</trkpt>
					<trkpt lat="50.692160" lon="2.913730">
						<ele>18</ele>
						<time>2026-07-24T20:16:01Z</time>
					</trkpt>
					<trkpt lat="50.692230" lon="2.913680">
						<ele>18</ele>
						<time>2026-07-24T20:16:02Z</time>
					</trkpt>
					<trkpt lat="50.692500" lon="2.913570">
						<ele>18</ele>
						<time>2026-07-24T20:16:07Z</time>
					</trkpt>
					<trkpt lat="50.693050" lon="2.912590">
						<ele>18</ele>
						<time>2026-07-24T20:16:22Z</time>
					</trkpt>
					<trkpt lat="50.693070" lon="2.912500">
						<ele>18</ele>
						<time>2026-07-24T20:16:23Z</time>
					</trkpt>
					<trkpt lat="50.693810" lon="2.912310">
						<ele>18</ele>
						<time>2026-07-24T20:16:36Z</time>
					</trkpt>
					<trkpt lat="50.693930" lon="2.912310">
						<ele>18</ele>
						<time>2026-07-24T20:16:38Z</time>
					</trkpt>
					<trkpt lat="50.694240" lon="2.912420">
						<ele>18</ele>
						<time>2026-07-24T20:16:44Z</time>
					</trkpt>
					<trkpt lat="50.694650" lon="2.911600">
						<ele>17</ele>
						<time>2026-07-24T20:16:56Z</time>
					</trkpt>
					<trkpt lat="50.694710" lon="2.911340">
						<ele>16</ele>
						<time>2026-07-24T20:16:59Z</time>
					</trkpt>
					<trkpt lat="50.694800" lon="2.910630">
						<ele>14</ele>
						<time>2026-07-24T20:17:07Z</time>
					</trkpt>
					<trkpt lat="50.694850" lon="2.910420">
						<ele>14</ele>
						<time>2026-07-24T20:17:10Z</time>
					</trkpt>
					<trkpt lat="50.694920" lon="2.910260">
						<ele>14</ele>
						<time>2026-07-24T20:17:12Z</time>
					</trkpt>
					<trkpt lat="50.696030" lon="2.908560">
						<ele>12</ele>
						<time>2026-07-24T20:17:39Z</time>
					</trkpt>
					<trkpt lat="50.697190" lon="2.906870">
						<ele>13</ele>
						<time>2026-07-24T20:18:07Z</time>
					</trkpt>
					<trkpt lat="50.698580" lon="2.904760">
						<ele>13</ele>
						<time>2026-07-24T20:18:42Z</time>
					</trkpt>
					<trkpt lat="50.699560" lon="2.903320">
						<ele>13</ele>
						<time>2026-07-24T20:19:06Z</time>
					</trkpt>
					<trkpt lat="50.705390" lon="2.898040">
						<ele>16</ele>
						<time>2026-07-24T20:21:05Z</time>
					</trkpt>
					<trkpt lat="50.705690" lon="2.897710">
						<ele>17</ele>
						<time>2026-07-24T20:21:12Z</time>
					</trkpt>
					<trkpt lat="50.707030" lon="2.895990">
						<ele>17</ele>
						<time>2026-07-24T20:21:42Z</time>
					</trkpt>
					<trkpt lat="50.708460" lon="2.894240">
						<ele>17</ele>
						<time>2026-07-24T20:22:15Z</time>
					</trkpt>
					<trkpt lat="50.708540" lon="2.893850">
						<ele>18</ele>
						<time>2026-07-24T20:22:19Z</time>
					</trkpt>
					<trkpt lat="50.708630" lon="2.893800">
						<ele>18</ele>
						<time>2026-07-24T20:22:21Z</time>
					</trkpt>
					<trkpt lat="50.708730" lon="2.893810">
						<ele>18</ele>
						<time>2026-07-24T20:22:23Z</time>
					</trkpt>
					<trkpt lat="50.708800" lon="2.893760">
						<ele>18</ele>
						<time>2026-07-24T20:22:24Z</time>
					</trkpt>
					<trkpt lat="50.709040" lon="2.893540">
						<ele>18</ele>
						<time>2026-07-24T20:22:29Z</time>
					</trkpt>
					<trkpt lat="50.709600" lon="2.893150">
						<ele>18</ele>
						<time>2026-07-24T20:22:40Z</time>
					</trkpt>
					<trkpt lat="50.712350" lon="2.891050">
						<ele>19</ele>
						<time>2026-07-24T20:23:34Z</time>
					</trkpt>
					<trkpt lat="50.713340" lon="2.890360">
						<ele>21</ele>
						<time>2026-07-24T20:23:53Z</time>
					</trkpt>
					<trkpt lat="50.714780" lon="2.889250">
						<ele>18</ele>
						<time>2026-07-24T20:24:22Z</time>
					</trkpt>
					<trkpt lat="50.713410" lon="2.886310">
						<ele>18</ele>
						<time>2026-07-24T20:25:03Z</time>
					</trkpt>
					<trkpt lat="50.713210" lon="2.885610">
						<ele>17</ele>
						<time>2026-07-24T20:25:12Z</time>
					</trkpt>
					<trkpt lat="50.713110" lon="2.884900">
						<ele>17</ele>
						<time>2026-07-24T20:25:20Z</time>
					</trkpt>
					<trkpt lat="50.711260" lon="2.884640">
						<ele>19</ele>
						<time>2026-07-24T20:25:53Z</time>
					</trkpt>
					<trkpt lat="50.711130" lon="2.884600">
						<ele>18</ele>
						<time>2026-07-24T20:25:55Z</time>
					</trkpt>
					<trkpt lat="50.710980" lon="2.884400">
						<ele>19</ele>
						<time>2026-07-24T20:25:59Z</time>
					</trkpt>
					<trkpt lat="50.710870" lon="2.884150">
						<ele>19</ele>
						<time>2026-07-24T20:26:02Z</time>
					</trkpt>
					<trkpt lat="50.710810" lon="2.884080">
						<ele>19</ele>
						<time>2026-07-24T20:26:04Z</time>
					</trkpt>
					<trkpt lat="50.710550" lon="2.883910">
						<ele>19</ele>
						<time>2026-07-24T20:26:09Z</time>
					</trkpt>
					<trkpt lat="50.710380" lon="2.883610">
						<ele>18</ele>
						<time>2026-07-24T20:26:13Z</time>
					</trkpt>
					<trkpt lat="50.709840" lon="2.881440">
						<ele>18</ele>
						<time>2026-07-24T20:26:39Z</time>
					</trkpt>
					<trkpt lat="50.709780" lon="2.880430">
						<ele>17</ele>
						<time>2026-07-24T20:26:51Z</time>
					</trkpt>
					<trkpt lat="50.709710" lon="2.879940">
						<ele>18</ele>
						<time>2026-07-24T20:26:56Z</time>
					</trkpt>
					<trkpt lat="50.709460" lon="2.879210">
						<ele>19</ele>
						<time>2026-07-24T20:27:06Z</time>
					</trkpt>
					<trkpt lat="50.708020" lon="2.875970">
						<ele>17</ele>
						<time>2026-07-24T20:27:50Z</time>
					</trkpt>
					<trkpt lat="50.707910" lon="2.875610">
						<ele>17</ele>
						<time>2026-07-24T20:27:55Z</time>
					</trkpt>
					<trkpt lat="50.707780" lon="2.874900">
						<ele>17</ele>
						<time>2026-07-24T20:28:03Z</time>
					</trkpt>
					<trkpt lat="50.707720" lon="2.874360">
						<ele>17</ele>
						<time>2026-07-24T20:28:09Z</time>
					</trkpt>
					<trkpt lat="50.707700" lon="2.873100">
						<ele>17</ele>
						<time>2026-07-24T20:28:24Z</time>
					</trkpt>
					<trkpt lat="50.707100" lon="2.868800">
						<ele>17</ele>
						<time>2026-07-24T20:29:13Z</time>
					</trkpt>
					<trkpt lat="50.706990" lon="2.868440">
						<ele>18</ele>
						<time>2026-07-24T20:29:18Z</time>
					</trkpt>
					<trkpt lat="50.706670" lon="2.867800">
						<ele>17</ele>
						<time>2026-07-24T20:29:27Z</time>
					</trkpt>
					<trkpt lat="50.706200" lon="2.867000">
						<ele>17</ele>
						<time>2026-07-24T20:29:39Z</time>
					</trkpt>
					<trkpt lat="50.704870" lon="2.864560">
						<ele>16</ele>
						<time>2026-07-24T20:30:16Z</time>
					</trkpt>
					<trkpt lat="50.704410" lon="2.863760">
						<ele>16</ele>
						<time>2026-07-24T20:30:28Z</time>
					</trkpt>
					<trkpt lat="50.703640" lon="2.862560">
						<ele>15</ele>
						<time>2026-07-24T20:30:47Z</time>
					</trkpt>
					<trkpt lat="50.702740" lon="2.861400">
						<ele>15</ele>
						<time>2026-07-24T20:31:08Z</time>
					</trkpt>
					<trkpt lat="50.701840" lon="2.860460">
						<ele>17</ele>
						<time>2026-07-24T20:31:27Z</time>
					</trkpt>
					<trkpt lat="50.702100" lon="2.860050">
						<ele>17</ele>
						<time>2026-07-24T20:31:33Z</time>
					</trkpt>
					<trkpt lat="50.703210" lon="2.857970">
						<ele>17</ele>
						<time>2026-07-24T20:32:04Z</time>
					</trkpt>
					<trkpt lat="50.703730" lon="2.857170">
						<ele>16</ele>
						<time>2026-07-24T20:32:17Z</time>
					</trkpt>
					<trkpt lat="50.703990" lon="2.856830">
						<ele>15</ele>
						<time>2026-07-24T20:32:23Z</time>
					</trkpt>
					<trkpt lat="50.704410" lon="2.856550">
						<ele>15</ele>
						<time>2026-07-24T20:32:31Z</time>
					</trkpt>
					<trkpt lat="50.706000" lon="2.854560">
						<ele>17</ele>
						<time>2026-07-24T20:33:07Z</time>
					</trkpt>
					<trkpt lat="50.707780" lon="2.852450">
						<ele>17</ele>
						<time>2026-07-24T20:33:47Z</time>
					</trkpt>
					<trkpt lat="50.709480" lon="2.850840">
						<ele>17</ele>
						<time>2026-07-24T20:34:22Z</time>
					</trkpt>
					<trkpt lat="50.710320" lon="2.849710">
						<ele>18</ele>
						<time>2026-07-24T20:34:42Z</time>
					</trkpt>
					<trkpt lat="50.710810" lon="2.849170">
						<ele>17</ele>
						<time>2026-07-24T20:34:52Z</time>
					</trkpt>
					<trkpt lat="50.710900" lon="2.849040">
						<ele>17</ele>
						<time>2026-07-24T20:34:54Z</time>
					</trkpt>
					<trkpt lat="50.713530" lon="2.846680">
						<ele>18</ele>
						<time>2026-07-24T20:35:48Z</time>
					</trkpt>
					<trkpt lat="50.713730" lon="2.846380">
						<ele>18</ele>
						<time>2026-07-24T20:35:53Z</time>
					</trkpt>
					<trkpt lat="50.714050" lon="2.845700">
						<ele>18</ele>
						<time>2026-07-24T20:36:03Z</time>
					</trkpt>
					<trkpt lat="50.714540" lon="2.844540">
						<ele>17</ele>
						<time>2026-07-24T20:36:18Z</time>
					</trkpt>
					<trkpt lat="50.714950" lon="2.843700">
						<ele>16</ele>
						<time>2026-07-24T20:36:30Z</time>
					</trkpt>
					<trkpt lat="50.716690" lon="2.841100">
						<ele>16</ele>
						<time>2026-07-24T20:37:13Z</time>
					</trkpt>
					<trkpt lat="50.716880" lon="2.840870">
						<ele>16</ele>
						<time>2026-07-24T20:37:17Z</time>
					</trkpt>
					<trkpt lat="50.718640" lon="2.839670">
						<ele>17</ele>
						<time>2026-07-24T20:37:51Z</time>
					</trkpt>
					<trkpt lat="50.719260" lon="2.839450">
						<ele>18</ele>
						<time>2026-07-24T20:38:03Z</time>
					</trkpt>
					<trkpt lat="50.719540" lon="2.839410">
						<ele>18</ele>
						<time>2026-07-24T20:38:08Z</time>
					</trkpt>
					<trkpt lat="50.719760" lon="2.839450">
						<ele>17</ele>
						<time>2026-07-24T20:38:12Z</time>
					</trkpt>
					<trkpt lat="50.720550" lon="2.839900">
						<ele>17</ele>
						<time>2026-07-24T20:38:27Z</time>
					</trkpt>
					<trkpt lat="50.721370" lon="2.840480">
						<ele>17</ele>
						<time>2026-07-24T20:38:43Z</time>
					</trkpt>
					<trkpt lat="50.721730" lon="2.840590">
						<ele>18</ele>
						<time>2026-07-24T20:38:49Z</time>
					</trkpt>
					<trkpt lat="50.722270" lon="2.840570">
						<ele>18</ele>
						<time>2026-07-24T20:38:59Z</time>
					</trkpt>
					<trkpt lat="50.722610" lon="2.840510">
						<ele>18</ele>
						<time>2026-07-24T20:39:05Z</time>
					</trkpt>
					<trkpt lat="50.723070" lon="2.840340">
						<ele>18</ele>
						<time>2026-07-24T20:39:13Z</time>
					</trkpt>
					<trkpt lat="50.723330" lon="2.840170">
						<ele>17</ele>
						<time>2026-07-24T20:39:18Z</time>
					</trkpt>
					<trkpt lat="50.723750" lon="2.839730">
						<ele>17</ele>
						<time>2026-07-24T20:39:27Z</time>
					</trkpt>
					<trkpt lat="50.725620" lon="2.837470">
						<ele>18</ele>
						<time>2026-07-24T20:40:09Z</time>
					</trkpt>
					<trkpt lat="50.725160" lon="2.835940">
						<ele>18</ele>
						<time>2026-07-24T20:40:28Z</time>
					</trkpt>
					<trkpt lat="50.724440" lon="2.833350">
						<ele>17</ele>
						<time>2026-07-24T20:41:00Z</time>
					</trkpt>
					<trkpt lat="50.723730" lon="2.831300">
						<ele>17</ele>
						<time>2026-07-24T20:41:26Z</time>
					</trkpt>
					<trkpt lat="50.723720" lon="2.831180">
						<ele>17</ele>
						<time>2026-07-24T20:41:28Z</time>
					</trkpt>
					<trkpt lat="50.723740" lon="2.829940">
						<ele>17</ele>
						<time>2026-07-24T20:41:42Z</time>
					</trkpt>
					<trkpt lat="50.723820" lon="2.828530">
						<ele>17</ele>
						<time>2026-07-24T20:41:58Z</time>
					</trkpt>
					<trkpt lat="50.723800" lon="2.826490">
						<ele>18</ele>
						<time>2026-07-24T20:42:21Z</time>
					</trkpt>
					<trkpt lat="50.723820" lon="2.825210">
						<ele>17</ele>
						<time>2026-07-24T20:42:35Z</time>
					</trkpt>
					<trkpt lat="50.723910" lon="2.824290">
						<ele>18</ele>
						<time>2026-07-24T20:42:45Z</time>
					</trkpt>
					<trkpt lat="50.723930" lon="2.823750">
						<ele>18</ele>
						<time>2026-07-24T20:42:52Z</time>
					</trkpt>
					<trkpt lat="50.723910" lon="2.822280">
						<ele>18</ele>
						<time>2026-07-24T20:43:08Z</time>
					</trkpt>
					<trkpt lat="50.724070" lon="2.821090">
						<ele>18</ele>
						<time>2026-07-24T20:43:22Z</time>
					</trkpt>
					<trkpt lat="50.724110" lon="2.820060">
						<ele>18</ele>
						<time>2026-07-24T20:43:33Z</time>
					</trkpt>
					<trkpt lat="50.724640" lon="2.814790">
						<ele>17</ele>
						<time>2026-07-24T20:44:34Z</time>
					</trkpt>
					<trkpt lat="50.724620" lon="2.814520">
						<ele>18</ele>
						<time>2026-07-24T20:44:37Z</time>
					</trkpt>
					<trkpt lat="50.723990" lon="2.814540">
						<ele>18</ele>
						<time>2026-07-24T20:44:48Z</time>
					</trkpt>
					<trkpt lat="50.723970" lon="2.814340">
						<ele>18</ele>
						<time>2026-07-24T20:44:50Z</time>
					</trkpt>
					<trkpt lat="50.724000" lon="2.813970">
						<ele>18</ele>
						<time>2026-07-24T20:44:54Z</time>
					</trkpt>
					<trkpt lat="50.724300" lon="2.812280">
						<ele>19</ele>
						<time>2026-07-24T20:45:14Z</time>
					</trkpt>
					<trkpt lat="50.724360" lon="2.811730">
						<ele>18</ele>
						<time>2026-07-24T20:45:20Z</time>
					</trkpt>
					<trkpt lat="50.724560" lon="2.810610">
						<ele>17</ele>
						<time>2026-07-24T20:45:33Z</time>
					</trkpt>
					<trkpt lat="50.724700" lon="2.809970">
						<ele>16</ele>
						<time>2026-07-24T20:45:41Z</time>
					</trkpt>
					<trkpt lat="50.724990" lon="2.807880">
						<ele>18</ele>
						<time>2026-07-24T20:46:05Z</time>
					</trkpt>
					<trkpt lat="50.727460" lon="2.809540">
						<ele>18</ele>
						<time>2026-07-24T20:46:53Z</time>
					</trkpt>
					<trkpt lat="50.727300" lon="2.808870">
						<ele>18</ele>
						<time>2026-07-24T20:47:01Z</time>
					</trkpt>
					<trkpt lat="50.727240" lon="2.808520">
						<ele>18</ele>
						<time>2026-07-24T20:47:05Z</time>
					</trkpt>
					<trkpt lat="50.727210" lon="2.808000">
						<ele>17</ele>
						<time>2026-07-24T20:47:11Z</time>
					</trkpt>
					<trkpt lat="50.727290" lon="2.807160">
						<ele>16</ele>
						<time>2026-07-24T20:47:21Z</time>
					</trkpt>
					<trkpt lat="50.727270" lon="2.807000">
						<ele>16</ele>
						<time>2026-07-24T20:47:22Z</time>
					</trkpt>
					<trkpt lat="50.726990" lon="2.806310">
						<ele>17</ele>
						<time>2026-07-24T20:47:32Z</time>
					</trkpt>
					<trkpt lat="50.726920" lon="2.805930">
						<ele>18</ele>
						<time>2026-07-24T20:47:36Z</time>
					</trkpt>
					<trkpt lat="50.727080" lon="2.804820">
						<ele>17</ele>
						<time>2026-07-24T20:47:49Z</time>
					</trkpt>
					<trkpt lat="50.727310" lon="2.802470">
						<ele>17</ele>
						<time>2026-07-24T20:48:16Z</time>
					</trkpt>
					<trkpt lat="50.727650" lon="2.800430">
						<ele>18</ele>
						<time>2026-07-24T20:48:39Z</time>
					</trkpt>
					<trkpt lat="50.727680" lon="2.800050">
						<ele>18</ele>
						<time>2026-07-24T20:48:44Z</time>
					</trkpt>
					<trkpt lat="50.727660" lon="2.798990">
						<ele>18</ele>
						<time>2026-07-24T20:48:56Z</time>
					</trkpt>
					<trkpt lat="50.727870" lon="2.797000">
						<ele>17</ele>
						<time>2026-07-24T20:49:18Z</time>
					</trkpt>
					<trkpt lat="50.728070" lon="2.795560">
						<ele>18</ele>
						<time>2026-07-24T20:49:35Z</time>
					</trkpt>
					<trkpt lat="50.728170" lon="2.795150">
						<ele>18</ele>
						<time>2026-07-24T20:49:40Z</time>
					</trkpt>
					<trkpt lat="50.728690" lon="2.793490">
						<ele>18</ele>
						<time>2026-07-24T20:50:01Z</time>
					</trkpt>
					<trkpt lat="50.730320" lon="2.794430">
						<ele>19</ele>
						<time>2026-07-24T20:50:32Z</time>
					</trkpt>
					<trkpt lat="50.730850" lon="2.794700">
						<ele>18</ele>
						<time>2026-07-24T20:50:42Z</time>
					</trkpt>
					<trkpt lat="50.731270" lon="2.794880">
						<ele>17</ele>
						<time>2026-07-24T20:50:49Z</time>
					</trkpt>
					<trkpt lat="50.732010" lon="2.795120">
						<ele>18</ele>
						<time>2026-07-24T20:51:03Z</time>
					</trkpt>
					<trkpt lat="50.732250" lon="2.795130">
						<ele>18</ele>
						<time>2026-07-24T20:51:07Z</time>
					</trkpt>
					<trkpt lat="50.732990" lon="2.795300">
						<ele>18</ele>
						<time>2026-07-24T20:51:20Z</time>
					</trkpt>
					<trkpt lat="50.734460" lon="2.796290">
						<ele>16</ele>
						<time>2026-07-24T20:51:49Z</time>
					</trkpt>
					<trkpt lat="50.735790" lon="2.797750">
						<ele>18</ele>
						<time>2026-07-24T20:52:18Z</time>
					</trkpt>
					<trkpt lat="50.736160" lon="2.798120">
						<ele>18</ele>
						<time>2026-07-24T20:52:25Z</time>
					</trkpt>
					<trkpt lat="50.736350" lon="2.798360">
						<ele>18</ele>
						<time>2026-07-24T20:52:30Z</time>
					</trkpt>
					<trkpt lat="50.736370" lon="2.798420">
						<ele>18</ele>
						<time>2026-07-24T20:52:31Z</time>
					</trkpt>
					<trkpt lat="50.736360" lon="2.798580">
						<ele>19</ele>
						<time>2026-07-24T20:52:32Z</time>
					</trkpt>
					<trkpt lat="50.736120" lon="2.799560">
						<ele>20</ele>
						<time>2026-07-24T20:52:44Z</time>
					</trkpt>
					<trkpt lat="50.736120" lon="2.799790">
						<ele>20</ele>
						<time>2026-07-24T20:52:47Z</time>
					</trkpt>
					<trkpt lat="50.736160" lon="2.799910">
						<ele>20</ele>
						<time>2026-07-24T20:52:48Z</time>
					</trkpt>
					<trkpt lat="50.736690" lon="2.800530">
						<ele>22</ele>
						<time>2026-07-24T20:53:00Z</time>
					</trkpt>
					<trkpt lat="50.738220" lon="2.801510">
						<ele>30</ele>
						<time>2026-07-24T20:53:29Z</time>
					</trkpt>
					<trkpt lat="50.738630" lon="2.799570">
						<ele>33</ele>
						<time>2026-07-24T20:53:52Z</time>
					</trkpt>
					<trkpt lat="50.738870" lon="2.796870">
						<ele>34</ele>
						<time>2026-07-24T20:54:23Z</time>
					</trkpt>
					<trkpt lat="50.738960" lon="2.793950">
						<ele>34</ele>
						<time>2026-07-24T20:54:56Z</time>
					</trkpt>
					<trkpt lat="50.739160" lon="2.792400">
						<ele>35</ele>
						<time>2026-07-24T20:55:14Z</time>
					</trkpt>
					<trkpt lat="50.739630" lon="2.790170">
						<ele>41</ele>
						<time>2026-07-24T20:55:40Z</time>
					</trkpt>
					<trkpt lat="50.739750" lon="2.788270">
						<ele>41</ele>
						<time>2026-07-24T20:56:02Z</time>
					</trkpt>
					<trkpt lat="50.740020" lon="2.787370">
						<ele>42</ele>
						<time>2026-07-24T20:56:13Z</time>
					</trkpt>
					<trkpt lat="50.740350" lon="2.786690">
						<ele>43</ele>
						<time>2026-07-24T20:56:23Z</time>
					</trkpt>
					<trkpt lat="50.741400" lon="2.784780">
						<ele>47</ele>
						<time>2026-07-24T20:56:51Z</time>
					</trkpt>
					<trkpt lat="50.742240" lon="2.783110">
						<ele>47</ele>
						<time>2026-07-24T20:57:15Z</time>
					</trkpt>
					<trkpt lat="50.742340" lon="2.783010">
						<ele>47</ele>
						<time>2026-07-24T20:57:17Z</time>
					</trkpt>
					<trkpt lat="50.743420" lon="2.782580">
						<ele>50</ele>
						<time>2026-07-24T20:57:37Z</time>
					</trkpt>
					<trkpt lat="50.743750" lon="2.782370">
						<ele>51</ele>
						<time>2026-07-24T20:57:43Z</time>
					</trkpt>
					<trkpt lat="50.744350" lon="2.783800">
						<ele>62</ele>
						<time>2026-07-24T20:58:03Z</time>
					</trkpt>
					<trkpt lat="50.744390" lon="2.784170">
						<ele>64</ele>
						<time>2026-07-24T20:58:07Z</time>
					</trkpt>
					<trkpt lat="50.744360" lon="2.784840">
						<ele>66</ele>
						<time>2026-07-24T20:58:15Z</time>
					</trkpt>
					<trkpt lat="50.744060" lon="2.786260">
						<ele>70</ele>
						<time>2026-07-24T20:58:31Z</time>
					</trkpt>
					<trkpt lat="50.744010" lon="2.786810">
						<ele>72</ele>
						<time>2026-07-24T20:58:38Z</time>
					</trkpt>
					<trkpt lat="50.744030" lon="2.787470">
						<ele>73</ele>
						<time>2026-07-24T20:58:45Z</time>
					</trkpt>
					<trkpt lat="50.744200" lon="2.788730">
						<ele>76</ele>
						<time>2026-07-24T20:59:00Z</time>
					</trkpt>
					<trkpt lat="50.744210" lon="2.788940">
						<ele>76</ele>
						<time>2026-07-24T20:59:02Z</time>
					</trkpt>
					<trkpt lat="50.744200" lon="2.789230">
						<ele>76</ele>
						<time>2026-07-24T20:59:05Z</time>
					</trkpt>
					<trkpt lat="50.744100" lon="2.789920">
						<ele>75</ele>
						<time>2026-07-24T20:59:13Z</time>
					</trkpt>
					<trkpt lat="50.744080" lon="2.790340">
						<ele>73</ele>
						<time>2026-07-24T20:59:18Z</time>
					</trkpt>
					<trkpt lat="50.744090" lon="2.791580">
						<ele>71</ele>
						<time>2026-07-24T20:59:32Z</time>
					</trkpt>
					<trkpt lat="50.744160" lon="2.792050">
						<ele>70</ele>
						<time>2026-07-24T20:59:37Z</time>
					</trkpt>
					<trkpt lat="50.744700" lon="2.791820">
						<ele>65</ele>
						<time>2026-07-24T20:59:47Z</time>
					</trkpt>
					<trkpt lat="50.744960" lon="2.791750">
						<ele>62</ele>
						<time>2026-07-24T20:59:52Z</time>
					</trkpt>
					<trkpt lat="50.745110" lon="2.791740">
						<ele>60</ele>
						<time>2026-07-24T20:59:55Z</time>
					</trkpt>
					<trkpt lat="50.745290" lon="2.791770">
						<ele>59</ele>
						<time>2026-07-24T20:59:58Z</time>
					</trkpt>
					<trkpt lat="50.745850" lon="2.792050">
						<ele>56</ele>
						<time>2026-07-24T21:00:08Z</time>
					</trkpt>
					<trkpt lat="50.746250" lon="2.792110">
						<ele>54</ele>
						<time>2026-07-24T21:00:16Z</time>
					</trkpt>
					<trkpt lat="50.747100" lon="2.792340">
						<ele>50</ele>
						<time>2026-07-24T21:00:31Z</time>
					</trkpt>
					<trkpt lat="50.747540" lon="2.792280">
						<ele>49</ele>
						<time>2026-07-24T21:00:39Z</time>
					</trkpt>
					<trkpt lat="50.748080" lon="2.792430">
						<ele>49</ele>
						<time>2026-07-24T21:00:48Z</time>
					</trkpt>
					<trkpt lat="50.748230" lon="2.792420">
						<ele>49</ele>
						<time>2026-07-24T21:00:51Z</time>
					</trkpt>
					<trkpt lat="50.748650" lon="2.792320">
						<ele>48</ele>
						<time>2026-07-24T21:00:59Z</time>
					</trkpt>
					<trkpt lat="50.749580" lon="2.792030">
						<ele>44</ele>
						<time>2026-07-24T21:01:16Z</time>
					</trkpt>
					<trkpt lat="50.749790" lon="2.791930">
						<ele>43</ele>
						<time>2026-07-24T21:01:19Z</time>
					</trkpt>
					<trkpt lat="50.752840" lon="2.789210">
						<ele>37</ele>
						<time>2026-07-24T21:02:22Z</time>
					</trkpt>
					<trkpt lat="50.752970" lon="2.789280">
						<ele>37</ele>
						<time>2026-07-24T21:02:24Z</time>
					</trkpt>
					<trkpt lat="50.753150" lon="2.789310">
						<ele>37</ele>
						<time>2026-07-24T21:02:27Z</time>
					</trkpt>
					<trkpt lat="50.753480" lon="2.789420">
						<ele>37</ele>
						<time>2026-07-24T21:02:33Z</time>
					</trkpt>
					<trkpt lat="50.753540" lon="2.789340">
						<ele>38</ele>
						<time>2026-07-24T21:02:35Z</time>
					</trkpt>
					<trkpt lat="50.753870" lon="2.788550">
						<ele>40</ele>
						<time>2026-07-24T21:02:45Z</time>
					</trkpt>
					<trkpt lat="50.754860" lon="2.786770">
						<ele>45</ele>
						<time>2026-07-24T21:03:12Z</time>
					</trkpt>
					<trkpt lat="50.755070" lon="2.786580">
						<ele>45</ele>
						<time>2026-07-24T21:03:16Z</time>
					</trkpt>
					<trkpt lat="50.755890" lon="2.786210">
						<ele>45</ele>
						<time>2026-07-24T21:03:32Z</time>
					</trkpt>
					<trkpt lat="50.756140" lon="2.785950">
						<ele>45</ele>
						<time>2026-07-24T21:03:37Z</time>
					</trkpt>
					<trkpt lat="50.756380" lon="2.785640">
						<ele>46</ele>
						<time>2026-07-24T21:03:42Z</time>
					</trkpt>
					<trkpt lat="50.755550" lon="2.783110">
						<ele>49</ele>
						<time>2026-07-24T21:04:15Z</time>
					</trkpt>
					<trkpt lat="50.755210" lon="2.781780">
						<ele>53</ele>
						<time>2026-07-24T21:04:31Z</time>
					</trkpt>
					<trkpt lat="50.754980" lon="2.781060">
						<ele>54</ele>
						<time>2026-07-24T21:04:40Z</time>
					</trkpt>
					<trkpt lat="50.754320" lon="2.779330">
						<ele>54</ele>
						<time>2026-07-24T21:05:03Z</time>
					</trkpt>
					<trkpt lat="50.754170" lon="2.778820">
						<ele>54</ele>
						<time>2026-07-24T21:05:09Z</time>
					</trkpt>
					<trkpt lat="50.753720" lon="2.776750">
						<ele>55</ele>
						<time>2026-07-24T21:05:34Z</time>
					</trkpt>
					<trkpt lat="50.753650" lon="2.776480">
						<ele>55</ele>
						<time>2026-07-24T21:05:37Z</time>
					</trkpt>
					<trkpt lat="50.753580" lon="2.776330">
						<ele>55</ele>
						<time>2026-07-24T21:05:39Z</time>
					</trkpt>
					<trkpt lat="50.754670" lon="2.776200">
						<ele>59</ele>
						<time>2026-07-24T21:05:58Z</time>
					</trkpt>
					<trkpt lat="50.754920" lon="2.776100">
						<ele>59</ele>
						<time>2026-07-24T21:06:03Z</time>
					</trkpt>
					<trkpt lat="50.756000" lon="2.775400">
						<ele>62</ele>
						<time>2026-07-24T21:06:24Z</time>
					</trkpt>
					<trkpt lat="50.756250" lon="2.775330">
						<ele>63</ele>
						<time>2026-07-24T21:06:28Z</time>
					</trkpt>
					<trkpt lat="50.756520" lon="2.775300">
						<ele>63</ele>
						<time>2026-07-24T21:06:33Z</time>
					</trkpt>
					<trkpt lat="50.756850" lon="2.775370">
						<ele>63</ele>
						<time>2026-07-24T21:06:39Z</time>
					</trkpt>
					<trkpt lat="50.757110" lon="2.775370">
						<ele>62</ele>
						<time>2026-07-24T21:06:44Z</time>
					</trkpt>
					<trkpt lat="50.757910" lon="2.775160">
						<ele>59</ele>
						<time>2026-07-24T21:06:58Z</time>
					</trkpt>
					<trkpt lat="50.758110" lon="2.775140">
						<ele>58</ele>
						<time>2026-07-24T21:07:02Z</time>
					</trkpt>
					<trkpt lat="50.758130" lon="2.776260">
						<ele>58</ele>
						<time>2026-07-24T21:07:14Z</time>
					</trkpt>
					<trkpt lat="50.758160" lon="2.776350">
						<ele>57</ele>
						<time>2026-07-24T21:07:15Z</time>
					</trkpt>
					<trkpt lat="50.758310" lon="2.776450">
						<ele>56</ele>
						<time>2026-07-24T21:07:18Z</time>
					</trkpt>
					<trkpt lat="50.759030" lon="2.776590">
						<ele>53</ele>
						<time>2026-07-24T21:07:31Z</time>
					</trkpt>
					<trkpt lat="50.760280" lon="2.776730">
						<ele>48</ele>
						<time>2026-07-24T21:07:53Z</time>
					</trkpt>
					<trkpt lat="50.760800" lon="2.776810">
						<ele>46</ele>
						<time>2026-07-24T21:08:03Z</time>
					</trkpt>
					<trkpt lat="50.761530" lon="2.776820">
						<ele>43</ele>
						<time>2026-07-24T21:08:16Z</time>
					</trkpt>
					<trkpt lat="50.761520" lon="2.776060">
						<ele>42</ele>
						<time>2026-07-24T21:08:24Z</time>
					</trkpt>
					<trkpt lat="50.761460" lon="2.775700">
						<ele>42</ele>
						<time>2026-07-24T21:08:28Z</time>
					</trkpt>
					<trkpt lat="50.761290" lon="2.775040">
						<ele>43</ele>
						<time>2026-07-24T21:08:36Z</time>
					</trkpt>
					<trkpt lat="50.761230" lon="2.774340">
						<ele>43</ele>
						<time>2026-07-24T21:08:44Z</time>
					</trkpt>
					<trkpt lat="50.761140" lon="2.774090">
						<ele>44</ele>
						<time>2026-07-24T21:08:48Z</time>
					</trkpt>
					<trkpt lat="50.760840" lon="2.773510">
						<ele>45</ele>
						<time>2026-07-24T21:08:56Z</time>
					</trkpt>
					<trkpt lat="50.760590" lon="2.772910">
						<ele>47</ele>
						<time>2026-07-24T21:09:04Z</time>
					</trkpt>
					<trkpt lat="50.760400" lon="2.772050">
						<ele>48</ele>
						<time>2026-07-24T21:09:14Z</time>
					</trkpt>
					<trkpt lat="50.761200" lon="2.771730">
						<ele>45</ele>
						<time>2026-07-24T21:09:29Z</time>
					</trkpt>
					<trkpt lat="50.761740" lon="2.771390">
						<ele>43</ele>
						<time>2026-07-24T21:09:39Z</time>
					</trkpt>
					<trkpt lat="50.762870" lon="2.770510">
						<ele>44</ele>
						<time>2026-07-24T21:10:02Z</time>
					</trkpt>
					<trkpt lat="50.763940" lon="2.769440">
						<ele>43</ele>
						<time>2026-07-24T21:10:24Z</time>
					</trkpt>
					<trkpt lat="50.764630" lon="2.769140">
						<ele>44</ele>
						<time>2026-07-24T21:10:37Z</time>
					</trkpt>
					<trkpt lat="50.764650" lon="2.768880">
						<ele>44</ele>
						<time>2026-07-24T21:10:40Z</time>
					</trkpt>
					<trkpt lat="50.764730" lon="2.768530">
						<ele>44</ele>
						<time>2026-07-24T21:10:44Z</time>
					</trkpt>
					<trkpt lat="50.764930" lon="2.768120">
						<ele>45</ele>
						<time>2026-07-24T21:10:50Z</time>
					</trkpt>
					<trkpt lat="50.765560" lon="2.767390">
						<ele>47</ele>
						<time>2026-07-24T21:11:04Z</time>
					</trkpt>
					<trkpt lat="50.765680" lon="2.767120">
						<ele>48</ele>
						<time>2026-07-24T21:11:08Z</time>
					</trkpt>
					<trkpt lat="50.765720" lon="2.766940">
						<ele>48</ele>
						<time>2026-07-24T21:11:10Z</time>
					</trkpt>
					<trkpt lat="50.765740" lon="2.766590">
						<ele>48</ele>
						<time>2026-07-24T21:11:14Z</time>
					</trkpt>
					<trkpt lat="50.765930" lon="2.766090">
						<ele>49</ele>
						<time>2026-07-24T21:11:20Z</time>
					</trkpt>
					<trkpt lat="50.766060" lon="2.765900">
						<ele>50</ele>
						<time>2026-07-24T21:11:24Z</time>
					</trkpt>
					<trkpt lat="50.766460" lon="2.765500">
						<ele>51</ele>
						<time>2026-07-24T21:11:32Z</time>
					</trkpt>
					<trkpt lat="50.766520" lon="2.765300">
						<ele>52</ele>
						<time>2026-07-24T21:11:34Z</time>
					</trkpt>
					<trkpt lat="50.766520" lon="2.764870">
						<ele>52</ele>
						<time>2026-07-24T21:11:39Z</time>
					</trkpt>
					<trkpt lat="50.766490" lon="2.764710">
						<ele>52</ele>
						<time>2026-07-24T21:11:41Z</time>
					</trkpt>
					<trkpt lat="50.766030" lon="2.764070">
						<ele>53</ele>
						<time>2026-07-24T21:11:52Z</time>
					</trkpt>
					<trkpt lat="50.765020" lon="2.762820">
						<ele>51</ele>
						<time>2026-07-24T21:12:15Z</time>
					</trkpt>
					<trkpt lat="50.764600" lon="2.762010">
						<ele>51</ele>
						<time>2026-07-24T21:12:27Z</time>
					</trkpt>
					<trkpt lat="50.764550" lon="2.761750">
						<ele>51</ele>
						<time>2026-07-24T21:12:30Z</time>
					</trkpt>
					<trkpt lat="50.764560" lon="2.761660">
						<ele>51</ele>
						<time>2026-07-24T21:12:31Z</time>
					</trkpt>
					<trkpt lat="50.764760" lon="2.761210">
						<ele>53</ele>
						<time>2026-07-24T21:12:37Z</time>
					</trkpt>
					<trkpt lat="50.765970" lon="2.758750">
						<ele>59</ele>
						<time>2026-07-24T21:13:12Z</time>
					</trkpt>
					<trkpt lat="50.766120" lon="2.758390">
						<ele>59</ele>
						<time>2026-07-24T21:13:17Z</time>
					</trkpt>
					<trkpt lat="50.766330" lon="2.758490">
						<ele>59</ele>
						<time>2026-07-24T21:13:21Z</time>
					</trkpt>
					<trkpt lat="50.766830" lon="2.758830">
						<ele>60</ele>
						<time>2026-07-24T21:13:30Z</time>
					</trkpt>
					<trkpt lat="50.769150" lon="2.760850">
						<ele>58</ele>
						<time>2026-07-24T21:14:18Z</time>
					</trkpt>
					<trkpt lat="50.769980" lon="2.761510">
						<ele>56</ele>
						<time>2026-07-24T21:14:34Z</time>
					</trkpt>
					<trkpt lat="50.771160" lon="2.762290">
						<ele>57</ele>
						<time>2026-07-24T21:14:57Z</time>
					</trkpt>
					<trkpt lat="50.771890" lon="2.762820">
						<ele>62</ele>
						<time>2026-07-24T21:15:11Z</time>
					</trkpt>
					<trkpt lat="50.772740" lon="2.763560">
						<ele>68</ele>
						<time>2026-07-24T21:15:28Z</time>
					</trkpt>
					<trkpt lat="50.774250" lon="2.764950">
						<ele>71</ele>
						<time>2026-07-24T21:16:00Z</time>
					</trkpt>
					<trkpt lat="50.776590" lon="2.767010">
						<ele>69</ele>
						<time>2026-07-24T21:16:47Z</time>
					</trkpt>
					<trkpt lat="50.777220" lon="2.767640">
						<ele>71</ele>
						<time>2026-07-24T21:17:00Z</time>
					</trkpt>
					<trkpt lat="50.779590" lon="2.770820">
						<ele>76</ele>
						<time>2026-07-24T21:17:56Z</time>
					</trkpt>
					<trkpt lat="50.780740" lon="2.772290">
						<ele>83</ele>
						<time>2026-07-24T21:18:22Z</time>
					</trkpt>
					<trkpt lat="50.780940" lon="2.772480">
						<ele>84</ele>
						<time>2026-07-24T21:18:26Z</time>
					</trkpt>
					<trkpt lat="50.781640" lon="2.772110">
						<ele>87</ele>
						<time>2026-07-24T21:18:39Z</time>
					</trkpt>
					<trkpt lat="50.782000" lon="2.772890">
						<ele>86</ele>
						<time>2026-07-24T21:18:50Z</time>
					</trkpt>
					<trkpt lat="50.781440" lon="2.773650">
						<ele>82</ele>
						<time>2026-07-24T21:19:03Z</time>
					</trkpt>
					<trkpt lat="50.780950" lon="2.774430">
						<ele>80</ele>
						<time>2026-07-24T21:19:16Z</time>
					</trkpt>
					<trkpt lat="50.780590" lon="2.775070">
						<ele>78</ele>
						<time>2026-07-24T21:19:25Z</time>
					</trkpt>
					<trkpt lat="50.780040" lon="2.776200">
						<ele>75</ele>
						<time>2026-07-24T21:19:41Z</time>
					</trkpt>
					<trkpt lat="50.779980" lon="2.776400">
						<ele>75</ele>
						<time>2026-07-24T21:19:44Z</time>
					</trkpt>
					<trkpt lat="50.779880" lon="2.778710">
						<ele>71</ele>
						<time>2026-07-24T21:20:10Z</time>
					</trkpt>
					<trkpt lat="50.779790" lon="2.780160">
						<ele>66</ele>
						<time>2026-07-24T21:20:26Z</time>
					</trkpt>
					<trkpt lat="50.779560" lon="2.781170">
						<ele>64</ele>
						<time>2026-07-24T21:20:38Z</time>
					</trkpt>
					<trkpt lat="50.779360" lon="2.782230">
						<ele>62</ele>
						<time>2026-07-24T21:20:51Z</time>
					</trkpt>
					<trkpt lat="50.779120" lon="2.783260">
						<ele>59</ele>
						<time>2026-07-24T21:21:03Z</time>
					</trkpt>
					<trkpt lat="50.779100" lon="2.783460">
						<ele>58</ele>
						<time>2026-07-24T21:21:05Z</time>
					</trkpt>
					<trkpt lat="50.779090" lon="2.783750">
						<ele>57</ele>
						<time>2026-07-24T21:21:09Z</time>
					</trkpt>
					<trkpt lat="50.779130" lon="2.784410">
						<ele>55</ele>
						<time>2026-07-24T21:21:16Z</time>
					</trkpt>
					<trkpt lat="50.779240" lon="2.785590">
						<ele>52</ele>
						<time>2026-07-24T21:21:30Z</time>
					</trkpt>
					<trkpt lat="50.779180" lon="2.785920">
						<ele>53</ele>
						<time>2026-07-24T21:21:33Z</time>
					</trkpt>
					<trkpt lat="50.779070" lon="2.786230">
						<ele>54</ele>
						<time>2026-07-24T21:21:37Z</time>
					</trkpt>
					<trkpt lat="50.779010" lon="2.786480">
						<ele>56</ele>
						<time>2026-07-24T21:21:40Z</time>
					</trkpt>
					<trkpt lat="50.778930" lon="2.789410">
						<ele>66</ele>
						<time>2026-07-24T21:22:13Z</time>
					</trkpt>
					<trkpt lat="50.778960" lon="2.789960">
						<ele>68</ele>
						<time>2026-07-24T21:22:20Z</time>
					</trkpt>
					<trkpt lat="50.779040" lon="2.790550">
						<ele>69</ele>
						<time>2026-07-24T21:22:26Z</time>
					</trkpt>
					<trkpt lat="50.778360" lon="2.790590">
						<ele>70</ele>
						<time>2026-07-24T21:22:39Z</time>
					</trkpt>
					<trkpt lat="50.778020" lon="2.790650">
						<ele>69</ele>
						<time>2026-07-24T21:22:45Z</time>
					</trkpt>
					<trkpt lat="50.777130" lon="2.791190">
						<ele>68</ele>
						<time>2026-07-24T21:23:02Z</time>
					</trkpt>
					<trkpt lat="50.776710" lon="2.791200">
						<ele>67</ele>
						<time>2026-07-24T21:23:09Z</time>
					</trkpt>
					<trkpt lat="50.776140" lon="2.790880">
						<ele>65</ele>
						<time>2026-07-24T21:23:20Z</time>
					</trkpt>
					<trkpt lat="50.775650" lon="2.790650">
						<ele>63</ele>
						<time>2026-07-24T21:23:29Z</time>
					</trkpt>
					<trkpt lat="50.774630" lon="2.790300">
						<ele>60</ele>
						<time>2026-07-24T21:23:48Z</time>
					</trkpt>
					<trkpt lat="50.774130" lon="2.789970">
						<ele>59</ele>
						<time>2026-07-24T21:23:57Z</time>
					</trkpt>
					<trkpt lat="50.773900" lon="2.789910">
						<ele>58</ele>
						<time>2026-07-24T21:24:01Z</time>
					</trkpt>
					<trkpt lat="50.773510" lon="2.789890">
						<ele>57</ele>
						<time>2026-07-24T21:24:08Z</time>
					</trkpt>
					<trkpt lat="50.772780" lon="2.790060">
						<ele>54</ele>
						<time>2026-07-24T21:24:21Z</time>
					</trkpt>
					<trkpt lat="50.772500" lon="2.790170">
						<ele>52</ele>
						<time>2026-07-24T21:24:27Z</time>
					</trkpt>
					<trkpt lat="50.772270" lon="2.790330">
						<ele>51</ele>
						<time>2026-07-24T21:24:31Z</time>
					</trkpt>
					<trkpt lat="50.771330" lon="2.791090">
						<ele>48</ele>
						<time>2026-07-24T21:24:50Z</time>
					</trkpt>
					<trkpt lat="50.770810" lon="2.791420">
						<ele>46</ele>
						<time>2026-07-24T21:25:00Z</time>
					</trkpt>
					<trkpt lat="50.770340" lon="2.791830">
						<ele>44</ele>
						<time>2026-07-24T21:25:09Z</time>
					</trkpt>
					<trkpt lat="50.770450" lon="2.792140">
						<ele>45</ele>
						<time>2026-07-24T21:25:13Z</time>
					</trkpt>
					<trkpt lat="50.770450" lon="2.792330">
						<ele>45</ele>
						<time>2026-07-24T21:25:15Z</time>
					</trkpt>
					<trkpt lat="50.770390" lon="2.792500">
						<ele>45</ele>
						<time>2026-07-24T21:25:18Z</time>
					</trkpt>
					<trkpt lat="50.770280" lon="2.792670">
						<ele>46</ele>
						<time>2026-07-24T21:25:20Z</time>
					</trkpt>
					<trkpt lat="50.770030" lon="2.792970">
						<ele>47</ele>
						<time>2026-07-24T21:25:26Z</time>
					</trkpt>
					<trkpt lat="50.769980" lon="2.793070">
						<ele>47</ele>
						<time>2026-07-24T21:25:27Z</time>
					</trkpt>
					<trkpt lat="50.769960" lon="2.793460">
						<ele>49</ele>
						<time>2026-07-24T21:25:32Z</time>
					</trkpt>
					<trkpt lat="50.770080" lon="2.794070">
						<ele>52</ele>
						<time>2026-07-24T21:25:39Z</time>
					</trkpt>
					<trkpt lat="50.770110" lon="2.794290">
						<ele>54</ele>
						<time>2026-07-24T21:25:41Z</time>
					</trkpt>
					<trkpt lat="50.770100" lon="2.794470">
						<ele>55</ele>
						<time>2026-07-24T21:25:44Z</time>
					</trkpt>
					<trkpt lat="50.770010" lon="2.794890">
						<ele>57</ele>
						<time>2026-07-24T21:25:49Z</time>
					</trkpt>
					<trkpt lat="50.769760" lon="2.795470">
						<ele>58</ele>
						<time>2026-07-24T21:25:56Z</time>
					</trkpt>
					<trkpt lat="50.769670" lon="2.795860">
						<ele>59</ele>
						<time>2026-07-24T21:26:01Z</time>
					</trkpt>
					<trkpt lat="50.769550" lon="2.797120">
						<ele>67</ele>
						<time>2026-07-24T21:26:15Z</time>
					</trkpt>
					<trkpt lat="50.769600" lon="2.797450">
						<ele>69</ele>
						<time>2026-07-24T21:26:19Z</time>
					</trkpt>
					<trkpt lat="50.769700" lon="2.797730">
						<ele>71</ele>
						<time>2026-07-24T21:26:23Z</time>
					</trkpt>
					<trkpt lat="50.770700" lon="2.799520">
						<ele>82</ele>
						<time>2026-07-24T21:26:50Z</time>
					</trkpt>
					<trkpt lat="50.770960" lon="2.800050">
						<ele>85</ele>
						<time>2026-07-24T21:26:57Z</time>
					</trkpt>
					<trkpt lat="50.771130" lon="2.800580">
						<ele>87</ele>
						<time>2026-07-24T21:27:04Z</time>
					</trkpt>
					<trkpt lat="50.771260" lon="2.801120">
						<ele>90</ele>
						<time>2026-07-24T21:27:10Z</time>
					</trkpt>
					<trkpt lat="50.771370" lon="2.801720">
						<ele>93</ele>
						<time>2026-07-24T21:27:18Z</time>
					</trkpt>
					<trkpt lat="50.771510" lon="2.802250">
						<ele>95</ele>
						<time>2026-07-24T21:27:24Z</time>
					</trkpt>
					<trkpt lat="50.771660" lon="2.802590">
						<ele>97</ele>
						<time>2026-07-24T21:27:29Z</time>
					</trkpt>
					<trkpt lat="50.772580" lon="2.804180">
						<ele>98</ele>
						<time>2026-07-24T21:27:53Z</time>
					</trkpt>
					<trkpt lat="50.772800" lon="2.804610">
						<ele>101</ele>
						<time>2026-07-24T21:27:59Z</time>
					</trkpt>
					<trkpt lat="50.772960" lon="2.805000">
						<ele>102</ele>
						<time>2026-07-24T21:28:04Z</time>
					</trkpt>
					<trkpt lat="50.773320" lon="2.806770">
						<ele>105</ele>
						<time>2026-07-24T21:28:25Z</time>
					</trkpt>
					<trkpt lat="50.773710" lon="2.808240">
						<ele>112</ele>
						<time>2026-07-24T21:28:43Z</time>
					</trkpt>
					<trkpt lat="50.774010" lon="2.809590">
						<ele>111</ele>
						<time>2026-07-24T21:28:59Z</time>
					</trkpt>
					<trkpt lat="50.774050" lon="2.809860">
						<ele>110</ele>
						<time>2026-07-24T21:29:02Z</time>
					</trkpt>
					<trkpt lat="50.774140" lon="2.811300">
						<ele>106</ele>
						<time>2026-07-24T21:29:19Z</time>
					</trkpt>
					<trkpt lat="50.774210" lon="2.811640">
						<ele>106</ele>
						<time>2026-07-24T21:29:23Z</time>
					</trkpt>
					<trkpt lat="50.774480" lon="2.812510">
						<ele>102</ele>
						<time>2026-07-24T21:29:34Z</time>
					</trkpt>
					<trkpt lat="50.774610" lon="2.812780">
						<ele>101</ele>
						<time>2026-07-24T21:29:37Z</time>
					</trkpt>
					<trkpt lat="50.775200" lon="2.813470">
						<ele>98</ele>
						<time>2026-07-24T21:29:51Z</time>
					</trkpt>
					<trkpt lat="50.775900" lon="2.813930">
						<ele>99</ele>
						<time>2026-07-24T21:30:04Z</time>
					</trkpt>
					<trkpt lat="50.775970" lon="2.814000">
						<ele>100</ele>
						<time>2026-07-24T21:30:05Z</time>
					</trkpt>
					<trkpt lat="50.776010" lon="2.814130">
						<ele>101</ele>
						<time>2026-07-24T21:30:07Z</time>
					</trkpt>
					<trkpt lat="50.776070" lon="2.814850">
						<ele>103</ele>
						<time>2026-07-24T21:30:15Z</time>
					</trkpt>
					<trkpt lat="50.776090" lon="2.816120">
						<ele>105</ele>
						<time>2026-07-24T21:30:30Z</time>
					</trkpt>
					<trkpt lat="50.776140" lon="2.816390">
						<ele>105</ele>
						<time>2026-07-24T21:30:33Z</time>
					</trkpt>
					<trkpt lat="50.776830" lon="2.818160">
						<ele>103</ele>
						<time>2026-07-24T21:30:56Z</time>
					</trkpt>
					<trkpt lat="50.776790" lon="2.818220">
						<ele>102</ele>
						<time>2026-07-24T21:30:57Z</time>
					</trkpt>
					<trkpt lat="50.776770" lon="2.818400">
						<ele>100</ele>
						<time>2026-07-24T21:30:59Z</time>
					</trkpt>
					<trkpt lat="50.776790" lon="2.818680">
						<ele>98</ele>
						<time>2026-07-24T21:31:02Z</time>
					</trkpt>
					<trkpt lat="50.777050" lon="2.819240">
						<ele>97</ele>
						<time>2026-07-24T21:31:10Z</time>
					</trkpt>
					<trkpt lat="50.777060" lon="2.819380">
						<ele>96</ele>
						<time>2026-07-24T21:31:12Z</time>
					</trkpt>
					<trkpt lat="50.777100" lon="2.819380">
						<ele>97</ele>
						<time>2026-07-24T21:31:12Z</time>
					</trkpt>
					<trkpt lat="50.777120" lon="2.820160">
						<ele>91</ele>
						<time>2026-07-24T21:31:21Z</time>
					</trkpt>
					<trkpt lat="50.776790" lon="2.821180">
						<ele>86</ele>
						<time>2026-07-24T21:31:34Z</time>
					</trkpt>
					<trkpt lat="50.776570" lon="2.822220">
						<ele>83</ele>
						<time>2026-07-24T21:31:46Z</time>
					</trkpt>
					<trkpt lat="50.776480" lon="2.823130">
						<ele>81</ele>
						<time>2026-07-24T21:31:57Z</time>
					</trkpt>
					<trkpt lat="50.776220" lon="2.824860">
						<ele>79</ele>
						<time>2026-07-24T21:32:17Z</time>
					</trkpt>
					<trkpt lat="50.775940" lon="2.826210">
						<ele>77</ele>
						<time>2026-07-24T21:32:33Z</time>
					</trkpt>
					<trkpt lat="50.775890" lon="2.826600">
						<ele>76</ele>
						<time>2026-07-24T21:32:37Z</time>
					</trkpt>
					<trkpt lat="50.775900" lon="2.827620">
						<ele>76</ele>
						<time>2026-07-24T21:32:49Z</time>
					</trkpt>
					<trkpt lat="50.775830" lon="2.827640">
						<ele>76</ele>
						<time>2026-07-24T21:32:50Z</time>
					</trkpt>
					<trkpt lat="50.775840" lon="2.827820">
						<ele>76</ele>
						<time>2026-07-24T21:32:52Z</time>
					</trkpt>
					<trkpt lat="50.775800" lon="2.828470">
						<ele>76</ele>
						<time>2026-07-24T21:32:59Z</time>
					</trkpt>
					<trkpt lat="50.775790" lon="2.829890">
						<ele>73</ele>
						<time>2026-07-24T21:33:15Z</time>
					</trkpt>
					<trkpt lat="50.775730" lon="2.831460">
						<ele>70</ele>
						<time>2026-07-24T21:33:33Z</time>
					</trkpt>
					<trkpt lat="50.775680" lon="2.831930">
						<ele>69</ele>
						<time>2026-07-24T21:33:38Z</time>
					</trkpt>
					<trkpt lat="50.775540" lon="2.834080">
						<ele>67</ele>
						<time>2026-07-24T21:34:03Z</time>
					</trkpt>
					<trkpt lat="50.775390" lon="2.835770">
						<ele>67</ele>
						<time>2026-07-24T21:34:22Z</time>
					</trkpt>
					<trkpt lat="50.775350" lon="2.836570">
						<ele>68</ele>
						<time>2026-07-24T21:34:31Z</time>
					</trkpt>
					<trkpt lat="50.775500" lon="2.838100">
						<ele>66</ele>
						<time>2026-07-24T21:34:48Z</time>
					</trkpt>
					<trkpt lat="50.775560" lon="2.840300">
						<ele>64</ele>
						<time>2026-07-24T21:35:13Z</time>
					</trkpt>
					<trkpt lat="50.775540" lon="2.840460">
						<ele>64</ele>
						<time>2026-07-24T21:35:15Z</time>
					</trkpt>
					<trkpt lat="50.775630" lon="2.841430">
						<ele>63</ele>
						<time>2026-07-24T21:35:26Z</time>
					</trkpt>
					<trkpt lat="50.775700" lon="2.841890">
						<ele>63</ele>
						<time>2026-07-24T21:35:31Z</time>
					</trkpt>
					<trkpt lat="50.776440" lon="2.844570">
						<ele>64</ele>
						<time>2026-07-24T21:36:04Z</time>
					</trkpt>
					<trkpt lat="50.776960" lon="2.846800">
						<ele>62</ele>
						<time>2026-07-24T21:36:31Z</time>
					</trkpt>
					<trkpt lat="50.777250" lon="2.847890">
						<ele>62</ele>
						<time>2026-07-24T21:36:44Z</time>
					</trkpt>
					<trkpt lat="50.777440" lon="2.848770">
						<ele>64</ele>
						<time>2026-07-24T21:36:55Z</time>
					</trkpt>
					<trkpt lat="50.777760" lon="2.850690">
						<ele>66</ele>
						<time>2026-07-24T21:37:17Z</time>
					</trkpt>
					<trkpt lat="50.777780" lon="2.850910">
						<ele>66</ele>
						<time>2026-07-24T21:37:20Z</time>
					</trkpt>
					<trkpt lat="50.777800" lon="2.852590">
						<ele>69</ele>
						<time>2026-07-24T21:37:39Z</time>
					</trkpt>
					<trkpt lat="50.777840" lon="2.853450">
						<ele>69</ele>
						<time>2026-07-24T21:37:48Z</time>
					</trkpt>
					<trkpt lat="50.778070" lon="2.854710">
						<ele>69</ele>
						<time>2026-07-24T21:38:03Z</time>
					</trkpt>
					<trkpt lat="50.778200" lon="2.854810">
						<ele>68</ele>
						<time>2026-07-24T21:38:06Z</time>
					</trkpt>
					<trkpt lat="50.779070" lon="2.854660">
						<ele>64</ele>
						<time>2026-07-24T21:38:21Z</time>
					</trkpt>
					<trkpt lat="50.781100" lon="2.854390">
						<ele>54</ele>
						<time>2026-07-24T21:38:57Z</time>
					</trkpt>
					<trkpt lat="50.781320" lon="2.854260">
						<ele>53</ele>
						<time>2026-07-24T21:39:02Z</time>
					</trkpt>
					<trkpt lat="50.781920" lon="2.853740">
						<ele>50</ele>
						<time>2026-07-24T21:39:14Z</time>
					</trkpt>
					<trkpt lat="50.782700" lon="2.853110">
						<ele>45</ele>
						<time>2026-07-24T21:39:29Z</time>
					</trkpt>
					<trkpt lat="50.782970" lon="2.854530">
						<ele>44</ele>
						<time>2026-07-24T21:39:46Z</time>
					</trkpt>
					<trkpt lat="50.783360" lon="2.856070">
						<ele>46</ele>
						<time>2026-07-24T21:40:05Z</time>
					</trkpt>
					<trkpt lat="50.783490" lon="2.856750">
						<ele>48</ele>
						<time>2026-07-24T21:40:13Z</time>
					</trkpt>
					<trkpt lat="50.783820" lon="2.859290">
						<ele>53</ele>
						<time>2026-07-24T21:40:42Z</time>
					</trkpt>
					<trkpt lat="50.784160" lon="2.861240">
						<ele>60</ele>
						<time>2026-07-24T21:41:05Z</time>
					</trkpt>
					<trkpt lat="50.784330" lon="2.861980">
						<ele>60</ele>
						<time>2026-07-24T21:41:13Z</time>
					</trkpt>
					<trkpt lat="50.785020" lon="2.863980">
						<ele>62</ele>
						<time>2026-07-24T21:41:39Z</time>
					</trkpt>
					<trkpt lat="50.786170" lon="2.862300">
						<ele>55</ele>
						<time>2026-07-24T21:42:07Z</time>
					</trkpt>
					<trkpt lat="50.787170" lon="2.861020">
						<ele>50</ele>
						<time>2026-07-24T21:42:30Z</time>
					</trkpt>
					<trkpt lat="50.787620" lon="2.860400">
						<ele>48</ele>
						<time>2026-07-24T21:42:40Z</time>
					</trkpt>
					<trkpt lat="50.787730" lon="2.860110">
						<ele>47</ele>
						<time>2026-07-24T21:42:44Z</time>
					</trkpt>
					<trkpt lat="50.787970" lon="2.859200">
						<ele>45</ele>
						<time>2026-07-24T21:42:55Z</time>
					</trkpt>
					<trkpt lat="50.787960" lon="2.857890">
						<ele>44</ele>
						<time>2026-07-24T21:43:10Z</time>
					</trkpt>
					<trkpt lat="50.787990" lon="2.857200">
						<ele>42</ele>
						<time>2026-07-24T21:43:18Z</time>
					</trkpt>
					<trkpt lat="50.788160" lon="2.856150">
						<ele>39</ele>
						<time>2026-07-24T21:43:30Z</time>
					</trkpt>
					<trkpt lat="50.788170" lon="2.855550">
						<ele>37</ele>
						<time>2026-07-24T21:43:37Z</time>
					</trkpt>
					<trkpt lat="50.788090" lon="2.854470">
						<ele>35</ele>
						<time>2026-07-24T21:43:49Z</time>
					</trkpt>
					<trkpt lat="50.787970" lon="2.853900">
						<ele>35</ele>
						<time>2026-07-24T21:43:56Z</time>
					</trkpt>
					<trkpt lat="50.787790" lon="2.853310">
						<ele>36</ele>
						<time>2026-07-24T21:44:03Z</time>
					</trkpt>
					<trkpt lat="50.787630" lon="2.852290">
						<ele>36</ele>
						<time>2026-07-24T21:44:15Z</time>
					</trkpt>
					<trkpt lat="50.787210" lon="2.850220">
						<ele>36</ele>
						<time>2026-07-24T21:44:39Z</time>
					</trkpt>
					<trkpt lat="50.787080" lon="2.849200">
						<ele>36</ele>
						<time>2026-07-24T21:44:51Z</time>
					</trkpt>
					<trkpt lat="50.786800" lon="2.847750">
						<ele>39</ele>
						<time>2026-07-24T21:45:08Z</time>
					</trkpt>
					<trkpt lat="50.786270" lon="2.845500">
						<ele>39</ele>
						<time>2026-07-24T21:45:35Z</time>
					</trkpt>
					<trkpt lat="50.786210" lon="2.845050">
						<ele>40</ele>
						<time>2026-07-24T21:45:40Z</time>
					</trkpt>
					<trkpt lat="50.786160" lon="2.844070">
						<ele>40</ele>
						<time>2026-07-24T21:45:51Z</time>
					</trkpt>
					<trkpt lat="50.786010" lon="2.842180">
						<ele>44</ele>
						<time>2026-07-24T21:46:13Z</time>
					</trkpt>
					<trkpt lat="50.785940" lon="2.841570">
						<ele>43</ele>
						<time>2026-07-24T21:46:20Z</time>
					</trkpt>
					<trkpt lat="50.785950" lon="2.840980">
						<ele>44</ele>
						<time>2026-07-24T21:46:26Z</time>
					</trkpt>
					<trkpt lat="50.786250" lon="2.840490">
						<ele>47</ele>
						<time>2026-07-24T21:46:34Z</time>
					</trkpt>
					<trkpt lat="50.786300" lon="2.840680">
						<ele>46</ele>
						<time>2026-07-24T21:46:36Z</time>
					</trkpt>
					<trkpt lat="50.786520" lon="2.841150">
						<ele>46</ele>
						<time>2026-07-24T21:46:43Z</time>
					</trkpt>
					<trkpt lat="50.786660" lon="2.841600">
						<ele>46</ele>
						<time>2026-07-24T21:46:49Z</time>
					</trkpt>
					<trkpt lat="50.786970" lon="2.842220">
						<ele>46</ele>
						<time>2026-07-24T21:46:58Z</time>
					</trkpt>
					<trkpt lat="50.787420" lon="2.843450">
						<ele>44</ele>
						<time>2026-07-24T21:47:14Z</time>
					</trkpt>
					<trkpt lat="50.787530" lon="2.844290">
						<ele>42</ele>
						<time>2026-07-24T21:47:23Z</time>
					</trkpt>
					<trkpt lat="50.787630" lon="2.844730">
						<ele>41</ele>
						<time>2026-07-24T21:47:28Z</time>
					</trkpt>
					<trkpt lat="50.788010" lon="2.845590">
						<ele>40</ele>
						<time>2026-07-24T21:47:40Z</time>
					</trkpt>
					<trkpt lat="50.788090" lon="2.845700">
						<ele>40</ele>
						<time>2026-07-24T21:47:42Z</time>
					</trkpt>
					<trkpt lat="50.788450" lon="2.846400">
						<ele>40</ele>
						<time>2026-07-24T21:47:52Z</time>
					</trkpt>
					<trkpt lat="50.788600" lon="2.846580">
						<ele>40</ele>
						<time>2026-07-24T21:47:56Z</time>
					</trkpt>
					<trkpt lat="50.788970" lon="2.846810">
						<ele>40</ele>
						<time>2026-07-24T21:48:03Z</time>
					</trkpt>
					<trkpt lat="50.789190" lon="2.847080">
						<ele>40</ele>
						<time>2026-07-24T21:48:08Z</time>
					</trkpt>
					<trkpt lat="50.789600" lon="2.847690">
						<ele>41</ele>
						<time>2026-07-24T21:48:18Z</time>
					</trkpt>
					<trkpt lat="50.790130" lon="2.848670">
						<ele>41</ele>
						<time>2026-07-24T21:48:32Z</time>
					</trkpt>
					<trkpt lat="50.790270" lon="2.849120">
						<ele>42</ele>
						<time>2026-07-24T21:48:38Z</time>
					</trkpt>
					<trkpt lat="50.790960" lon="2.849810">
						<ele>41</ele>
						<time>2026-07-24T21:48:52Z</time>
					</trkpt>
					<trkpt lat="50.791500" lon="2.850500">
						<ele>38</ele>
						<time>2026-07-24T21:49:05Z</time>
					</trkpt>
					<trkpt lat="50.792160" lon="2.850950">
						<ele>38</ele>
						<time>2026-07-24T21:49:18Z</time>
					</trkpt>
					<trkpt lat="50.792390" lon="2.851250">
						<ele>38</ele>
						<time>2026-07-24T21:49:23Z</time>
					</trkpt>
					<trkpt lat="50.792820" lon="2.851960">
						<ele>37</ele>
						<time>2026-07-24T21:49:34Z</time>
					</trkpt>
					<trkpt lat="50.792990" lon="2.852150">
						<ele>37</ele>
						<time>2026-07-24T21:49:38Z</time>
					</trkpt>
					<trkpt lat="50.793100" lon="2.852210">
						<ele>37</ele>
						<time>2026-07-24T21:49:40Z</time>
					</trkpt>
					<trkpt lat="50.793220" lon="2.852320">
						<ele>37</ele>
						<time>2026-07-24T21:49:42Z</time>
					</trkpt>
					<trkpt lat="50.793660" lon="2.852940">
						<ele>36</ele>
						<time>2026-07-24T21:49:53Z</time>
					</trkpt>
					<trkpt lat="50.794620" lon="2.853740">
						<ele>37</ele>
						<time>2026-07-24T21:50:12Z</time>
					</trkpt>
					<trkpt lat="50.795070" lon="2.854020">
						<ele>36</ele>
						<time>2026-07-24T21:50:21Z</time>
					</trkpt>
					<trkpt lat="50.795250" lon="2.854190">
						<ele>36</ele>
						<time>2026-07-24T21:50:24Z</time>
					</trkpt>
					<trkpt lat="50.795350" lon="2.854430">
						<ele>36</ele>
						<time>2026-07-24T21:50:27Z</time>
					</trkpt>
					<trkpt lat="50.795480" lon="2.855010">
						<ele>35</ele>
						<time>2026-07-24T21:50:34Z</time>
					</trkpt>
					<trkpt lat="50.795570" lon="2.855220">
						<ele>35</ele>
						<time>2026-07-24T21:50:37Z</time>
					</trkpt>
					<trkpt lat="50.795950" lon="2.855800">
						<ele>35</ele>
						<time>2026-07-24T21:50:47Z</time>
					</trkpt>
					<trkpt lat="50.796250" lon="2.856120">
						<ele>34</ele>
						<time>2026-07-24T21:50:53Z</time>
					</trkpt>
					<trkpt lat="50.797200" lon="2.857370">
						<ele>33</ele>
						<time>2026-07-24T21:51:15Z</time>
					</trkpt>
					<trkpt lat="50.797370" lon="2.857710">
						<ele>33</ele>
						<time>2026-07-24T21:51:20Z</time>
					</trkpt>
					<trkpt lat="50.797560" lon="2.858420">
						<ele>33</ele>
						<time>2026-07-24T21:51:29Z</time>
					</trkpt>
					<trkpt lat="50.797950" lon="2.859230">
						<ele>31</ele>
						<time>2026-07-24T21:51:40Z</time>
					</trkpt>
					<trkpt lat="50.798290" lon="2.859730">
						<ele>29</ele>
						<time>2026-07-24T21:51:48Z</time>
					</trkpt>
					<trkpt lat="50.798680" lon="2.860160">
						<ele>29</ele>
						<time>2026-07-24T21:51:57Z</time>
					</trkpt>
					<trkpt lat="50.798100" lon="2.861900">
						<ele>30</ele>
						<time>2026-07-24T21:52:19Z</time>
					</trkpt>
					<trkpt lat="50.797090" lon="2.864380">
						<ele>30</ele>
						<time>2026-07-24T21:52:52Z</time>
					</trkpt>
					<trkpt lat="50.796530" lon="2.866100">
						<ele>33</ele>
						<time>2026-07-24T21:53:14Z</time>
					</trkpt>
					<trkpt lat="50.795700" lon="2.868250">
						<ele>38</ele>
						<time>2026-07-24T21:53:42Z</time>
					</trkpt>
					<trkpt lat="50.795290" lon="2.869560">
						<ele>42</ele>
						<time>2026-07-24T21:53:59Z</time>
					</trkpt>
					<trkpt lat="50.794710" lon="2.871270">
						<ele>47</ele>
						<time>2026-07-24T21:54:20Z</time>
					</trkpt>
					<trkpt lat="50.793360" lon="2.874810">
						<ele>61</ele>
						<time>2026-07-24T21:55:07Z</time>
					</trkpt>
					<trkpt lat="50.793080" lon="2.875200">
						<ele>60</ele>
						<time>2026-07-24T21:55:14Z</time>
					</trkpt>
					<trkpt lat="50.791940" lon="2.876060">
						<ele>68</ele>
						<time>2026-07-24T21:55:36Z</time>
					</trkpt>
					<trkpt lat="50.791190" lon="2.876660">
						<ele>68</ele>
						<time>2026-07-24T21:55:51Z</time>
					</trkpt>
					<trkpt lat="50.790220" lon="2.877470">
						<ele>66</ele>
						<time>2026-07-24T21:56:11Z</time>
					</trkpt>
					<trkpt lat="50.789970" lon="2.877710">
						<ele>65</ele>
						<time>2026-07-24T21:56:16Z</time>
					</trkpt>
					<trkpt lat="50.789130" lon="2.878530">
						<ele>68</ele>
						<time>2026-07-24T21:56:33Z</time>
					</trkpt>
					<trkpt lat="50.788310" lon="2.879410">
						<ele>69</ele>
						<time>2026-07-24T21:56:51Z</time>
					</trkpt>
					<trkpt lat="50.787050" lon="2.880910">
						<ele>73</ele>
						<time>2026-07-24T21:57:19Z</time>
					</trkpt>
					<trkpt lat="50.786300" lon="2.881530">
						<ele>78</ele>
						<time>2026-07-24T21:57:34Z</time>
					</trkpt>
					<trkpt lat="50.785650" lon="2.881890">
						<ele>81</ele>
						<time>2026-07-24T21:57:46Z</time>
					</trkpt>
					<trkpt lat="50.785570" lon="2.881960">
						<ele>81</ele>
						<time>2026-07-24T21:57:48Z</time>
					</trkpt>
					<trkpt lat="50.785350" lon="2.882040">
						<ele>81</ele>
						<time>2026-07-24T21:57:52Z</time>
					</trkpt>
					<trkpt lat="50.785630" lon="2.883270">
						<ele>80</ele>
						<time>2026-07-24T21:58:07Z</time>
					</trkpt>
					<trkpt lat="50.785680" lon="2.883680">
						<ele>79</ele>
						<time>2026-07-24T21:58:11Z</time>
					</trkpt>
					<trkpt lat="50.784970" lon="2.886810">
						<ele>72</ele>
						<time>2026-07-24T21:58:49Z</time>
					</trkpt>
					<trkpt lat="50.783740" lon="2.894120">
						<ele>55</ele>
						<time>2026-07-24T22:00:14Z</time>
					</trkpt>
					<trkpt lat="50.783640" lon="2.894980">
						<ele>54</ele>
						<time>2026-07-24T22:00:24Z</time>
					</trkpt>
					<trkpt lat="50.783660" lon="2.895520">
						<ele>54</ele>
						<time>2026-07-24T22:00:30Z</time>
					</trkpt>
					<trkpt lat="50.782520" lon="2.896460">
						<ele>53</ele>
						<time>2026-07-24T22:00:53Z</time>
					</trkpt>
					<trkpt lat="50.781940" lon="2.896850">
						<ele>54</ele>
						<time>2026-07-24T22:01:04Z</time>
					</trkpt>
					<trkpt lat="50.781080" lon="2.897580">
						<ele>55</ele>
						<time>2026-07-24T22:01:21Z</time>
					</trkpt>
					<trkpt lat="50.780570" lon="2.897900">
						<ele>56</ele>
						<time>2026-07-24T22:01:31Z</time>
					</trkpt>
					<trkpt lat="50.779990" lon="2.898470">
						<ele>56</ele>
						<time>2026-07-24T22:01:43Z</time>
					</trkpt>
					<trkpt lat="50.779500" lon="2.898840">
						<ele>56</ele>
						<time>2026-07-24T22:01:53Z</time>
					</trkpt>
					<trkpt lat="50.778630" lon="2.899410">
						<ele>55</ele>
						<time>2026-07-24T22:02:10Z</time>
					</trkpt>
					<trkpt lat="50.778220" lon="2.899460">
						<ele>55</ele>
						<time>2026-07-24T22:02:17Z</time>
					</trkpt>
					<trkpt lat="50.777730" lon="2.899620">
						<ele>56</ele>
						<time>2026-07-24T22:02:26Z</time>
					</trkpt>
					<trkpt lat="50.777450" lon="2.899740">
						<ele>56</ele>
						<time>2026-07-24T22:02:31Z</time>
					</trkpt>
					<trkpt lat="50.776920" lon="2.900060">
						<ele>54</ele>
						<time>2026-07-24T22:02:41Z</time>
					</trkpt>
					<trkpt lat="50.776740" lon="2.900120">
						<ele>53</ele>
						<time>2026-07-24T22:02:44Z</time>
					</trkpt>
					<trkpt lat="50.776390" lon="2.900180">
						<ele>53</ele>
						<time>2026-07-24T22:02:51Z</time>
					</trkpt>
					<trkpt lat="50.776120" lon="2.900270">
						<ele>52</ele>
						<time>2026-07-24T22:02:55Z</time>
					</trkpt>
					<trkpt lat="50.775880" lon="2.900480">
						<ele>52</ele>
						<time>2026-07-24T22:03:00Z</time>
					</trkpt>
					<trkpt lat="50.775760" lon="2.900690">
						<ele>51</ele>
						<time>2026-07-24T22:03:04Z</time>
					</trkpt>
					<trkpt lat="50.775390" lon="2.901710">
						<ele>48</ele>
						<time>2026-07-24T22:03:17Z</time>
					</trkpt>
					<trkpt lat="50.775070" lon="2.902340">
						<ele>46</ele>
						<time>2026-07-24T22:03:26Z</time>
					</trkpt>
					<trkpt lat="50.774540" lon="2.903120">
						<ele>44</ele>
						<time>2026-07-24T22:03:39Z</time>
					</trkpt>
					<trkpt lat="50.774150" lon="2.903510">
						<ele>43</ele>
						<time>2026-07-24T22:03:47Z</time>
					</trkpt>
					<trkpt lat="50.773930" lon="2.903570">
						<ele>43</ele>
						<time>2026-07-24T22:03:51Z</time>
					</trkpt>
					<trkpt lat="50.773640" lon="2.903550">
						<ele>44</ele>
						<time>2026-07-24T22:03:56Z</time>
					</trkpt>
					<trkpt lat="50.772930" lon="2.903230">
						<ele>47</ele>
						<time>2026-07-24T22:04:09Z</time>
					</trkpt>
					<trkpt lat="50.772260" lon="2.902780">
						<ele>49</ele>
						<time>2026-07-24T22:04:22Z</time>
					</trkpt>
					<trkpt lat="50.772030" lon="2.903180">
						<ele>49</ele>
						<time>2026-07-24T22:04:28Z</time>
					</trkpt>
					<trkpt lat="50.771630" lon="2.903580">
						<ele>48</ele>
						<time>2026-07-24T22:04:37Z</time>
					</trkpt>
					<trkpt lat="50.771290" lon="2.903980">
						<ele>49</ele>
						<time>2026-07-24T22:04:44Z</time>
					</trkpt>
					<trkpt lat="50.770210" lon="2.905550">
						<ele>47</ele>
						<time>2026-07-24T22:05:10Z</time>
					</trkpt>
					<trkpt lat="50.769480" lon="2.906440">
						<ele>49</ele>
						<time>2026-07-24T22:05:27Z</time>
					</trkpt>
					<trkpt lat="50.768930" lon="2.907030">
						<ele>49</ele>
						<time>2026-07-24T22:05:39Z</time>
					</trkpt>
					<trkpt lat="50.767980" lon="2.908320">
						<ele>48</ele>
						<time>2026-07-24T22:06:01Z</time>
					</trkpt>
					<trkpt lat="50.767320" lon="2.909440">
						<ele>48</ele>
						<time>2026-07-24T22:06:18Z</time>
					</trkpt>
					<trkpt lat="50.766500" lon="2.910420">
						<ele>47</ele>
						<time>2026-07-24T22:06:36Z</time>
					</trkpt>
					<trkpt lat="50.766200" lon="2.910890">
						<ele>47</ele>
						<time>2026-07-24T22:06:44Z</time>
					</trkpt>
					<trkpt lat="50.765870" lon="2.911290">
						<ele>46</ele>
						<time>2026-07-24T22:06:51Z</time>
					</trkpt>
					<trkpt lat="50.765790" lon="2.911360">
						<ele>46</ele>
						<time>2026-07-24T22:06:53Z</time>
					</trkpt>
					<trkpt lat="50.765710" lon="2.911370">
						<ele>46</ele>
						<time>2026-07-24T22:06:54Z</time>
					</trkpt>
					<trkpt lat="50.764410" lon="2.915320">
						<ele>39</ele>
						<time>2026-07-24T22:07:44Z</time>
					</trkpt>
					<trkpt lat="50.764150" lon="2.915160">
						<ele>39</ele>
						<time>2026-07-24T22:07:49Z</time>
					</trkpt>
					<trkpt lat="50.763550" lon="2.914680">
						<ele>38</ele>
						<time>2026-07-24T22:08:01Z</time>
					</trkpt>
					<trkpt lat="50.763450" lon="2.914690">
						<ele>37</ele>
						<time>2026-07-24T22:08:03Z</time>
					</trkpt>
					<trkpt lat="50.763240" lon="2.914890">
						<ele>37</ele>
						<time>2026-07-24T22:08:07Z</time>
					</trkpt>
					<trkpt lat="50.762750" lon="2.915660">
						<ele>35</ele>
						<time>2026-07-24T22:08:20Z</time>
					</trkpt>
					<trkpt lat="50.762350" lon="2.916420">
						<ele>34</ele>
						<time>2026-07-24T22:08:31Z</time>
					</trkpt>
					<trkpt lat="50.762290" lon="2.916480">
						<ele>34</ele>
						<time>2026-07-24T22:08:32Z</time>
					</trkpt>
					<trkpt lat="50.762220" lon="2.916510">
						<ele>34</ele>
						<time>2026-07-24T22:08:33Z</time>
					</trkpt>
					<trkpt lat="50.762440" lon="2.913520">
						<ele>36</ele>
						<time>2026-07-24T22:09:07Z</time>
					</trkpt>
					<trkpt lat="50.762440" lon="2.913040">
						<ele>35</ele>
						<time>2026-07-24T22:09:13Z</time>
					</trkpt>
					<trkpt lat="50.762390" lon="2.912270">
						<ele>35</ele>
						<time>2026-07-24T22:09:21Z</time>
					</trkpt>
					<trkpt lat="50.762400" lon="2.912070">
						<ele>35</ele>
						<time>2026-07-24T22:09:24Z</time>
					</trkpt>
					<trkpt lat="50.762440" lon="2.911800">
						<ele>36</ele>
						<time>2026-07-24T22:09:27Z</time>
					</trkpt>
					<trkpt lat="50.762670" lon="2.910850">
						<ele>36</ele>
						<time>2026-07-24T22:09:38Z</time>
					</trkpt>
					<trkpt lat="50.763020" lon="2.907500">
						<ele>42</ele>
						<time>2026-07-24T22:10:16Z</time>
					</trkpt>
					<trkpt lat="50.763000" lon="2.907210">
						<ele>42</ele>
						<time>2026-07-24T22:10:20Z</time>
					</trkpt>
					<trkpt lat="50.762560" lon="2.904940">
						<ele>40</ele>
						<time>2026-07-24T22:10:46Z</time>
					</trkpt>
					<trkpt lat="50.761390" lon="2.907260">
						<ele>34</ele>
						<time>2026-07-24T22:11:20Z</time>
					</trkpt>
					<trkpt lat="50.761250" lon="2.907510">
						<ele>33</ele>
						<time>2026-07-24T22:11:24Z</time>
					</trkpt>
					<trkpt lat="50.761100" lon="2.907710">
						<ele>33</ele>
						<time>2026-07-24T22:11:27Z</time>
					</trkpt>
					<trkpt lat="50.759980" lon="2.908850">
						<ele>30</ele>
						<time>2026-07-24T22:11:51Z</time>
					</trkpt>
					<trkpt lat="50.759420" lon="2.909340">
						<ele>27</ele>
						<time>2026-07-24T22:12:02Z</time>
					</trkpt>
					<trkpt lat="50.755490" lon="2.913250">
						<ele>19</ele>
						<time>2026-07-24T22:13:25Z</time>
					</trkpt>
					<trkpt lat="50.755230" lon="2.913450">
						<ele>19</ele>
						<time>2026-07-24T22:13:30Z</time>
					</trkpt>
					<trkpt lat="50.753990" lon="2.914220">
						<ele>20</ele>
						<time>2026-07-24T22:13:54Z</time>
					</trkpt>
					<trkpt lat="50.752960" lon="2.914940">
						<ele>23</ele>
						<time>2026-07-24T22:14:14Z</time>
					</trkpt>
					<trkpt lat="50.752410" lon="2.915390">
						<ele>23</ele>
						<time>2026-07-24T22:14:25Z</time>
					</trkpt>
					<trkpt lat="50.751320" lon="2.916170">
						<ele>24</ele>
						<time>2026-07-24T22:14:46Z</time>
					</trkpt>
					<trkpt lat="50.750510" lon="2.916700">
						<ele>24</ele>
						<time>2026-07-24T22:15:02Z</time>
					</trkpt>
					<trkpt lat="50.750890" lon="2.918300">
						<ele>22</ele>
						<time>2026-07-24T22:15:21Z</time>
					</trkpt>
					<trkpt lat="50.750930" lon="2.918680">
						<ele>22</ele>
						<time>2026-07-24T22:15:25Z</time>
					</trkpt>
					<trkpt lat="50.750920" lon="2.919100">
						<ele>23</ele>
						<time>2026-07-24T22:15:30Z</time>
					</trkpt>
					<trkpt lat="50.750250" lon="2.921720">
						<ele>22</ele>
						<time>2026-07-24T22:16:02Z</time>
					</trkpt>
					<trkpt lat="50.749840" lon="2.923180">
						<ele>23</ele>
						<time>2026-07-24T22:16:20Z</time>
					</trkpt>
					<trkpt lat="50.749730" lon="2.923410">
						<ele>23</ele>
						<time>2026-07-24T22:16:23Z</time>
					</trkpt>
					<trkpt lat="50.749580" lon="2.923640">
						<ele>23</ele>
						<time>2026-07-24T22:16:27Z</time>
					</trkpt>
					<trkpt lat="50.745210" lon="2.929390">
						<ele>19</ele>
						<time>2026-07-24T22:18:08Z</time>
					</trkpt>
					<trkpt lat="50.744970" lon="2.929920">
						<ele>19</ele>
						<time>2026-07-24T22:18:15Z</time>
					</trkpt>
					<trkpt lat="50.744590" lon="2.931340">
						<ele>19</ele>
						<time>2026-07-24T22:18:33Z</time>
					</trkpt>
					<trkpt lat="50.743680" lon="2.930650">
						<ele>20</ele>
						<time>2026-07-24T22:18:51Z</time>
					</trkpt>
					<trkpt lat="50.742160" lon="2.929310">
						<ele>18</ele>
						<time>2026-07-24T22:19:22Z</time>
					</trkpt>
					<trkpt lat="50.741780" lon="2.928940">
						<ele>18</ele>
						<time>2026-07-24T22:19:29Z</time>
					</trkpt>
					<trkpt lat="50.741330" lon="2.928390">
						<ele>19</ele>
						<time>2026-07-24T22:19:40Z</time>
					</trkpt>
					<trkpt lat="50.740430" lon="2.927120">
						<ele>18</ele>
						<time>2026-07-24T22:20:01Z</time>
					</trkpt>
					<trkpt lat="50.740290" lon="2.926840">
						<ele>18</ele>
						<time>2026-07-24T22:20:05Z</time>
					</trkpt>
					<trkpt lat="50.740250" lon="2.926680">
						<ele>17</ele>
						<time>2026-07-24T22:20:07Z</time>
					</trkpt>
					<trkpt lat="50.740200" lon="2.926090">
						<ele>17</ele>
						<time>2026-07-24T22:20:14Z</time>
					</trkpt>
					<trkpt lat="50.740170" lon="2.926020">
						<ele>17</ele>
						<time>2026-07-24T22:20:15Z</time>
					</trkpt>
					<trkpt lat="50.740000" lon="2.925900">
						<ele>17</ele>
						<time>2026-07-24T22:20:18Z</time>
					</trkpt>
					<trkpt lat="50.740150" lon="2.928110">
						<ele>18</ele>
						<time>2026-07-24T22:20:43Z</time>
					</trkpt>
					<trkpt lat="50.740260" lon="2.928800">
						<ele>17</ele>
						<time>2026-07-24T22:20:51Z</time>
					</trkpt>
					<trkpt lat="50.740160" lon="2.928810">
						<ele>17</ele>
						<time>2026-07-24T22:20:53Z</time>
					</trkpt>
					<trkpt lat="50.740120" lon="2.928740">
						<ele>18</ele>
						<time>2026-07-24T22:20:54Z</time>
					</trkpt>
					<trkpt lat="50.740000" lon="2.928200">
						<ele>18</ele>
						<time>2026-07-24T22:21:00Z</time>
					</trkpt>
					<trkpt lat="50.739850" lon="2.927920">
						<ele>18</ele>
						<time>2026-07-24T22:21:04Z</time>
					</trkpt>
					<trkpt lat="50.739000" lon="2.926680">
						<ele>18</ele>
						<time>2026-07-24T22:21:25Z</time>
					</trkpt>
					<trkpt lat="50.738250" lon="2.925360">
						<ele>17</ele>
						<time>2026-07-24T22:21:45Z</time>
					</trkpt>
					<trkpt lat="50.736300" lon="2.922520">
						<ele>15</ele>
						<time>2026-07-24T22:22:32Z</time>
					</trkpt>
					<trkpt lat="50.734780" lon="2.920530">
						<ele>17</ele>
						<time>2026-07-24T22:23:07Z</time>
					</trkpt>
					<trkpt lat="50.734100" lon="2.919750">
						<ele>18</ele>
						<time>2026-07-24T22:23:22Z</time>
					</trkpt>
					<trkpt lat="50.733600" lon="2.919230">
						<ele>17</ele>
						<time>2026-07-24T22:23:33Z</time>
					</trkpt>
					<trkpt lat="50.732600" lon="2.918290">
						<ele>16</ele>
						<time>2026-07-24T22:23:54Z</time>
					</trkpt>
					<trkpt lat="50.731750" lon="2.917600">
						<ele>15</ele>
						<time>2026-07-24T22:24:11Z</time>
					</trkpt>
					<trkpt lat="50.731130" lon="2.917150">
						<ele>15</ele>
						<time>2026-07-24T22:24:23Z</time>
					</trkpt>
					<trkpt lat="50.728060" lon="2.915160">
						<ele>17</ele>
						<time>2026-07-24T22:25:22Z</time>
					</trkpt>
					<trkpt lat="50.726870" lon="2.914500">
						<ele>17</ele>
						<time>2026-07-24T22:25:44Z</time>
					</trkpt>
					<trkpt lat="50.726580" lon="2.914390">
						<ele>17</ele>
						<time>2026-07-24T22:25:50Z</time>
					</trkpt>
					<trkpt lat="50.726370" lon="2.914380">
						<ele>17</ele>
						<time>2026-07-24T22:25:53Z</time>
					</trkpt>
					<trkpt lat="50.725710" lon="2.914920">
						<ele>17</ele>
						<time>2026-07-24T22:26:07Z</time>
					</trkpt>
					<trkpt lat="50.725210" lon="2.915370">
						<ele>17</ele>
						<time>2026-07-24T22:26:17Z</time>
					</trkpt>
					<trkpt lat="50.723920" lon="2.916620">
						<ele>17</ele>
						<time>2026-07-24T22:26:44Z</time>
					</trkpt>
					<trkpt lat="50.722570" lon="2.917770">
						<ele>16</ele>
						<time>2026-07-24T22:27:11Z</time>
					</trkpt>
					<trkpt lat="50.721950" lon="2.918350">
						<ele>17</ele>
						<time>2026-07-24T22:27:24Z</time>
					</trkpt>
					<trkpt lat="50.720650" lon="2.919670">
						<ele>16</ele>
						<time>2026-07-24T22:27:51Z</time>
					</trkpt>
					<trkpt lat="50.720250" lon="2.919930">
						<ele>16</ele>
						<time>2026-07-24T22:27:59Z</time>
					</trkpt>
					<trkpt lat="50.719770" lon="2.920320">
						<ele>15</ele>
						<time>2026-07-24T22:28:09Z</time>
					</trkpt>
					<trkpt lat="50.715770" lon="2.923910">
						<ele>14</ele>
						<time>2026-07-24T22:29:30Z</time>
					</trkpt>
					<trkpt lat="50.715140" lon="2.924380">
						<ele>14</ele>
						<time>2026-07-24T22:29:43Z</time>
					</trkpt>
					<trkpt lat="50.714760" lon="2.924720">
						<ele>14</ele>
						<time>2026-07-24T22:29:51Z</time>
					</trkpt>
					<trkpt lat="50.714760" lon="2.924830">
						<ele>14</ele>
						<time>2026-07-24T22:29:52Z</time>
					</trkpt>
					<trkpt lat="50.714530" lon="2.925630">
						<ele>13</ele>
						<time>2026-07-24T22:30:02Z</time>
					</trkpt>
					<trkpt lat="50.712960" lon="2.929650">
						<ele>12</ele>
						<time>2026-07-24T22:30:55Z</time>
					</trkpt>
					<trkpt lat="50.712810" lon="2.930250">
						<ele>13</ele>
						<time>2026-07-24T22:31:02Z</time>
					</trkpt>
					<trkpt lat="50.712730" lon="2.930810">
						<ele>15</ele>
						<time>2026-07-24T22:31:09Z</time>
					</trkpt>
					<trkpt lat="50.712610" lon="2.932020">
						<ele>18</ele>
						<time>2026-07-24T22:31:22Z</time>
					</trkpt>
					<trkpt lat="50.712530" lon="2.932260">
						<ele>19</ele>
						<time>2026-07-24T22:31:26Z</time>
					</trkpt>
					<trkpt lat="50.712500" lon="2.932310">
						<ele>19</ele>
						<time>2026-07-24T22:31:26Z</time>
					</trkpt>
					<trkpt lat="50.712350" lon="2.932300">
						<ele>18</ele>
						<time>2026-07-24T22:31:29Z</time>
					</trkpt>
					<trkpt lat="50.711860" lon="2.932400">
						<ele>17</ele>
						<time>2026-07-24T22:31:38Z</time>
					</trkpt>
					<trkpt lat="50.711130" lon="2.932650">
						<ele>17</ele>
						<time>2026-07-24T22:31:51Z</time>
					</trkpt>
					<trkpt lat="50.711030" lon="2.932650">
						<ele>17</ele>
						<time>2026-07-24T22:31:53Z</time>
					</trkpt>
					<trkpt lat="50.711010" lon="2.932570">
						<ele>17</ele>
						<time>2026-07-24T22:31:54Z</time>
					</trkpt>
					<trkpt lat="50.710940" lon="2.932530">
						<ele>17</ele>
						<time>2026-07-24T22:31:55Z</time>
					</trkpt>
					<trkpt lat="50.710880" lon="2.932590">
						<ele>17</ele>
						<time>2026-07-24T22:31:56Z</time>
					</trkpt>
					<trkpt lat="50.710870" lon="2.932650">
						<ele>17</ele>
						<time>2026-07-24T22:31:57Z</time>
					</trkpt>
					<trkpt lat="50.710570" lon="2.932580">
						<ele>18</ele>
						<time>2026-07-24T22:32:03Z</time>
					</trkpt>
					<trkpt lat="50.708270" lon="2.930520">
						<ele>16</ele>
						<time>2026-07-24T22:32:50Z</time>
					</trkpt>
					<trkpt lat="50.707150" lon="2.929090">
						<ele>17</ele>
						<time>2026-07-24T22:33:15Z</time>
					</trkpt>
					<trkpt lat="50.706960" lon="2.928800">
						<ele>16</ele>
						<time>2026-07-24T22:33:20Z</time>
					</trkpt>
					<trkpt lat="50.706500" lon="2.927990">
						<ele>14</ele>
						<time>2026-07-24T22:33:32Z</time>
					</trkpt>
					<trkpt lat="50.706400" lon="2.927750">
						<ele>14</ele>
						<time>2026-07-24T22:33:35Z</time>
					</trkpt>
					<trkpt lat="50.706360" lon="2.927740">
						<ele>14</ele>
						<time>2026-07-24T22:33:36Z</time>
					</trkpt>
					<trkpt lat="50.706170" lon="2.927320">
						<ele>14</ele>
						<time>2026-07-24T22:33:42Z</time>
					</trkpt>
					<trkpt lat="50.705540" lon="2.926290">
						<ele>14</ele>
						<time>2026-07-24T22:33:58Z</time>
					</trkpt>
					<trkpt lat="50.705270" lon="2.925960">
						<ele>14</ele>
						<time>2026-07-24T22:34:04Z</time>
					</trkpt>
					<trkpt lat="50.703510" lon="2.924240">
						<ele>12</ele>
						<time>2026-07-24T22:34:41Z</time>
					</trkpt>
					<trkpt lat="50.702710" lon="2.923000">
						<ele>14</ele>
						<time>2026-07-24T22:35:01Z</time>
					</trkpt>
					<trkpt lat="50.702320" lon="2.921960">
						<ele>15</ele>
						<time>2026-07-24T22:35:15Z</time>
					</trkpt>
					<trkpt lat="50.702160" lon="2.921640">
						<ele>16</ele>
						<time>2026-07-24T22:35:19Z</time>
					</trkpt>
					<trkpt lat="50.701760" lon="2.921110">
						<ele>17</ele>
						<time>2026-07-24T22:35:28Z</time>
					</trkpt>
					<trkpt lat="50.701230" lon="2.920470">
						<ele>15</ele>
						<time>2026-07-24T22:35:40Z</time>
					</trkpt>
					<trkpt lat="50.700710" lon="2.919950">
						<ele>13</ele>
						<time>2026-07-24T22:35:51Z</time>
					</trkpt>
					<trkpt lat="50.700580" lon="2.919730">
						<ele>14</ele>
						<time>2026-07-24T22:35:55Z</time>
					</trkpt>
					<trkpt lat="50.700010" lon="2.918360">
						<ele>14</ele>
						<time>2026-07-24T22:36:13Z</time>
					</trkpt>
					<trkpt lat="50.699850" lon="2.918080">
						<ele>14</ele>
						<time>2026-07-24T22:36:17Z</time>
					</trkpt>
					<trkpt lat="50.699630" lon="2.917810">
						<ele>14</ele>
						<time>2026-07-24T22:36:22Z</time>
					</trkpt>
					<trkpt lat="50.699090" lon="2.917330">
						<ele>14</ele>
						<time>2026-07-24T22:36:33Z</time>
					</trkpt>
					<trkpt lat="50.698310" lon="2.916420">
						<ele>15</ele>
						<time>2026-07-24T22:36:51Z</time>
					</trkpt>
					<trkpt lat="50.698250" lon="2.916270">
						<ele>15</ele>
						<time>2026-07-24T22:36:53Z</time>
					</trkpt>
					<trkpt lat="50.697280" lon="2.915140">
						<ele>16</ele>
						<time>2026-07-24T22:37:14Z</time>
					</trkpt>
					<trkpt lat="50.697230" lon="2.915120">
						<ele>16</ele>
						<time>2026-07-24T22:37:15Z</time>
					</trkpt>
					<trkpt lat="50.696900" lon="2.914750">
						<ele>15</ele>
						<time>2026-07-24T22:37:22Z</time>
					</trkpt>
					<trkpt lat="50.695770" lon="2.913750">
						<ele>16</ele>
						<time>2026-07-24T22:37:45Z</time>
					</trkpt>
					<trkpt lat="50.695020" lon="2.913170">
						<ele>15</ele>
						<time>2026-07-24T22:38:00Z</time>
					</trkpt>
					<trkpt lat="50.694240" lon="2.912420">
						<ele>18</ele>
						<time>2026-07-24T22:38:16Z</time>
					</trkpt>
					<trkpt lat="50.693870" lon="2.913080">
						<ele>18</ele>
						<time>2026-07-24T22:38:26Z</time>
					</trkpt>
					<trkpt lat="50.693640" lon="2.913420">
						<ele>18</ele>
						<time>2026-07-24T22:38:32Z</time>
					</trkpt>
					<trkpt lat="50.693990" lon="2.914050">
						<ele>18</ele>
						<time>2026-07-24T22:38:41Z</time>
					</trkpt>
					<trkpt lat="50.693670" lon="2.914570">
						<ele>19</ele>
						<time>2026-07-24T22:38:49Z</time>
					</trkpt>
					<trkpt lat="50.693920" lon="2.914960">
						<ele>19</ele>
						<time>2026-07-24T22:38:56Z</time>
					</trkpt>
					<trkpt lat="50.693320" lon="2.915920">
						<ele>18</ele>
						<time>2026-07-24T22:39:11Z</time>
					</trkpt>
					<trkpt lat="50.693250" lon="2.915810">
						<ele>18</ele>
						<time>2026-07-24T22:39:13Z</time>
					</trkpt>
					</trkseg>
				</trk>
			</gpx>