<?xml version="1.0" encoding="UTF-8" ?>
<gpx version="1.1" xmlns:xsi="http://www.w3.org/2001/XMLSchema-instance"
    xmlns="http://www.topografix.com/GPX/1/1"
    xsi:schemaLocation="http://www.topografix.com/GPX/1/1 http://www.topografix.com/GPX/1/1/gpx.xsd"
    creator="Openrunner - https://www.openrunner.com" >
                <wpt lat="50.776730" lon="2.817950">
                        <ele>0</ele>
                        <name><![CDATA[RAVITO]]></name>
                        <desc><![CDATA[]]></desc>
                    <sym>1</sym>
                </wpt>
            
                <wpt lat="50.776730" lon="2.817950">
                        <ele>0</ele>
                        <name><![CDATA[RAVITO]]></name>
                        <desc><![CDATA[]]></desc>
                    <sym>1</sym>
                </wpt>
            
                <wpt lat="50.776730" lon="2.817950">
                        <ele>0</ele>
                        <name><![CDATA[RAVITO]]></name>
                        <desc><![CDATA[]]></desc>
                    <sym>1</sym>
                </wpt>
            
                <wpt lat="50.776730" lon="2.817950">
                        <ele>0</ele>
                        <name><![CDATA[RAVITO]]></name>
                        <desc><![CDATA[]]></desc>
                    <sym>1</sym>
                </wpt>
            	<trk>
	                   <name>UCH ROUTE 26KM AOÛT 2026-24067590</name>
						<trkseg>
					<trkpt lat="50.693210" lon="2.915740">
						<ele>18</ele>
						<time>2026-07-24T20:11:30Z</time>
					</trkpt>
					<trkpt lat="50.693080" lon="2.915540">
						<ele>19</ele>
						<time>2026-07-24T20:11:33Z</time>
					</trkpt>
					<trkpt lat="50.692990" lon="2.915630">
						<ele>18</ele>
						<time>2026-07-24T20:11:35Z</time>
					</trkpt>
					<trkpt lat="50.692740" lon="2.916000">
						<ele>17</ele>
						<time>2026-07-24T20:11:41Z</time>
					</trkpt>
					<trkpt lat="50.692360" lon="2.915500">
						<ele>18</ele>
						<time>2026-07-24T20:11:50Z</time>
					</trkpt>
					<trkpt lat="50.692180" lon="2.915750">
						<ele>18</ele>
						<time>2026-07-24T20:11:54Z</time>
					</trkpt>
					<trkpt lat="50.692110" lon="2.915750">
						<ele>18</ele>
						<time>2026-07-24T20:11:56Z</time>
					</trkpt>
					<trkpt lat="50.692080" lon="2.915730">
						<ele>18</ele>
						<time>2026-07-24T20:11:56Z</time>
					</trkpt>
					<trkpt lat="50.691830" lon="2.915440">
						<ele>18</ele>
						<time>2026-07-24T20:12:02Z</time>
					</trkpt>
					<trkpt lat="50.691500" lon="2.914850">
						<ele>19</ele>
						<time>2026-07-24T20:12:11Z</time>
					</trkpt>
					<trkpt lat="50.691660" lon="2.914520">
						<ele>18</ele>
						<time>2026-07-24T20:12:15Z</time>
					</trkpt>
					<trkpt lat="50.692030" lon="2.913910">
						<ele>18</ele>
						<time>2026-07-24T20:12:25Z</time>
					</trkpt>
					<trkpt lat="50.692160" lon="2.913730">
						<ele>18</ele>
						<time>2026-07-24T20:12:28Z</time>
					</trkpt>
					<trkpt lat="50.692230" lon="2.913680">
						<ele>18</ele>
						<time>2026-07-24T20:12:29Z</time>
					</trkpt>
					<trkpt lat="50.692440" lon="2.913610">
						<ele>18</ele>
						<time>2026-07-24T20:12:33Z</time>
					</trkpt>
					<trkpt lat="50.692500" lon="2.913570">
						<ele>18</ele>
						<time>2026-07-24T20:12:34Z</time>
					</trkpt>
					<trkpt lat="50.692580" lon="2.913450">
						<ele>18</ele>
						<time>2026-07-24T20:12:36Z</time>
					</trkpt>
					<trkpt lat="50.693050" lon="2.912590">
						<ele>18</ele>
						<time>2026-07-24T20:12:49Z</time>
					</trkpt>
					<trkpt lat="50.693070" lon="2.912500">
						<ele>18</ele>
						<time>2026-07-24T20:12:50Z</time>
					</trkpt>
					<trkpt lat="50.693810" lon="2.912310">
						<ele>18</ele>
						<time>2026-07-24T20:13:03Z</time>
					</trkpt>
					<trkpt lat="50.693930" lon="2.912310">
						<ele>18</ele>
						<time>2026-07-24T20:13:05Z</time>
					</trkpt>
					<trkpt lat="50.694240" lon="2.912420">
						<ele>18</ele>
						<time>2026-07-24T20:13:11Z</time>
					</trkpt>
					<trkpt lat="50.694650" lon="2.911600">
						<ele>17</ele>
						<time>2026-07-24T20:13:23Z</time>
					</trkpt>
					<trkpt lat="50.694710" lon="2.911340">
						<ele>16</ele>
						<time>2026-07-24T20:13:26Z</time>
					</trkpt>
					<trkpt lat="50.694800" lon="2.910630">
						<ele>14</ele>
						<time>2026-07-24T20:13:34Z</time>
					</trkpt>
					<trkpt lat="50.694850" lon="2.910420">
						<ele>14</ele>
						<time>2026-07-24T20:13:37Z</time>
					</trkpt>
					<trkpt lat="50.694920" lon="2.910260">
						<ele>14</ele>
						<time>2026-07-24T20:13:39Z</time>
					</trkpt>
					<trkpt lat="50.695330" lon="2.909610">
						<ele>14</ele>
						<time>2026-07-24T20:13:49Z</time>
					</trkpt>
					<trkpt lat="50.696030" lon="2.908560">
						<ele>12</ele>
						<time>2026-07-24T20:14:06Z</time>
					</trkpt>
					<trkpt lat="50.697190" lon="2.906870">
						<ele>13</ele>
						<time>2026-07-24T20:14:34Z</time>
					</trkpt>
					<trkpt lat="50.698580" lon="2.904760">
						<ele>13</ele>
						<time>2026-07-24T20:15:09Z</time>
					</trkpt>
					<trkpt lat="50.699560" lon="2.903320">
						<ele>13</ele>
						<time>2026-07-24T20:15:33Z</time>
					</trkpt>
					<trkpt lat="50.701470" lon="2.901570">
						<ele>15</ele>
						<time>2026-07-24T20:16:12Z</time>
					</trkpt>
					<trkpt lat="50.705390" lon="2.898040">
						<ele>16</ele>
						<time>2026-07-24T20:17:32Z</time>
					</trkpt>
					<trkpt lat="50.705690" lon="2.897710">
						<ele>17</ele>
						<time>2026-07-24T20:17:39Z</time>
					</trkpt>
					<trkpt lat="50.707030" lon="2.895990">
						<ele>17</ele>
						<time>2026-07-24T20:18:09Z</time>
					</trkpt>
					<trkpt lat="50.708420" lon="2.894270">
						<ele>17</ele>
						<time>2026-07-24T20:18:41Z</time>
					</trkpt>
					<trkpt lat="50.708460" lon="2.894240">
						<ele>17</ele>
						<time>2026-07-24T20:18:42Z</time>
					</trkpt>
					<trkpt lat="50.708540" lon="2.893850">
						<ele>18</ele>
						<time>2026-07-24T20:18:46Z</time>
					</trkpt>
					<trkpt lat="50.708630" lon="2.893800">
						<ele>18</ele>
						<time>2026-07-24T20:18:48Z</time>
					</trkpt>
					<trkpt lat="50.708730" lon="2.893810">
						<ele>18</ele>
						<time>2026-07-24T20:18:50Z</time>
					</trkpt>
					<trkpt lat="50.708800" lon="2.893760">
						<ele>18</ele>
						<time>2026-07-24T20:18:51Z</time>
					</trkpt>
					<trkpt lat="50.709040" lon="2.893540">
						<ele>18</ele>
						<time>2026-07-24T20:18:56Z</time>
					</trkpt>
					<trkpt lat="50.709600" lon="2.893150">
						<ele>18</ele>
						<time>2026-07-24T20:19:07Z</time>
					</trkpt>
					<trkpt lat="50.712350" lon="2.891050">
						<ele>19</ele>
						<time>2026-07-24T20:20:01Z</time>
					</trkpt>
					<trkpt lat="50.713340" lon="2.890360">
						<ele>21</ele>
						<time>2026-07-24T20:20:21Z</time>
					</trkpt>
					<trkpt lat="50.714780" lon="2.889250">
						<ele>18</ele>
						<time>2026-07-24T20:20:49Z</time>
					</trkpt>
					<trkpt lat="50.713580" lon="2.886650">
						<ele>18</ele>
						<time>2026-07-24T20:21:25Z</time>
					</trkpt>
					<trkpt lat="50.713410" lon="2.886310">
						<ele>18</ele>
						<time>2026-07-24T20:21:30Z</time>
					</trkpt>
					<trkpt lat="50.713210" lon="2.885610">
						<ele>17</ele>
						<time>2026-07-24T20:21:39Z</time>
					</trkpt>
					<trkpt lat="50.713110" lon="2.884900">
						<ele>17</ele>
						<time>2026-07-24T20:21:47Z</time>
					</trkpt>
					<trkpt lat="50.711260" lon="2.884640">
						<ele>19</ele>
						<time>2026-07-24T20:22:20Z</time>
					</trkpt>
					<trkpt lat="50.711130" lon="2.884600">
						<ele>18</ele>
						<time>2026-07-24T20:22:22Z</time>
					</trkpt>
					<trkpt lat="50.710980" lon="2.884400">
						<ele>19</ele>
						<time>2026-07-24T20:22:26Z</time>
					</trkpt>
					<trkpt lat="50.710870" lon="2.884150">
						<ele>19</ele>
						<time>2026-07-24T20:22:29Z</time>
					</trkpt>
					<trkpt lat="50.710810" lon="2.884080">
						<ele>19</ele>
						<time>2026-07-24T20:22:31Z</time>
					</trkpt>
					<trkpt lat="50.710550" lon="2.883910">
						<ele>19</ele>
						<time>2026-07-24T20:22:36Z</time>
					</trkpt>
					<trkpt lat="50.710380" lon="2.883610">
						<ele>18</ele>
						<time>2026-07-24T20:22:40Z</time>
					</trkpt>
					<trkpt lat="50.709840" lon="2.881440">
						<ele>18</ele>
						<time>2026-07-24T20:23:06Z</time>
					</trkpt>
					<trkpt lat="50.709780" lon="2.880430">
						<ele>17</ele>
						<time>2026-07-24T20:23:18Z</time>
					</trkpt>
					<trkpt lat="50.709710" lon="2.879940">
						<ele>18</ele>
						<time>2026-07-24T20:23:24Z</time>
					</trkpt>
					<trkpt lat="50.709460" lon="2.879210">
						<ele>19</ele>
						<time>2026-07-24T20:23:33Z</time>
					</trkpt>
					<trkpt lat="50.708020" lon="2.875970">
						<ele>17</ele>
						<time>2026-07-24T20:24:18Z</time>
					</trkpt>
					<trkpt lat="50.707910" lon="2.875610">
						<ele>17</ele>
						<time>2026-07-24T20:24:22Z</time>
					</trkpt>
					<trkpt lat="50.707780" lon="2.874900">
						<ele>17</ele>
						<time>2026-07-24T20:24:30Z</time>
					</trkpt>
					<trkpt lat="50.707720" lon="2.874360">
						<ele>17</ele>
						<time>2026-07-24T20:24:37Z</time>
					</trkpt>
					<trkpt lat="50.707700" lon="2.873100">
						<ele>17</ele>
						<time>2026-07-24T20:24:51Z</time>
					</trkpt>
					<trkpt lat="50.707100" lon="2.868800">
						<ele>17</ele>
						<time>2026-07-24T20:25:40Z</time>
					</trkpt>
					<trkpt lat="50.706990" lon="2.868440">
						<ele>18</ele>
						<time>2026-07-24T20:25:45Z</time>
					</trkpt>
					<trkpt lat="50.706670" lon="2.867800">
						<ele>17</ele>
						<time>2026-07-24T20:25:54Z</time>
					</trkpt>
					<trkpt lat="50.706200" lon="2.867000">
						<ele>17</ele>
						<time>2026-07-24T20:26:06Z</time>
					</trkpt>
					<trkpt lat="50.704870" lon="2.864560">
						<ele>16</ele>
						<time>2026-07-24T20:26:43Z</time>
					</trkpt>
					<trkpt lat="50.704410" lon="2.863760">
						<ele>16</ele>
						<time>2026-07-24T20:26:55Z</time>
					</trkpt>
					<trkpt lat="50.703640" lon="2.862560">
						<ele>15</ele>
						<time>2026-07-24T20:27:14Z</time>
					</trkpt>
					<trkpt lat="50.702740" lon="2.861400">
						<ele>15</ele>
						<time>2026-07-24T20:27:35Z</time>
					</trkpt>
					<trkpt lat="50.701840" lon="2.860460">
						<ele>17</ele>
						<time>2026-07-24T20:27:54Z</time>
					</trkpt>
					<trkpt lat="50.702100" lon="2.860050">
						<ele>17</ele>
						<time>2026-07-24T20:28:00Z</time>
					</trkpt>
					<trkpt lat="50.703210" lon="2.857970">
						<ele>17</ele>
						<time>2026-07-24T20:28:31Z</time>
					</trkpt>
					<trkpt lat="50.703730" lon="2.857170">
						<ele>16</ele>
						<time>2026-07-24T20:28:44Z</time>
					</trkpt>
					<trkpt lat="50.703990" lon="2.856830">
						<ele>15</ele>
						<time>2026-07-24T20:28:50Z</time>
					</trkpt>
					<trkpt lat="50.704410" lon="2.856550">
						<ele>15</ele>
						<time>2026-07-24T20:28:58Z</time>
					</trkpt>
					<trkpt lat="50.706000" lon="2.854560">
						<ele>17</ele>
						<time>2026-07-24T20:29:34Z</time>
					</trkpt>
					<trkpt lat="50.707780" lon="2.852450">
						<ele>17</ele>
						<time>2026-07-24T20:30:14Z</time>
					</trkpt>
					<trkpt lat="50.709480" lon="2.850840">
						<ele>17</ele>
						<time>2026-07-24T20:30:49Z</time>
					</trkpt>
					<trkpt lat="50.710320" lon="2.849710">
						<ele>18</ele>
						<time>2026-07-24T20:31:09Z</time>
					</trkpt>
					<trkpt lat="50.710810" lon="2.849170">
						<ele>17</ele>
						<time>2026-07-24T20:31:19Z</time>
					</trkpt>
					<trkpt lat="50.710900" lon="2.849040">
						<ele>17</ele>
						<time>2026-07-24T20:31:22Z</time>
					</trkpt>
					<trkpt lat="50.713530" lon="2.846680">
						<ele>18</ele>
						<time>2026-07-24T20:32:15Z</time>
					</trkpt>
					<trkpt lat="50.713730" lon="2.846380">
						<ele>18</ele>
						<time>2026-07-24T20:32:20Z</time>
					</trkpt>
					<trkpt lat="50.714050" lon="2.845700">
						<ele>18</ele>
						<time>2026-07-24T20:32:30Z</time>
					</trkpt>
					<trkpt lat="50.714540" lon="2.844540">
						<ele>17</ele>
						<time>2026-07-24T20:32:46Z</time>
					</trkpt>
					<trkpt lat="50.714950" lon="2.843700">
						<ele>16</ele>
						<time>2026-07-24T20:32:57Z</time>
					</trkpt>
					<trkpt lat="50.716690" lon="2.841100">
						<ele>16</ele>
						<time>2026-07-24T20:33:40Z</time>
					</trkpt>
					<trkpt lat="50.716880" lon="2.840870">
						<ele>16</ele>
						<time>2026-07-24T20:33:44Z</time>
					</trkpt>
					<trkpt lat="50.718640" lon="2.839670">
						<ele>17</ele>
						<time>2026-07-24T20:34:18Z</time>
					</trkpt>
					<trkpt lat="50.719260" lon="2.839450">
						<ele>18</ele>
						<time>2026-07-24T20:34:30Z</time>
					</trkpt>
					<trkpt lat="50.719540" lon="2.839410">
						<ele>18</ele>
						<time>2026-07-24T20:34:35Z</time>
					</trkpt>
					<trkpt lat="50.719760" lon="2.839450">
						<ele>17</ele>
						<time>2026-07-24T20:34:39Z</time>
					</trkpt>
					<trkpt lat="50.720550" lon="2.839900">
						<ele>17</ele>
						<time>2026-07-24T20:34:54Z</time>
					</trkpt>
					<trkpt lat="50.721370" lon="2.840480">
						<ele>17</ele>
						<time>2026-07-24T20:35:10Z</time>
					</trkpt>
					<trkpt lat="50.721730" lon="2.840590">
						<ele>18</ele>
						<time>2026-07-24T20:35:16Z</time>
					</trkpt>
					<trkpt lat="50.722270" lon="2.840570">
						<ele>18</ele>
						<time>2026-07-24T20:35:26Z</time>
					</trkpt>
					<trkpt lat="50.722760" lon="2.840480">
						<ele>18</ele>
						<time>2026-07-24T20:35:35Z</time>
					</trkpt>
					<trkpt lat="50.723080" lon="2.840330">
						<ele>18</ele>
						<time>2026-07-24T20:35:41Z</time>
					</trkpt>
					<trkpt lat="50.723530" lon="2.839970">
						<ele>17</ele>
						<time>2026-07-24T20:35:49Z</time>
					</trkpt>
					<trkpt lat="50.725060" lon="2.838210">
						<ele>17</ele>
						<time>2026-07-24T20:36:23Z</time>
					</trkpt>
					<trkpt lat="50.725620" lon="2.837500">
						<ele>18</ele>
						<time>2026-07-24T20:36:36Z</time>
					</trkpt>
					<trkpt lat="50.727400" lon="2.835370">
						<ele>18</ele>
						<time>2026-07-24T20:37:16Z</time>
					</trkpt>
					<trkpt lat="50.728600" lon="2.837710">
						<ele>19</ele>
						<time>2026-07-24T20:37:50Z</time>
					</trkpt>
					<trkpt lat="50.729330" lon="2.839730">
						<ele>18</ele>
						<time>2026-07-24T20:38:16Z</time>
					</trkpt>
					<trkpt lat="50.730080" lon="2.842430">
						<ele>17</ele>
						<time>2026-07-24T20:38:49Z</time>
					</trkpt>
					<trkpt lat="50.730590" lon="2.843740">
						<ele>18</ele>
						<time>2026-07-24T20:39:06Z</time>
					</trkpt>
					<trkpt lat="50.730870" lon="2.845420">
						<ele>19</ele>
						<time>2026-07-24T20:39:26Z</time>
					</trkpt>
					<trkpt lat="50.731020" lon="2.845950">
						<ele>18</ele>
						<time>2026-07-24T20:39:32Z</time>
					</trkpt>
					<trkpt lat="50.731640" lon="2.845460">
						<ele>19</ele>
						<time>2026-07-24T20:39:45Z</time>
					</trkpt>
					<trkpt lat="50.732400" lon="2.844820">
						<ele>18</ele>
						<time>2026-07-24T20:40:00Z</time>
					</trkpt>
					<trkpt lat="50.733510" lon="2.843910">
						<ele>19</ele>
						<time>2026-07-24T20:40:22Z</time>
					</trkpt>
					<trkpt lat="50.733600" lon="2.844360">
						<ele>19</ele>
						<time>2026-07-24T20:40:28Z</time>
					</trkpt>
					<trkpt lat="50.733680" lon="2.845290">
						<ele>18</ele>
						<time>2026-07-24T20:40:38Z</time>
					</trkpt>
					<trkpt lat="50.733770" lon="2.845610">
						<ele>18</ele>
						<time>2026-07-24T20:40:42Z</time>
					</trkpt>
					<trkpt lat="50.734090" lon="2.846600">
						<ele>20</ele>
						<time>2026-07-24T20:40:55Z</time>
					</trkpt>
					<trkpt lat="50.734670" lon="2.847780">
						<ele>19</ele>
						<time>2026-07-24T20:41:11Z</time>
					</trkpt>
					<trkpt lat="50.734950" lon="2.848630">
						<ele>19</ele>
						<time>2026-07-24T20:41:22Z</time>
					</trkpt>
					<trkpt lat="50.735230" lon="2.849790">
						<ele>18</ele>
						<time>2026-07-24T20:41:36Z</time>
					</trkpt>
					<trkpt lat="50.735230" lon="2.850270">
						<ele>19</ele>
						<time>2026-07-24T20:41:42Z</time>
					</trkpt>
					<trkpt lat="50.735060" lon="2.850910">
						<ele>20</ele>
						<time>2026-07-24T20:41:49Z</time>
					</trkpt>
					<trkpt lat="50.734840" lon="2.852070">
						<ele>20</ele>
						<time>2026-07-24T20:42:03Z</time>
					</trkpt>
					<trkpt lat="50.734860" lon="2.852330">
						<ele>21</ele>
						<time>2026-07-24T20:42:06Z</time>
					</trkpt>
					<trkpt lat="50.734950" lon="2.852600">
						<ele>21</ele>
						<time>2026-07-24T20:42:10Z</time>
					</trkpt>
					<trkpt lat="50.734990" lon="2.852950">
						<ele>21</ele>
						<time>2026-07-24T20:42:14Z</time>
					</trkpt>
					<trkpt lat="50.735010" lon="2.853440">
						<ele>21</ele>
						<time>2026-07-24T20:42:19Z</time>
					</trkpt>
					<trkpt lat="50.734990" lon="2.854240">
						<ele>20</ele>
						<time>2026-07-24T20:42:28Z</time>
					</trkpt>
					<trkpt lat="50.735120" lon="2.854790">
						<ele>20</ele>
						<time>2026-07-24T20:42:35Z</time>
					</trkpt>
					<trkpt lat="50.735850" lon="2.857170">
						<ele>17</ele>
						<time>2026-07-24T20:43:04Z</time>
					</trkpt>
					<trkpt lat="50.736560" lon="2.859750">
						<ele>21</ele>
						<time>2026-07-24T20:43:36Z</time>
					</trkpt>
					<trkpt lat="50.736940" lon="2.860970">
						<ele>20</ele>
						<time>2026-07-24T20:43:51Z</time>
					</trkpt>
					<trkpt lat="50.737520" lon="2.862320">
						<ele>19</ele>
						<time>2026-07-24T20:44:10Z</time>
					</trkpt>
					<trkpt lat="50.738210" lon="2.863550">
						<ele>21</ele>
						<time>2026-07-24T20:44:28Z</time>
					</trkpt>
					<trkpt lat="50.739480" lon="2.865930">
						<ele>18</ele>
						<time>2026-07-24T20:45:03Z</time>
					</trkpt>
					<trkpt lat="50.739840" lon="2.866900">
						<ele>19</ele>
						<time>2026-07-24T20:45:16Z</time>
					</trkpt>
					<trkpt lat="50.740140" lon="2.867800">
						<ele>18</ele>
						<time>2026-07-24T20:45:28Z</time>
					</trkpt>
					<trkpt lat="50.741560" lon="2.871790">
						<ele>32</ele>
						<time>2026-07-24T20:46:19Z</time>
					</trkpt>
					<trkpt lat="50.741620" lon="2.872050">
						<ele>32</ele>
						<time>2026-07-24T20:46:22Z</time>
					</trkpt>
					<trkpt lat="50.741620" lon="2.872320">
						<ele>33</ele>
						<time>2026-07-24T20:46:25Z</time>
					</trkpt>
					<trkpt lat="50.741450" lon="2.873230">
						<ele>33</ele>
						<time>2026-07-24T20:46:36Z</time>
					</trkpt>
					<trkpt lat="50.741110" lon="2.874230">
						<ele>32</ele>
						<time>2026-07-24T20:46:49Z</time>
					</trkpt>
					<trkpt lat="50.739280" lon="2.879080">
						<ele>27</ele>
						<time>2026-07-24T20:47:52Z</time>
					</trkpt>
					<trkpt lat="50.739240" lon="2.879410">
						<ele>27</ele>
						<time>2026-07-24T20:47:56Z</time>
					</trkpt>
					<trkpt lat="50.739220" lon="2.880480">
						<ele>29</ele>
						<time>2026-07-24T20:48:08Z</time>
					</trkpt>
					<trkpt lat="50.739220" lon="2.882860">
						<ele>25</ele>
						<time>2026-07-24T20:48:35Z</time>
					</trkpt>
					<trkpt lat="50.739200" lon="2.883120">
						<ele>24</ele>
						<time>2026-07-24T20:48:38Z</time>
					</trkpt>
					<trkpt lat="50.739130" lon="2.883220">
						<ele>23</ele>
						<time>2026-07-24T20:48:40Z</time>
					</trkpt>
					<trkpt lat="50.739030" lon="2.883330">
						<ele>22</ele>
						<time>2026-07-24T20:48:42Z</time>
					</trkpt>
					<trkpt lat="50.739430" lon="2.883910">
						<ele>28</ele>
						<time>2026-07-24T20:48:51Z</time>
					</trkpt>
					<trkpt lat="50.739930" lon="2.885050">
						<ele>29</ele>
						<time>2026-07-24T20:49:07Z</time>
					</trkpt>
					<trkpt lat="50.741040" lon="2.887880">
						<ele>31</ele>
						<time>2026-07-24T20:49:44Z</time>
					</trkpt>
					<trkpt lat="50.741260" lon="2.888400">
						<ele>31</ele>
						<time>2026-07-24T20:49:51Z</time>
					</trkpt>
					<trkpt lat="50.741470" lon="2.888820">
						<ele>31</ele>
						<time>2026-07-24T20:49:58Z</time>
					</trkpt>
					<trkpt lat="50.742030" lon="2.889660">
						<ele>32</ele>
						<time>2026-07-24T20:50:11Z</time>
					</trkpt>
					<trkpt lat="50.742310" lon="2.889850">
						<ele>34</ele>
						<time>2026-07-24T20:50:17Z</time>
					</trkpt>
					<trkpt lat="50.743020" lon="2.890010">
						<ele>37</ele>
						<time>2026-07-24T20:50:29Z</time>
					</trkpt>
					<trkpt lat="50.744370" lon="2.895580">
						<ele>28</ele>
						<time>2026-07-24T20:51:37Z</time>
					</trkpt>
					<trkpt lat="50.744430" lon="2.896440">
						<ele>28</ele>
						<time>2026-07-24T20:51:46Z</time>
					</trkpt>
					<trkpt lat="50.744280" lon="2.899170">
						<ele>25</ele>
						<time>2026-07-24T20:52:17Z</time>
					</trkpt>
					<trkpt lat="50.744260" lon="2.899320">
						<ele>25</ele>
						<time>2026-07-24T20:52:19Z</time>
					</trkpt>
					<trkpt lat="50.744260" lon="2.900130">
						<ele>24</ele>
						<time>2026-07-24T20:52:28Z</time>
					</trkpt>
					<trkpt lat="50.744370" lon="2.901660">
						<ele>27</ele>
						<time>2026-07-24T20:52:45Z</time>
					</trkpt>
					<trkpt lat="50.744390" lon="2.902750">
						<ele>28</ele>
						<time>2026-07-24T20:52:58Z</time>
					</trkpt>
					<trkpt lat="50.744350" lon="2.902970">
						<ele>28</ele>
						<time>2026-07-24T20:53:00Z</time>
					</trkpt>
					<trkpt lat="50.744300" lon="2.903050">
						<ele>28</ele>
						<time>2026-07-24T20:53:01Z</time>
					</trkpt>
					<trkpt lat="50.743300" lon="2.903700">
						<ele>26</ele>
						<time>2026-07-24T20:53:21Z</time>
					</trkpt>
					<trkpt lat="50.743040" lon="2.903930">
						<ele>26</ele>
						<time>2026-07-24T20:53:26Z</time>
					</trkpt>
					<trkpt lat="50.742820" lon="2.904530">
						<ele>26</ele>
						<time>2026-07-24T20:53:34Z</time>
					</trkpt>
					<trkpt lat="50.742650" lon="2.905330">
						<ele>27</ele>
						<time>2026-07-24T20:53:43Z</time>
					</trkpt>
					<trkpt lat="50.742590" lon="2.905710">
						<ele>28</ele>
						<time>2026-07-24T20:53:48Z</time>
					</trkpt>
					<trkpt lat="50.742520" lon="2.907020">
						<ele>28</ele>
						<time>2026-07-24T20:54:03Z</time>
					</trkpt>
					<trkpt lat="50.742520" lon="2.907470">
						<ele>29</ele>
						<time>2026-07-24T20:54:08Z</time>
					</trkpt>
					<trkpt lat="50.742930" lon="2.909790">
						<ele>27</ele>
						<time>2026-07-24T20:54:35Z</time>
					</trkpt>
					<trkpt lat="50.742270" lon="2.909980">
						<ele>25</ele>
						<time>2026-07-24T20:54:47Z</time>
					</trkpt>
					<trkpt lat="50.742570" lon="2.911140">
						<ele>24</ele>
						<time>2026-07-24T20:55:01Z</time>
					</trkpt>
					<trkpt lat="50.743120" lon="2.912730">
						<ele>24</ele>
						<time>2026-07-24T20:55:21Z</time>
					</trkpt>
					<trkpt lat="50.743770" lon="2.914140">
						<ele>21</ele>
						<time>2026-07-24T20:55:41Z</time>
					</trkpt>
					<trkpt lat="50.744500" lon="2.915950">
						<ele>22</ele>
						<time>2026-07-24T20:56:05Z</time>
					</trkpt>
					<trkpt lat="50.745120" lon="2.917190">
						<ele>21</ele>
						<time>2026-07-24T20:56:23Z</time>
					</trkpt>
					<trkpt lat="50.745910" lon="2.919250">
						<ele>21</ele>
						<time>2026-07-24T20:56:50Z</time>
					</trkpt>
					<trkpt lat="50.746170" lon="2.920090">
						<ele>21</ele>
						<time>2026-07-24T20:57:00Z</time>
					</trkpt>
					<trkpt lat="50.746340" lon="2.920970">
						<ele>21</ele>
						<time>2026-07-24T20:57:11Z</time>
					</trkpt>
					<trkpt lat="50.746410" lon="2.921660">
						<ele>21</ele>
						<time>2026-07-24T20:57:19Z</time>
					</trkpt>
					<trkpt lat="50.746430" lon="2.923740">
						<ele>22</ele>
						<time>2026-07-24T20:57:42Z</time>
					</trkpt>
					<trkpt lat="50.746710" lon="2.927110">
						<ele>22</ele>
						<time>2026-07-24T20:58:20Z</time>
					</trkpt>
					<trkpt lat="50.746770" lon="2.927340">
						<ele>22</ele>
						<time>2026-07-24T20:58:23Z</time>
					</trkpt>
					<trkpt lat="50.745210" lon="2.929390">
						<ele>19</ele>
						<time>2026-07-24T20:58:59Z</time>
					</trkpt>
					<trkpt lat="50.744970" lon="2.929920">
						<ele>19</ele>
						<time>2026-07-24T20:59:07Z</time>
					</trkpt>
					<trkpt lat="50.744590" lon="2.931340">
						<ele>19</ele>
						<time>2026-07-24T20:59:24Z</time>
					</trkpt>
					<trkpt lat="50.743680" lon="2.930650">
						<ele>20</ele>
						<time>2026-07-24T20:59:42Z</time>
					</trkpt>
					<trkpt lat="50.742160" lon="2.929310">
						<ele>18</ele>
						<time>2026-07-24T21:00:13Z</time>
					</trkpt>
					<trkpt lat="50.741780" lon="2.928940">
						<ele>18</ele>
						<time>2026-07-24T21:00:21Z</time>
					</trkpt>
					<trkpt lat="50.741330" lon="2.928390">
						<ele>19</ele>
						<time>2026-07-24T21:00:31Z</time>
					</trkpt>
					<trkpt lat="50.740430" lon="2.927120">
						<ele>18</ele>
						<time>2026-07-24T21:00:52Z</time>
					</trkpt>
					<trkpt lat="50.740290" lon="2.926840">
						<ele>18</ele>
						<time>2026-07-24T21:00:56Z</time>
					</trkpt>
					<trkpt lat="50.740250" lon="2.926680">
						<ele>17</ele>
						<time>2026-07-24T21:00:58Z</time>
					</trkpt>
					<trkpt lat="50.740220" lon="2.926200">
						<ele>17</ele>
						<time>2026-07-24T21:01:04Z</time>
					</trkpt>
					<trkpt lat="50.740200" lon="2.926090">
						<ele>17</ele>
						<time>2026-07-24T21:01:05Z</time>
					</trkpt>
					<trkpt lat="50.740170" lon="2.926020">
						<ele>17</ele>
						<time>2026-07-24T21:01:06Z</time>
					</trkpt>
					<trkpt lat="50.740000" lon="2.925900">
						<ele>17</ele>
						<time>2026-07-24T21:01:09Z</time>
					</trkpt>
					<trkpt lat="50.740150" lon="2.928110">
						<ele>18</ele>
						<time>2026-07-24T21:01:34Z</time>
					</trkpt>
					<trkpt lat="50.740260" lon="2.928800">
						<ele>17</ele>
						<time>2026-07-24T21:01:42Z</time>
					</trkpt>
					<trkpt lat="50.740160" lon="2.928810">
						<ele>17</ele>
						<time>2026-07-24T21:01:44Z</time>
					</trkpt>
					<trkpt lat="50.740120" lon="2.928740">
						<ele>18</ele>
						<time>2026-07-24T21:01:45Z</time>
					</trkpt>
					<trkpt lat="50.740000" lon="2.928200">
						<ele>18</ele>
						<time>2026-07-24T21:01:52Z</time>
					</trkpt>
					<trkpt lat="50.739850" lon="2.927920">
						<ele>18</ele>
						<time>2026-07-24T21:01:56Z</time>
					</trkpt>
					<trkpt lat="50.739000" lon="2.926680">
						<ele>18</ele>
						<time>2026-07-24T21:02:16Z</time>
					</trkpt>
					<trkpt lat="50.738250" lon="2.925360">
						<ele>17</ele>
						<time>2026-07-24T21:02:36Z</time>
					</trkpt>
					<trkpt lat="50.737900" lon="2.924830">
						<ele>16</ele>
						<time>2026-07-24T21:02:45Z</time>
					</trkpt>
					<trkpt lat="50.736300" lon="2.922520">
						<ele>15</ele>
						<time>2026-07-24T21:03:24Z</time>
					</trkpt>
					<trkpt lat="50.735200" lon="2.921060">
						<ele>16</ele>
						<time>2026-07-24T21:03:49Z</time>
					</trkpt>
					<trkpt lat="50.734780" lon="2.920530">
						<ele>17</ele>
						<time>2026-07-24T21:03:59Z</time>
					</trkpt>
					<trkpt lat="50.734100" lon="2.919750">
						<ele>18</ele>
						<time>2026-07-24T21:04:14Z</time>
					</trkpt>
					<trkpt lat="50.733600" lon="2.919230">
						<ele>17</ele>
						<time>2026-07-24T21:04:24Z</time>
					</trkpt>
					<trkpt lat="50.732600" lon="2.918290">
						<ele>16</ele>
						<time>2026-07-24T21:04:45Z</time>
					</trkpt>
					<trkpt lat="50.731750" lon="2.917600">
						<ele>15</ele>
						<time>2026-07-24T21:05:02Z</time>
					</trkpt>
					<trkpt lat="50.731130" lon="2.917150">
						<ele>15</ele>
						<time>2026-07-24T21:05:14Z</time>
					</trkpt>
					<trkpt lat="50.729080" lon="2.915800">
						<ele>17</ele>
						<time>2026-07-24T21:05:54Z</time>
					</trkpt>
					<trkpt lat="50.728060" lon="2.915160">
						<ele>17</ele>
						<time>2026-07-24T21:06:13Z</time>
					</trkpt>
					<trkpt lat="50.727580" lon="2.914910">
						<ele>17</ele>
						<time>2026-07-24T21:06:22Z</time>
					</trkpt>
					<trkpt lat="50.726870" lon="2.914500">
						<ele>17</ele>
						<time>2026-07-24T21:06:36Z</time>
					</trkpt>
					<trkpt lat="50.726580" lon="2.914390">
						<ele>17</ele>
						<time>2026-07-24T21:06:41Z</time>
					</trkpt>
					<trkpt lat="50.726370" lon="2.914380">
						<ele>17</ele>
						<time>2026-07-24T21:06:45Z</time>
					</trkpt>
					<trkpt lat="50.726210" lon="2.914530">
						<ele>17</ele>
						<time>2026-07-24T21:06:48Z</time>
					</trkpt>
					<trkpt lat="50.725710" lon="2.914920">
						<ele>17</ele>
						<time>2026-07-24T21:06:58Z</time>
					</trkpt>
					<trkpt lat="50.725210" lon="2.915370">
						<ele>17</ele>
						<time>2026-07-24T21:07:08Z</time>
					</trkpt>
					<trkpt lat="50.724600" lon="2.915980">
						<ele>17</ele>
						<time>2026-07-24T21:07:21Z</time>
					</trkpt>
					<trkpt lat="50.723920" lon="2.916620">
						<ele>17</ele>
						<time>2026-07-24T21:07:35Z</time>
					</trkpt>
					<trkpt lat="50.722570" lon="2.917770">
						<ele>16</ele>
						<time>2026-07-24T21:08:02Z</time>
					</trkpt>
					<trkpt lat="50.721950" lon="2.918350">
						<ele>17</ele>
						<time>2026-07-24T21:08:15Z</time>
					</trkpt>
					<trkpt lat="50.720650" lon="2.919670">
						<ele>16</ele>
						<time>2026-07-24T21:08:43Z</time>
					</trkpt>
					<trkpt lat="50.720250" lon="2.919930">
						<ele>16</ele>
						<time>2026-07-24T21:08:50Z</time>
					</trkpt>
					<trkpt lat="50.719770" lon="2.920320">
						<ele>15</ele>
						<time>2026-07-24T21:09:00Z</time>
					</trkpt>
					<trkpt lat="50.715770" lon="2.923910">
						<ele>14</ele>
						<time>2026-07-24T21:10:22Z</time>
					</trkpt>
					<trkpt lat="50.715140" lon="2.924380">
						<ele>14</ele>
						<time>2026-07-24T21:10:34Z</time>
					</trkpt>
					<trkpt lat="50.714760" lon="2.924720">
						<ele>14</ele>
						<time>2026-07-24T21:10:42Z</time>
					</trkpt>
					<trkpt lat="50.714760" lon="2.924830">
						<ele>14</ele>
						<time>2026-07-24T21:10:43Z</time>
					</trkpt>
					<trkpt lat="50.714530" lon="2.925630">
						<ele>13</ele>
						<time>2026-07-24T21:10:53Z</time>
					</trkpt>
					<trkpt lat="50.712960" lon="2.929650">
						<ele>12</ele>
						<time>2026-07-24T21:11:46Z</time>
					</trkpt>
					<trkpt lat="50.712810" lon="2.930250">
						<ele>13</ele>
						<time>2026-07-24T21:11:54Z</time>
					</trkpt>
					<trkpt lat="50.712730" lon="2.930810">
						<ele>15</ele>
						<time>2026-07-24T21:12:00Z</time>
					</trkpt>
					<trkpt lat="50.712680" lon="2.931430">
						<ele>17</ele>
						<time>2026-07-24T21:12:07Z</time>
					</trkpt>
					<trkpt lat="50.712610" lon="2.932020">
						<ele>18</ele>
						<time>2026-07-24T21:12:14Z</time>
					</trkpt>
					<trkpt lat="50.712530" lon="2.932260">
						<ele>19</ele>
						<time>2026-07-24T21:12:17Z</time>
					</trkpt>
					<trkpt lat="50.712500" lon="2.932310">
						<ele>19</ele>
						<time>2026-07-24T21:12:18Z</time>
					</trkpt>
					<trkpt lat="50.712350" lon="2.932300">
						<ele>18</ele>
						<time>2026-07-24T21:12:20Z</time>
					</trkpt>
					<trkpt lat="50.711860" lon="2.932400">
						<ele>17</ele>
						<time>2026-07-24T21:12:29Z</time>
					</trkpt>
					<trkpt lat="50.711130" lon="2.932650">
						<ele>17</ele>
						<time>2026-07-24T21:12:42Z</time>
					</trkpt>
					<trkpt lat="50.711030" lon="2.932650">
						<ele>17</ele>
						<time>2026-07-24T21:12:44Z</time>
					</trkpt>
					<trkpt lat="50.711010" lon="2.932570">
						<ele>17</ele>
						<time>2026-07-24T21:12:45Z</time>
					</trkpt>
					<trkpt lat="50.710940" lon="2.932530">
						<ele>17</ele>
						<time>2026-07-24T21:12:47Z</time>
					</trkpt>
					<trkpt lat="50.710880" lon="2.932590">
						<ele>17</ele>
						<time>2026-07-24T21:12:48Z</time>
					</trkpt>
					<trkpt lat="50.710870" lon="2.932650">
						<ele>17</ele>
						<time>2026-07-24T21:12:49Z</time>
					</trkpt>
					<trkpt lat="50.710750" lon="2.932630">
						<ele>17</ele>
						<time>2026-07-24T21:12:51Z</time>
					</trkpt>
					<trkpt lat="50.710570" lon="2.932580">
						<ele>18</ele>
						<time>2026-07-24T21:12:54Z</time>
					</trkpt>
					<trkpt lat="50.710310" lon="2.932360">
						<ele>18</ele>
						<time>2026-07-24T21:12:59Z</time>
					</trkpt>
					<trkpt lat="50.709220" lon="2.931360">
						<ele>17</ele>
						<time>2026-07-24T21:13:22Z</time>
					</trkpt>
					<trkpt lat="50.708270" lon="2.930520">
						<ele>16</ele>
						<time>2026-07-24T21:13:41Z</time>
					</trkpt>
					<trkpt lat="50.707150" lon="2.929090">
						<ele>17</ele>
						<time>2026-07-24T21:14:07Z</time>
					</trkpt>
					<trkpt lat="50.706960" lon="2.928800">
						<ele>16</ele>
						<time>2026-07-24T21:14:11Z</time>
					</trkpt>
					<trkpt lat="50.706500" lon="2.927990">
						<ele>14</ele>
						<time>2026-07-24T21:14:24Z</time>
					</trkpt>
					<trkpt lat="50.706450" lon="2.927840">
						<ele>14</ele>
						<time>2026-07-24T21:14:25Z</time>
					</trkpt>
					<trkpt lat="50.706400" lon="2.927750">
						<ele>14</ele>
						<time>2026-07-24T21:14:27Z</time>
					</trkpt>
					<trkpt lat="50.706360" lon="2.927740">
						<ele>14</ele>
						<time>2026-07-24T21:14:28Z</time>
					</trkpt>
					<trkpt lat="50.706170" lon="2.927320">
						<ele>14</ele>
						<time>2026-07-24T21:14:33Z</time>
					</trkpt>
					<trkpt lat="50.706030" lon="2.927110">
						<ele>14</ele>
						<time>2026-07-24T21:14:37Z</time>
					</trkpt>
					<trkpt lat="50.705740" lon="2.926590">
						<ele>14</ele>
						<time>2026-07-24T21:14:45Z</time>
					</trkpt>
					<trkpt lat="50.705540" lon="2.926290">
						<ele>14</ele>
						<time>2026-07-24T21:14:50Z</time>
					</trkpt>
					<trkpt lat="50.705270" lon="2.925960">
						<ele>14</ele>
						<time>2026-07-24T21:14:56Z</time>
					</trkpt>
					<trkpt lat="50.704620" lon="2.925310">
						<ele>13</ele>
						<time>2026-07-24T21:15:09Z</time>
					</trkpt>
					<trkpt lat="50.703510" lon="2.924240">
						<ele>12</ele>
						<time>2026-07-24T21:15:32Z</time>
					</trkpt>
					<trkpt lat="50.702710" lon="2.923000">
						<ele>14</ele>
						<time>2026-07-24T21:15:52Z</time>
					</trkpt>
					<trkpt lat="50.702560" lon="2.922630">
						<ele>14</ele>
						<time>2026-07-24T21:15:57Z</time>
					</trkpt>
					<trkpt lat="50.702320" lon="2.921960">
						<ele>15</ele>
						<time>2026-07-24T21:16:06Z</time>
					</trkpt>
					<trkpt lat="50.702160" lon="2.921640">
						<ele>16</ele>
						<time>2026-07-24T21:16:11Z</time>
					</trkpt>
					<trkpt lat="50.701760" lon="2.921110">
						<ele>17</ele>
						<time>2026-07-24T21:16:20Z</time>
					</trkpt>
					<trkpt lat="50.701230" lon="2.920470">
						<ele>15</ele>
						<time>2026-07-24T21:16:32Z</time>
					</trkpt>
					<trkpt lat="50.700710" lon="2.919950">
						<ele>13</ele>
						<time>2026-07-24T21:16:43Z</time>
					</trkpt>
					<trkpt lat="50.700580" lon="2.919730">
						<ele>14</ele>
						<time>2026-07-24T21:16:46Z</time>
					</trkpt>
					<trkpt lat="50.700220" lon="2.918900">
						<ele>15</ele>
						<time>2026-07-24T21:16:57Z</time>
					</trkpt>
					<trkpt lat="50.700010" lon="2.918360">
						<ele>14</ele>
						<time>2026-07-24T21:17:05Z</time>
					</trkpt>
					<trkpt lat="50.699850" lon="2.918080">
						<ele>14</ele>
						<time>2026-07-24T21:17:09Z</time>
					</trkpt>
					<trkpt lat="50.699630" lon="2.917810">
						<ele>14</ele>
						<time>2026-07-24T21:17:14Z</time>
					</trkpt>
					<trkpt lat="50.699090" lon="2.917330">
						<ele>14</ele>
						<time>2026-07-24T21:17:25Z</time>
					</trkpt>
					<trkpt lat="50.698310" lon="2.916420">
						<ele>15</ele>
						<time>2026-07-24T21:17:42Z</time>
					</trkpt>
					<trkpt lat="50.698250" lon="2.916270">
						<ele>15</ele>
						<time>2026-07-24T21:17:44Z</time>
					</trkpt>
					<trkpt lat="50.697280" lon="2.915140">
						<ele>16</ele>
						<time>2026-07-24T21:18:05Z</time>
					</trkpt>
					<trkpt lat="50.697230" lon="2.915120">
						<ele>16</ele>
						<time>2026-07-24T21:18:06Z</time>
					</trkpt>
					<trkpt lat="50.696900" lon="2.914750">
						<ele>15</ele>
						<time>2026-07-24T21:18:14Z</time>
					</trkpt>
					<trkpt lat="50.695770" lon="2.913750">
						<ele>16</ele>
						<time>2026-07-24T21:18:37Z</time>
					</trkpt>
					<trkpt lat="50.695020" lon="2.913170">
						<ele>15</ele>
						<time>2026-07-24T21:18:52Z</time>
					</trkpt>
					<trkpt lat="50.694240" lon="2.912420">
						<ele>18</ele>
						<time>2026-07-24T21:19:08Z</time>
					</trkpt>
					<trkpt lat="50.693870" lon="2.913080">
						<ele>18</ele>
						<time>2026-07-24T21:19:18Z</time>
					</trkpt>
					<trkpt lat="50.693640" lon="2.913420">
						<ele>18</ele>
						<time>2026-07-24T21:19:23Z</time>
					</trkpt>
					<trkpt lat="50.693990" lon="2.914050">
						<ele>18</ele>
						<time>2026-07-24T21:19:33Z</time>
					</trkpt>
					<trkpt lat="50.693670" lon="2.914570">
						<ele>19</ele>
						<time>2026-07-24T21:19:41Z</time>
					</trkpt>
					<trkpt lat="50.693920" lon="2.914960">
						<ele>19</ele>
						<time>2026-07-24T21:19:47Z</time>
					</trkpt>
					<trkpt lat="50.693320" lon="2.915920">
						<ele>18</ele>
						<time>2026-07-24T21:20:02Z</time>
					</trkpt>
					<trkpt lat="50.693250" lon="2.915810">
						<ele>18</ele>
						<time>2026-07-24T21:20:04Z</time>
					</trkpt>
					</trkseg>
				</trk>
			</gpx>