<?xml version="1.0" encoding="UTF-8" ?>
<gpx version="1.1" xmlns:xsi="http://www.w3.org/2001/XMLSchema-instance"
    xmlns="http://www.topografix.com/GPX/1/1"
    xsi:schemaLocation="http://www.topografix.com/GPX/1/1 http://www.topografix.com/GPX/1/1/gpx.xsd"
    creator="Openrunner - https://www.openrunner.com" >	<trk>
	                   <name>UCH GRAVEL 42KM AOÛT 2026-24640138</name>
						<trkseg>
					<trkpt lat="50.692990" lon="2.915660">
						<ele>18</ele>
						<time>2026-07-24T20:25:26Z</time>
					</trkpt>
					<trkpt lat="50.692800" lon="2.915950">
						<ele>17</ele>
						<time>2026-07-24T20:25:31Z</time>
					</trkpt>
					<trkpt lat="50.692750" lon="2.915980">
						<ele>17</ele>
						<time>2026-07-24T20:25:32Z</time>
					</trkpt>
					<trkpt lat="50.692680" lon="2.915930">
						<ele>17</ele>
						<time>2026-07-24T20:25:33Z</time>
					</trkpt>
					<trkpt lat="50.692360" lon="2.915500">
						<ele>18</ele>
						<time>2026-07-24T20:25:40Z</time>
					</trkpt>
					<trkpt lat="50.692200" lon="2.915760">
						<ele>18</ele>
						<time>2026-07-24T20:25:45Z</time>
					</trkpt>
					<trkpt lat="50.692150" lon="2.915800">
						<ele>18</ele>
						<time>2026-07-24T20:25:46Z</time>
					</trkpt>
					<trkpt lat="50.691840" lon="2.915460">
						<ele>18</ele>
						<time>2026-07-24T20:25:52Z</time>
					</trkpt>
					<trkpt lat="50.691510" lon="2.914870">
						<ele>19</ele>
						<time>2026-07-24T20:26:01Z</time>
					</trkpt>
					<trkpt lat="50.691660" lon="2.914560">
						<ele>18</ele>
						<time>2026-07-24T20:26:06Z</time>
					</trkpt>
					<trkpt lat="50.692160" lon="2.913720">
						<ele>18</ele>
						<time>2026-07-24T20:26:19Z</time>
					</trkpt>
					<trkpt lat="50.692480" lon="2.913580">
						<ele>18</ele>
						<time>2026-07-24T20:26:24Z</time>
					</trkpt>
					<trkpt lat="50.692950" lon="2.912730">
						<ele>18</ele>
						<time>2026-07-24T20:26:37Z</time>
					</trkpt>
					<trkpt lat="50.692980" lon="2.912620">
						<ele>18</ele>
						<time>2026-07-24T20:26:39Z</time>
					</trkpt>
					<trkpt lat="50.692980" lon="2.912430">
						<ele>18</ele>
						<time>2026-07-24T20:26:41Z</time>
					</trkpt>
					<trkpt lat="50.693110" lon="2.912450">
						<ele>18</ele>
						<time>2026-07-24T20:26:43Z</time>
					</trkpt>
					<trkpt lat="50.693820" lon="2.912300">
						<ele>18</ele>
						<time>2026-07-24T20:26:56Z</time>
					</trkpt>
					<trkpt lat="50.694050" lon="2.912330">
						<ele>18</ele>
						<time>2026-07-24T20:27:00Z</time>
					</trkpt>
					<trkpt lat="50.694250" lon="2.912430">
						<ele>18</ele>
						<time>2026-07-24T20:27:04Z</time>
					</trkpt>
					<trkpt lat="50.694690" lon="2.911440">
						<ele>16</ele>
						<time>2026-07-24T20:27:17Z</time>
					</trkpt>
					<trkpt lat="50.694780" lon="2.910650">
						<ele>15</ele>
						<time>2026-07-24T20:27:26Z</time>
					</trkpt>
					<trkpt lat="50.694870" lon="2.910310">
						<ele>14</ele>
						<time>2026-07-24T20:27:30Z</time>
					</trkpt>
					<trkpt lat="50.695020" lon="2.910050">
						<ele>14</ele>
						<time>2026-07-24T20:27:34Z</time>
					</trkpt>
					<trkpt lat="50.695610" lon="2.909180">
						<ele>13</ele>
						<time>2026-07-24T20:27:49Z</time>
					</trkpt>
					<trkpt lat="50.695450" lon="2.909010">
						<ele>13</ele>
						<time>2026-07-24T20:27:52Z</time>
					</trkpt>
					<trkpt lat="50.695110" lon="2.908820">
						<ele>13</ele>
						<time>2026-07-24T20:27:59Z</time>
					</trkpt>
					<trkpt lat="50.694990" lon="2.908790">
						<ele>13</ele>
						<time>2026-07-24T20:28:01Z</time>
					</trkpt>
					<trkpt lat="50.694650" lon="2.908860">
						<ele>13</ele>
						<time>2026-07-24T20:28:07Z</time>
					</trkpt>
					<trkpt lat="50.694560" lon="2.908450">
						<ele>12</ele>
						<time>2026-07-24T20:28:12Z</time>
					</trkpt>
					<trkpt lat="50.694550" lon="2.908260">
						<ele>12</ele>
						<time>2026-07-24T20:28:14Z</time>
					</trkpt>
					<trkpt lat="50.694570" lon="2.908140">
						<ele>12</ele>
						<time>2026-07-24T20:28:15Z</time>
					</trkpt>
					<trkpt lat="50.694280" lon="2.907130">
						<ele>10</ele>
						<time>2026-07-24T20:28:28Z</time>
					</trkpt>
					<trkpt lat="50.694020" lon="2.906600">
						<ele>9</ele>
						<time>2026-07-24T20:28:35Z</time>
					</trkpt>
					<trkpt lat="50.693720" lon="2.905860">
						<ele>9</ele>
						<time>2026-07-24T20:28:45Z</time>
					</trkpt>
					<trkpt lat="50.693340" lon="2.904560">
						<ele>12</ele>
						<time>2026-07-24T20:29:01Z</time>
					</trkpt>
					<trkpt lat="50.693170" lon="2.903540">
						<ele>12</ele>
						<time>2026-07-24T20:29:13Z</time>
					</trkpt>
					<trkpt lat="50.693140" lon="2.903050">
						<ele>12</ele>
						<time>2026-07-24T20:29:19Z</time>
					</trkpt>
					<trkpt lat="50.693170" lon="2.902940">
						<ele>12</ele>
						<time>2026-07-24T20:29:20Z</time>
					</trkpt>
					<trkpt lat="50.693160" lon="2.902470">
						<ele>12</ele>
						<time>2026-07-24T20:29:25Z</time>
					</trkpt>
					<trkpt lat="50.693080" lon="2.901390">
						<ele>12</ele>
						<time>2026-07-24T20:29:38Z</time>
					</trkpt>
					<trkpt lat="50.692560" lon="2.895650">
						<ele>13</ele>
						<time>2026-07-24T20:30:43Z</time>
					</trkpt>
					<trkpt lat="50.692340" lon="2.894530">
						<ele>13</ele>
						<time>2026-07-24T20:30:56Z</time>
					</trkpt>
					<trkpt lat="50.692290" lon="2.894120">
						<ele>14</ele>
						<time>2026-07-24T20:31:01Z</time>
					</trkpt>
					<trkpt lat="50.692990" lon="2.893970">
						<ele>13</ele>
						<time>2026-07-24T20:31:14Z</time>
					</trkpt>
					<trkpt lat="50.693650" lon="2.893780">
						<ele>14</ele>
						<time>2026-07-24T20:31:26Z</time>
					</trkpt>
					<trkpt lat="50.694820" lon="2.893280">
						<ele>15</ele>
						<time>2026-07-24T20:31:47Z</time>
					</trkpt>
					<trkpt lat="50.694860" lon="2.893320">
						<ele>15</ele>
						<time>2026-07-24T20:31:48Z</time>
					</trkpt>
					<trkpt lat="50.694910" lon="2.893310">
						<ele>15</ele>
						<time>2026-07-24T20:31:49Z</time>
					</trkpt>
					<trkpt lat="50.695110" lon="2.894920">
						<ele>15</ele>
						<time>2026-07-24T20:32:07Z</time>
					</trkpt>
					<trkpt lat="50.695680" lon="2.897200">
						<ele>14</ele>
						<time>2026-07-24T20:32:35Z</time>
					</trkpt>
					<trkpt lat="50.696050" lon="2.896880">
						<ele>13</ele>
						<time>2026-07-24T20:32:42Z</time>
					</trkpt>
					<trkpt lat="50.696850" lon="2.895970">
						<ele>13</ele>
						<time>2026-07-24T20:33:00Z</time>
					</trkpt>
					<trkpt lat="50.697230" lon="2.895430">
						<ele>13</ele>
						<time>2026-07-24T20:33:09Z</time>
					</trkpt>
					<trkpt lat="50.698410" lon="2.894300">
						<ele>17</ele>
						<time>2026-07-24T20:33:34Z</time>
					</trkpt>
					<trkpt lat="50.699110" lon="2.893730">
						<ele>16</ele>
						<time>2026-07-24T20:33:48Z</time>
					</trkpt>
					<trkpt lat="50.699790" lon="2.893110">
						<ele>17</ele>
						<time>2026-07-24T20:34:02Z</time>
					</trkpt>
					<trkpt lat="50.700570" lon="2.892320">
						<ele>17</ele>
						<time>2026-07-24T20:34:18Z</time>
					</trkpt>
					<trkpt lat="50.700320" lon="2.891660">
						<ele>16</ele>
						<time>2026-07-24T20:34:27Z</time>
					</trkpt>
					<trkpt lat="50.700680" lon="2.891330">
						<ele>17</ele>
						<time>2026-07-24T20:34:34Z</time>
					</trkpt>
					<trkpt lat="50.700720" lon="2.891200">
						<ele>17</ele>
						<time>2026-07-24T20:34:36Z</time>
					</trkpt>
					<trkpt lat="50.700770" lon="2.890620">
						<ele>17</ele>
						<time>2026-07-24T20:34:42Z</time>
					</trkpt>
					<trkpt lat="50.700690" lon="2.890180">
						<ele>16</ele>
						<time>2026-07-24T20:34:48Z</time>
					</trkpt>
					<trkpt lat="50.700980" lon="2.889850">
						<ele>16</ele>
						<time>2026-07-24T20:34:54Z</time>
					</trkpt>
					<trkpt lat="50.701090" lon="2.889680">
						<ele>16</ele>
						<time>2026-07-24T20:34:57Z</time>
					</trkpt>
					<trkpt lat="50.701160" lon="2.889510">
						<ele>16</ele>
						<time>2026-07-24T20:34:59Z</time>
					</trkpt>
					<trkpt lat="50.701250" lon="2.889040">
						<ele>16</ele>
						<time>2026-07-24T20:35:04Z</time>
					</trkpt>
					<trkpt lat="50.701300" lon="2.888120">
						<ele>16</ele>
						<time>2026-07-24T20:35:15Z</time>
					</trkpt>
					<trkpt lat="50.701350" lon="2.887880">
						<ele>16</ele>
						<time>2026-07-24T20:35:18Z</time>
					</trkpt>
					<trkpt lat="50.701410" lon="2.887720">
						<ele>16</ele>
						<time>2026-07-24T20:35:20Z</time>
					</trkpt>
					<trkpt lat="50.701480" lon="2.887560">
						<ele>17</ele>
						<time>2026-07-24T20:35:22Z</time>
					</trkpt>
					<trkpt lat="50.702640" lon="2.886310">
						<ele>17</ele>
						<time>2026-07-24T20:35:47Z</time>
					</trkpt>
					<trkpt lat="50.702570" lon="2.886160">
						<ele>17</ele>
						<time>2026-07-24T20:35:49Z</time>
					</trkpt>
					<trkpt lat="50.703210" lon="2.885470">
						<ele>17</ele>
						<time>2026-07-24T20:36:03Z</time>
					</trkpt>
					<trkpt lat="50.703240" lon="2.885400">
						<ele>17</ele>
						<time>2026-07-24T20:36:04Z</time>
					</trkpt>
					<trkpt lat="50.703290" lon="2.884650">
						<ele>18</ele>
						<time>2026-07-24T20:36:12Z</time>
					</trkpt>
					<trkpt lat="50.703180" lon="2.884070">
						<ele>18</ele>
						<time>2026-07-24T20:36:19Z</time>
					</trkpt>
					<trkpt lat="50.702940" lon="2.883500">
						<ele>17</ele>
						<time>2026-07-24T20:36:27Z</time>
					</trkpt>
					<trkpt lat="50.703350" lon="2.883230">
						<ele>17</ele>
						<time>2026-07-24T20:36:35Z</time>
					</trkpt>
					<trkpt lat="50.703510" lon="2.883210">
						<ele>17</ele>
						<time>2026-07-24T20:36:38Z</time>
					</trkpt>
					<trkpt lat="50.703590" lon="2.883080">
						<ele>16</ele>
						<time>2026-07-24T20:36:40Z</time>
					</trkpt>
					<trkpt lat="50.704570" lon="2.882230">
						<ele>14</ele>
						<time>2026-07-24T20:37:00Z</time>
					</trkpt>
					<trkpt lat="50.704660" lon="2.882180">
						<ele>14</ele>
						<time>2026-07-24T20:37:01Z</time>
					</trkpt>
					<trkpt lat="50.704710" lon="2.882090">
						<ele>14</ele>
						<time>2026-07-24T20:37:03Z</time>
					</trkpt>
					<trkpt lat="50.704330" lon="2.881620">
						<ele>12</ele>
						<time>2026-07-24T20:37:11Z</time>
					</trkpt>
					<trkpt lat="50.703950" lon="2.881050">
						<ele>12</ele>
						<time>2026-07-24T20:37:21Z</time>
					</trkpt>
					<trkpt lat="50.703610" lon="2.880640">
						<ele>11</ele>
						<time>2026-07-24T20:37:28Z</time>
					</trkpt>
					<trkpt lat="50.703580" lon="2.880560">
						<ele>11</ele>
						<time>2026-07-24T20:37:29Z</time>
					</trkpt>
					<trkpt lat="50.703650" lon="2.879940">
						<ele>11</ele>
						<time>2026-07-24T20:37:36Z</time>
					</trkpt>
					<trkpt lat="50.703830" lon="2.878960">
						<ele>13</ele>
						<time>2026-07-24T20:37:48Z</time>
					</trkpt>
					<trkpt lat="50.704160" lon="2.876570">
						<ele>12</ele>
						<time>2026-07-24T20:38:15Z</time>
					</trkpt>
					<trkpt lat="50.704380" lon="2.875170">
						<ele>13</ele>
						<time>2026-07-24T20:38:32Z</time>
					</trkpt>
					<trkpt lat="50.704430" lon="2.874240">
						<ele>14</ele>
						<time>2026-07-24T20:38:42Z</time>
					</trkpt>
					<trkpt lat="50.704510" lon="2.873710">
						<ele>14</ele>
						<time>2026-07-24T20:38:48Z</time>
					</trkpt>
					<trkpt lat="50.704350" lon="2.872290">
						<ele>14</ele>
						<time>2026-07-24T20:39:05Z</time>
					</trkpt>
					<trkpt lat="50.704410" lon="2.871760">
						<ele>14</ele>
						<time>2026-07-24T20:39:11Z</time>
					</trkpt>
					<trkpt lat="50.704410" lon="2.871550">
						<ele>14</ele>
						<time>2026-07-24T20:39:13Z</time>
					</trkpt>
					<trkpt lat="50.704260" lon="2.871120">
						<ele>15</ele>
						<time>2026-07-24T20:39:19Z</time>
					</trkpt>
					<trkpt lat="50.704130" lon="2.870440">
						<ele>15</ele>
						<time>2026-07-24T20:39:27Z</time>
					</trkpt>
					<trkpt lat="50.703960" lon="2.869720">
						<ele>16</ele>
						<time>2026-07-24T20:39:35Z</time>
					</trkpt>
					<trkpt lat="50.703800" lon="2.869250">
						<ele>16</ele>
						<time>2026-07-24T20:39:41Z</time>
					</trkpt>
					<trkpt lat="50.703560" lon="2.869460">
						<ele>16</ele>
						<time>2026-07-24T20:39:46Z</time>
					</trkpt>
					<trkpt lat="50.703480" lon="2.869500">
						<ele>16</ele>
						<time>2026-07-24T20:39:48Z</time>
					</trkpt>
					<trkpt lat="50.703280" lon="2.869440">
						<ele>15</ele>
						<time>2026-07-24T20:39:51Z</time>
					</trkpt>
					<trkpt lat="50.702940" lon="2.868950">
						<ele>15</ele>
						<time>2026-07-24T20:39:59Z</time>
					</trkpt>
					<trkpt lat="50.702840" lon="2.868780">
						<ele>15</ele>
						<time>2026-07-24T20:40:02Z</time>
					</trkpt>
					<trkpt lat="50.702830" lon="2.868670">
						<ele>15</ele>
						<time>2026-07-24T20:40:03Z</time>
					</trkpt>
					<trkpt lat="50.702850" lon="2.868620">
						<ele>15</ele>
						<time>2026-07-24T20:40:04Z</time>
					</trkpt>
					<trkpt lat="50.703030" lon="2.868420">
						<ele>15</ele>
						<time>2026-07-24T20:40:08Z</time>
					</trkpt>
					<trkpt lat="50.703060" lon="2.868350">
						<ele>15</ele>
						<time>2026-07-24T20:40:09Z</time>
					</trkpt>
					<trkpt lat="50.703040" lon="2.868220">
						<ele>15</ele>
						<time>2026-07-24T20:40:10Z</time>
					</trkpt>
					<trkpt lat="50.702370" lon="2.866960">
						<ele>14</ele>
						<time>2026-07-24T20:40:29Z</time>
					</trkpt>
					<trkpt lat="50.703580" lon="2.864990">
						<ele>16</ele>
						<time>2026-07-24T20:41:00Z</time>
					</trkpt>
					<trkpt lat="50.704420" lon="2.863760">
						<ele>16</ele>
						<time>2026-07-24T20:41:20Z</time>
					</trkpt>
					<trkpt lat="50.704000" lon="2.863090">
						<ele>16</ele>
						<time>2026-07-24T20:41:31Z</time>
					</trkpt>
					<trkpt lat="50.703550" lon="2.862450">
						<ele>15</ele>
						<time>2026-07-24T20:41:42Z</time>
					</trkpt>
					<trkpt lat="50.702750" lon="2.861410">
						<ele>15</ele>
						<time>2026-07-24T20:42:00Z</time>
					</trkpt>
					<trkpt lat="50.701850" lon="2.860460">
						<ele>17</ele>
						<time>2026-07-24T20:42:19Z</time>
					</trkpt>
					<trkpt lat="50.703370" lon="2.857710">
						<ele>16</ele>
						<time>2026-07-24T20:43:00Z</time>
					</trkpt>
					<trkpt lat="50.703920" lon="2.856890">
						<ele>15</ele>
						<time>2026-07-24T20:43:14Z</time>
					</trkpt>
					<trkpt lat="50.704410" lon="2.856540">
						<ele>15</ele>
						<time>2026-07-24T20:43:23Z</time>
					</trkpt>
					<trkpt lat="50.704970" lon="2.855860">
						<ele>17</ele>
						<time>2026-07-24T20:43:36Z</time>
					</trkpt>
					<trkpt lat="50.705580" lon="2.855060">
						<ele>18</ele>
						<time>2026-07-24T20:43:50Z</time>
					</trkpt>
					<trkpt lat="50.707830" lon="2.852400">
						<ele>17</ele>
						<time>2026-07-24T20:44:40Z</time>
					</trkpt>
					<trkpt lat="50.708950" lon="2.851360">
						<ele>17</ele>
						<time>2026-07-24T20:45:03Z</time>
					</trkpt>
					<trkpt lat="50.708950" lon="2.851100">
						<ele>17</ele>
						<time>2026-07-24T20:45:06Z</time>
					</trkpt>
					<trkpt lat="50.708400" lon="2.849670">
						<ele>18</ele>
						<time>2026-07-24T20:45:25Z</time>
					</trkpt>
					<trkpt lat="50.708740" lon="2.849330">
						<ele>18</ele>
						<time>2026-07-24T20:45:32Z</time>
					</trkpt>
					<trkpt lat="50.708720" lon="2.847590">
						<ele>20</ele>
						<time>2026-07-24T20:45:52Z</time>
					</trkpt>
					<trkpt lat="50.708560" lon="2.847530">
						<ele>20</ele>
						<time>2026-07-24T20:45:55Z</time>
					</trkpt>
					<trkpt lat="50.708480" lon="2.847320">
						<ele>20</ele>
						<time>2026-07-24T20:45:57Z</time>
					</trkpt>
					<trkpt lat="50.708630" lon="2.847460">
						<ele>20</ele>
						<time>2026-07-24T20:46:01Z</time>
					</trkpt>
					<trkpt lat="50.708840" lon="2.847480">
						<ele>20</ele>
						<time>2026-07-24T20:46:04Z</time>
					</trkpt>
					<trkpt lat="50.709010" lon="2.847410">
						<ele>19</ele>
						<time>2026-07-24T20:46:07Z</time>
					</trkpt>
					<trkpt lat="50.709410" lon="2.847150">
						<ele>18</ele>
						<time>2026-07-24T20:46:15Z</time>
					</trkpt>
					<trkpt lat="50.709530" lon="2.847130">
						<ele>18</ele>
						<time>2026-07-24T20:46:17Z</time>
					</trkpt>
					<trkpt lat="50.709660" lon="2.847170">
						<ele>18</ele>
						<time>2026-07-24T20:46:20Z</time>
					</trkpt>
					<trkpt lat="50.710770" lon="2.848870">
						<ele>17</ele>
						<time>2026-07-24T20:46:47Z</time>
					</trkpt>
					<trkpt lat="50.710900" lon="2.848970">
						<ele>17</ele>
						<time>2026-07-24T20:46:50Z</time>
					</trkpt>
					<trkpt lat="50.710990" lon="2.848940">
						<ele>17</ele>
						<time>2026-07-24T20:46:51Z</time>
					</trkpt>
					<trkpt lat="50.713350" lon="2.846850">
						<ele>18</ele>
						<time>2026-07-24T20:47:39Z</time>
					</trkpt>
					<trkpt lat="50.713570" lon="2.846630">
						<ele>18</ele>
						<time>2026-07-24T20:47:44Z</time>
					</trkpt>
					<trkpt lat="50.713730" lon="2.846380">
						<ele>18</ele>
						<time>2026-07-24T20:47:48Z</time>
					</trkpt>
					<trkpt lat="50.714530" lon="2.844540">
						<ele>17</ele>
						<time>2026-07-24T20:48:13Z</time>
					</trkpt>
					<trkpt lat="50.714950" lon="2.843700">
						<ele>16</ele>
						<time>2026-07-24T20:48:25Z</time>
					</trkpt>
					<trkpt lat="50.716690" lon="2.841110">
						<ele>16</ele>
						<time>2026-07-24T20:49:08Z</time>
					</trkpt>
					<trkpt lat="50.716890" lon="2.840870">
						<ele>16</ele>
						<time>2026-07-24T20:49:12Z</time>
					</trkpt>
					<trkpt lat="50.718660" lon="2.839670">
						<ele>17</ele>
						<time>2026-07-24T20:49:47Z</time>
					</trkpt>
					<trkpt lat="50.719270" lon="2.839460">
						<ele>18</ele>
						<time>2026-07-24T20:49:58Z</time>
					</trkpt>
					<trkpt lat="50.719550" lon="2.839410">
						<ele>18</ele>
						<time>2026-07-24T20:50:03Z</time>
					</trkpt>
					<trkpt lat="50.719730" lon="2.839440">
						<ele>17</ele>
						<time>2026-07-24T20:50:06Z</time>
					</trkpt>
					<trkpt lat="50.720530" lon="2.839900">
						<ele>17</ele>
						<time>2026-07-24T20:50:21Z</time>
					</trkpt>
					<trkpt lat="50.721370" lon="2.840480">
						<ele>17</ele>
						<time>2026-07-24T20:50:37Z</time>
					</trkpt>
					<trkpt lat="50.721740" lon="2.840570">
						<ele>18</ele>
						<time>2026-07-24T20:50:44Z</time>
					</trkpt>
					<trkpt lat="50.722310" lon="2.840580">
						<ele>18</ele>
						<time>2026-07-24T20:50:54Z</time>
					</trkpt>
					<trkpt lat="50.722750" lon="2.840480">
						<ele>18</ele>
						<time>2026-07-24T20:51:02Z</time>
					</trkpt>
					<trkpt lat="50.723090" lon="2.840330">
						<ele>18</ele>
						<time>2026-07-24T20:51:08Z</time>
					</trkpt>
					<trkpt lat="50.723530" lon="2.839960">
						<ele>17</ele>
						<time>2026-07-24T20:51:17Z</time>
					</trkpt>
					<trkpt lat="50.724030" lon="2.839420">
						<ele>16</ele>
						<time>2026-07-24T20:51:28Z</time>
					</trkpt>
					<trkpt lat="50.727390" lon="2.835380">
						<ele>18</ele>
						<time>2026-07-24T20:52:43Z</time>
					</trkpt>
					<trkpt lat="50.728070" lon="2.834530">
						<ele>19</ele>
						<time>2026-07-24T20:52:59Z</time>
					</trkpt>
					<trkpt lat="50.728570" lon="2.833970">
						<ele>19</ele>
						<time>2026-07-24T20:53:10Z</time>
					</trkpt>
					<trkpt lat="50.731560" lon="2.831930">
						<ele>22</ele>
						<time>2026-07-24T20:54:07Z</time>
					</trkpt>
					<trkpt lat="50.731920" lon="2.831870">
						<ele>22</ele>
						<time>2026-07-24T20:54:14Z</time>
					</trkpt>
					<trkpt lat="50.732110" lon="2.831880">
						<ele>22</ele>
						<time>2026-07-24T20:54:17Z</time>
					</trkpt>
					<trkpt lat="50.732370" lon="2.831970">
						<ele>22</ele>
						<time>2026-07-24T20:54:22Z</time>
					</trkpt>
					<trkpt lat="50.734060" lon="2.832930">
						<ele>22</ele>
						<time>2026-07-24T20:54:54Z</time>
					</trkpt>
					<trkpt lat="50.734420" lon="2.833030">
						<ele>22</ele>
						<time>2026-07-24T20:55:00Z</time>
					</trkpt>
					<trkpt lat="50.734750" lon="2.833030">
						<ele>22</ele>
						<time>2026-07-24T20:55:06Z</time>
					</trkpt>
					<trkpt lat="50.735060" lon="2.832960">
						<ele>22</ele>
						<time>2026-07-24T20:55:12Z</time>
					</trkpt>
					<trkpt lat="50.735410" lon="2.832780">
						<ele>24</ele>
						<time>2026-07-24T20:55:18Z</time>
					</trkpt>
					<trkpt lat="50.738140" lon="2.830810">
						<ele>31</ele>
						<time>2026-07-24T20:56:12Z</time>
					</trkpt>
					<trkpt lat="50.738690" lon="2.830450">
						<ele>32</ele>
						<time>2026-07-24T20:56:22Z</time>
					</trkpt>
					<trkpt lat="50.739610" lon="2.830080">
						<ele>35</ele>
						<time>2026-07-24T20:56:39Z</time>
					</trkpt>
					<trkpt lat="50.741900" lon="2.829420">
						<ele>42</ele>
						<time>2026-07-24T20:57:21Z</time>
					</trkpt>
					<trkpt lat="50.742050" lon="2.829340">
						<ele>42</ele>
						<time>2026-07-24T20:57:24Z</time>
					</trkpt>
					<trkpt lat="50.742220" lon="2.829190">
						<ele>42</ele>
						<time>2026-07-24T20:57:27Z</time>
					</trkpt>
					<trkpt lat="50.743110" lon="2.827900">
						<ele>47</ele>
						<time>2026-07-24T20:57:49Z</time>
					</trkpt>
					<trkpt lat="50.743280" lon="2.827700">
						<ele>48</ele>
						<time>2026-07-24T20:57:52Z</time>
					</trkpt>
					<trkpt lat="50.744070" lon="2.826980">
						<ele>54</ele>
						<time>2026-07-24T20:58:09Z</time>
					</trkpt>
					<trkpt lat="50.744990" lon="2.826310">
						<ele>59</ele>
						<time>2026-07-24T20:58:27Z</time>
					</trkpt>
					<trkpt lat="50.745390" lon="2.825840">
						<ele>60</ele>
						<time>2026-07-24T20:58:35Z</time>
					</trkpt>
					<trkpt lat="50.746060" lon="2.825280">
						<ele>58</ele>
						<time>2026-07-24T20:58:49Z</time>
					</trkpt>
					<trkpt lat="50.746570" lon="2.826680">
						<ele>58</ele>
						<time>2026-07-24T20:59:07Z</time>
					</trkpt>
					<trkpt lat="50.747050" lon="2.827910">
						<ele>58</ele>
						<time>2026-07-24T20:59:23Z</time>
					</trkpt>
					<trkpt lat="50.747240" lon="2.828380">
						<ele>58</ele>
						<time>2026-07-24T20:59:30Z</time>
					</trkpt>
					<trkpt lat="50.747310" lon="2.828510">
						<ele>58</ele>
						<time>2026-07-24T20:59:32Z</time>
					</trkpt>
					<trkpt lat="50.747380" lon="2.828580">
						<ele>58</ele>
						<time>2026-07-24T20:59:33Z</time>
					</trkpt>
					<trkpt lat="50.747570" lon="2.828610">
						<ele>57</ele>
						<time>2026-07-24T20:59:36Z</time>
					</trkpt>
					<trkpt lat="50.747860" lon="2.828500">
						<ele>55</ele>
						<time>2026-07-24T20:59:42Z</time>
					</trkpt>
					<trkpt lat="50.750980" lon="2.827110">
						<ele>42</ele>
						<time>2026-07-24T21:00:39Z</time>
					</trkpt>
					<trkpt lat="50.751020" lon="2.827170">
						<ele>42</ele>
						<time>2026-07-24T21:00:40Z</time>
					</trkpt>
					<trkpt lat="50.751270" lon="2.827110">
						<ele>42</ele>
						<time>2026-07-24T21:00:45Z</time>
					</trkpt>
					<trkpt lat="50.751420" lon="2.827040">
						<ele>42</ele>
						<time>2026-07-24T21:00:48Z</time>
					</trkpt>
					<trkpt lat="50.751400" lon="2.826770">
						<ele>43</ele>
						<time>2026-07-24T21:00:51Z</time>
					</trkpt>
					<trkpt lat="50.750270" lon="2.826400">
						<ele>46</ele>
						<time>2026-07-24T21:01:11Z</time>
					</trkpt>
					<trkpt lat="50.750020" lon="2.826240">
						<ele>46</ele>
						<time>2026-07-24T21:01:16Z</time>
					</trkpt>
					<trkpt lat="50.749850" lon="2.826090">
						<ele>47</ele>
						<time>2026-07-24T21:01:20Z</time>
					</trkpt>
					<trkpt lat="50.747250" lon="2.822580">
						<ele>64</ele>
						<time>2026-07-24T21:02:20Z</time>
					</trkpt>
					<trkpt lat="50.747000" lon="2.822200">
						<ele>66</ele>
						<time>2026-07-24T21:02:27Z</time>
					</trkpt>
					<trkpt lat="50.747000" lon="2.822140">
						<ele>66</ele>
						<time>2026-07-24T21:02:27Z</time>
					</trkpt>
					<trkpt lat="50.747090" lon="2.822100">
						<ele>66</ele>
						<time>2026-07-24T21:02:29Z</time>
					</trkpt>
					<trkpt lat="50.747240" lon="2.821970">
						<ele>67</ele>
						<time>2026-07-24T21:02:32Z</time>
					</trkpt>
					<trkpt lat="50.747330" lon="2.822020">
						<ele>66</ele>
						<time>2026-07-24T21:02:34Z</time>
					</trkpt>
					<trkpt lat="50.748530" lon="2.821870">
						<ele>64</ele>
						<time>2026-07-24T21:02:55Z</time>
					</trkpt>
					<trkpt lat="50.748970" lon="2.821930">
						<ele>62</ele>
						<time>2026-07-24T21:03:03Z</time>
					</trkpt>
					<trkpt lat="50.749470" lon="2.821950">
						<ele>60</ele>
						<time>2026-07-24T21:03:12Z</time>
					</trkpt>
					<trkpt lat="50.749540" lon="2.821730">
						<ele>61</ele>
						<time>2026-07-24T21:03:15Z</time>
					</trkpt>
					<trkpt lat="50.749560" lon="2.821560">
						<ele>61</ele>
						<time>2026-07-24T21:03:17Z</time>
					</trkpt>
					<trkpt lat="50.749590" lon="2.819250">
						<ele>61</ele>
						<time>2026-07-24T21:03:43Z</time>
					</trkpt>
					<trkpt lat="50.749570" lon="2.818730">
						<ele>60</ele>
						<time>2026-07-24T21:03:48Z</time>
					</trkpt>
					<trkpt lat="50.749890" lon="2.817140">
						<ele>56</ele>
						<time>2026-07-24T21:04:07Z</time>
					</trkpt>
					<trkpt lat="50.749870" lon="2.816910">
						<ele>56</ele>
						<time>2026-07-24T21:04:10Z</time>
					</trkpt>
					<trkpt lat="50.749780" lon="2.816690">
						<ele>56</ele>
						<time>2026-07-24T21:04:13Z</time>
					</trkpt>
					<trkpt lat="50.749760" lon="2.816440">
						<ele>55</ele>
						<time>2026-07-24T21:04:16Z</time>
					</trkpt>
					<trkpt lat="50.749960" lon="2.815550">
						<ele>52</ele>
						<time>2026-07-24T21:04:26Z</time>
					</trkpt>
					<trkpt lat="50.750030" lon="2.815120">
						<ele>50</ele>
						<time>2026-07-24T21:04:31Z</time>
					</trkpt>
					<trkpt lat="50.750330" lon="2.814000">
						<ele>44</ele>
						<time>2026-07-24T21:04:45Z</time>
					</trkpt>
					<trkpt lat="50.750840" lon="2.812620">
						<ele>36</ele>
						<time>2026-07-24T21:05:03Z</time>
					</trkpt>
					<trkpt lat="50.751500" lon="2.811170">
						<ele>40</ele>
						<time>2026-07-24T21:05:23Z</time>
					</trkpt>
					<trkpt lat="50.751550" lon="2.810990">
						<ele>40</ele>
						<time>2026-07-24T21:05:25Z</time>
					</trkpt>
					<trkpt lat="50.751570" lon="2.810800">
						<ele>40</ele>
						<time>2026-07-24T21:05:27Z</time>
					</trkpt>
					<trkpt lat="50.751810" lon="2.810730">
						<ele>40</ele>
						<time>2026-07-24T21:05:32Z</time>
					</trkpt>
					<trkpt lat="50.751920" lon="2.810800">
						<ele>40</ele>
						<time>2026-07-24T21:05:34Z</time>
					</trkpt>
					<trkpt lat="50.753020" lon="2.812220">
						<ele>41</ele>
						<time>2026-07-24T21:05:59Z</time>
					</trkpt>
					<trkpt lat="50.753140" lon="2.812230">
						<ele>41</ele>
						<time>2026-07-24T21:06:01Z</time>
					</trkpt>
					<trkpt lat="50.753450" lon="2.811990">
						<ele>42</ele>
						<time>2026-07-24T21:06:07Z</time>
					</trkpt>
					<trkpt lat="50.753800" lon="2.811850">
						<ele>43</ele>
						<time>2026-07-24T21:06:14Z</time>
					</trkpt>
					<trkpt lat="50.753960" lon="2.811710">
						<ele>43</ele>
						<time>2026-07-24T21:06:17Z</time>
					</trkpt>
					<trkpt lat="50.755370" lon="2.809490">
						<ele>42</ele>
						<time>2026-07-24T21:06:52Z</time>
					</trkpt>
					<trkpt lat="50.755980" lon="2.808690">
						<ele>40</ele>
						<time>2026-07-24T21:07:07Z</time>
					</trkpt>
					<trkpt lat="50.756100" lon="2.808580">
						<ele>39</ele>
						<time>2026-07-24T21:07:09Z</time>
					</trkpt>
					<trkpt lat="50.756570" lon="2.809430">
						<ele>37</ele>
						<time>2026-07-24T21:07:22Z</time>
					</trkpt>
					<trkpt lat="50.757500" lon="2.811330">
						<ele>34</ele>
						<time>2026-07-24T21:07:49Z</time>
					</trkpt>
					<trkpt lat="50.758240" lon="2.812580">
						<ele>34</ele>
						<time>2026-07-24T21:08:08Z</time>
					</trkpt>
					<trkpt lat="50.758470" lon="2.813010">
						<ele>33</ele>
						<time>2026-07-24T21:08:14Z</time>
					</trkpt>
					<trkpt lat="50.759180" lon="2.814500">
						<ele>31</ele>
						<time>2026-07-24T21:08:35Z</time>
					</trkpt>
					<trkpt lat="50.759650" lon="2.815320">
						<ele>31</ele>
						<time>2026-07-24T21:08:48Z</time>
					</trkpt>
					<trkpt lat="50.760040" lon="2.816250">
						<ele>28</ele>
						<time>2026-07-24T21:09:00Z</time>
					</trkpt>
					<trkpt lat="50.760290" lon="2.816460">
						<ele>28</ele>
						<time>2026-07-24T21:09:05Z</time>
					</trkpt>
					<trkpt lat="50.760400" lon="2.816640">
						<ele>28</ele>
						<time>2026-07-24T21:09:08Z</time>
					</trkpt>
					<trkpt lat="50.760480" lon="2.817110">
						<ele>28</ele>
						<time>2026-07-24T21:09:14Z</time>
					</trkpt>
					<trkpt lat="50.760610" lon="2.818840">
						<ele>29</ele>
						<time>2026-07-24T21:09:33Z</time>
					</trkpt>
					<trkpt lat="50.760580" lon="2.819600">
						<ele>29</ele>
						<time>2026-07-24T21:09:42Z</time>
					</trkpt>
					<trkpt lat="50.760470" lon="2.820800">
						<ele>30</ele>
						<time>2026-07-24T21:09:56Z</time>
					</trkpt>
					<trkpt lat="50.760500" lon="2.821420">
						<ele>30</ele>
						<time>2026-07-24T21:10:03Z</time>
					</trkpt>
					<trkpt lat="50.760840" lon="2.821350">
						<ele>29</ele>
						<time>2026-07-24T21:10:09Z</time>
					</trkpt>
					<trkpt lat="50.762050" lon="2.820430">
						<ele>30</ele>
						<time>2026-07-24T21:10:33Z</time>
					</trkpt>
					<trkpt lat="50.762000" lon="2.821480">
						<ele>30</ele>
						<time>2026-07-24T21:10:44Z</time>
					</trkpt>
					<trkpt lat="50.762090" lon="2.822230">
						<ele>30</ele>
						<time>2026-07-24T21:10:53Z</time>
					</trkpt>
					<trkpt lat="50.762110" lon="2.823130">
						<ele>30</ele>
						<time>2026-07-24T21:11:03Z</time>
					</trkpt>
					<trkpt lat="50.762300" lon="2.824300">
						<ele>31</ele>
						<time>2026-07-24T21:11:17Z</time>
					</trkpt>
					<trkpt lat="50.762590" lon="2.826730">
						<ele>28</ele>
						<time>2026-07-24T21:11:45Z</time>
					</trkpt>
					<trkpt lat="50.762710" lon="2.826970">
						<ele>29</ele>
						<time>2026-07-24T21:11:48Z</time>
					</trkpt>
					<trkpt lat="50.763010" lon="2.827390">
						<ele>30</ele>
						<time>2026-07-24T21:11:55Z</time>
					</trkpt>
					<trkpt lat="50.763130" lon="2.827670">
						<ele>30</ele>
						<time>2026-07-24T21:11:59Z</time>
					</trkpt>
					<trkpt lat="50.764420" lon="2.827200">
						<ele>33</ele>
						<time>2026-07-24T21:12:23Z</time>
					</trkpt>
					<trkpt lat="50.764830" lon="2.826890">
						<ele>33</ele>
						<time>2026-07-24T21:12:31Z</time>
					</trkpt>
					<trkpt lat="50.765200" lon="2.826570">
						<ele>33</ele>
						<time>2026-07-24T21:12:38Z</time>
					</trkpt>
					<trkpt lat="50.765310" lon="2.826260">
						<ele>33</ele>
						<time>2026-07-24T21:12:42Z</time>
					</trkpt>
					<trkpt lat="50.765640" lon="2.825890">
						<ele>34</ele>
						<time>2026-07-24T21:12:49Z</time>
					</trkpt>
					<trkpt lat="50.765900" lon="2.825440">
						<ele>35</ele>
						<time>2026-07-24T21:12:56Z</time>
					</trkpt>
					<trkpt lat="50.766060" lon="2.825270">
						<ele>36</ele>
						<time>2026-07-24T21:13:00Z</time>
					</trkpt>
					<trkpt lat="50.767180" lon="2.824390">
						<ele>37</ele>
						<time>2026-07-24T21:13:22Z</time>
					</trkpt>
					<trkpt lat="50.767290" lon="2.824250">
						<ele>37</ele>
						<time>2026-07-24T21:13:24Z</time>
					</trkpt>
					<trkpt lat="50.767470" lon="2.823860">
						<ele>37</ele>
						<time>2026-07-24T21:13:30Z</time>
					</trkpt>
					<trkpt lat="50.767560" lon="2.823740">
						<ele>38</ele>
						<time>2026-07-24T21:13:32Z</time>
					</trkpt>
					<trkpt lat="50.768150" lon="2.823370">
						<ele>38</ele>
						<time>2026-07-24T21:13:43Z</time>
					</trkpt>
					<trkpt lat="50.768480" lon="2.823280">
						<ele>39</ele>
						<time>2026-07-24T21:13:49Z</time>
					</trkpt>
					<trkpt lat="50.769060" lon="2.822640">
						<ele>40</ele>
						<time>2026-07-24T21:14:02Z</time>
					</trkpt>
					<trkpt lat="50.769260" lon="2.822360">
						<ele>41</ele>
						<time>2026-07-24T21:14:06Z</time>
					</trkpt>
					<trkpt lat="50.770610" lon="2.821170">
						<ele>48</ele>
						<time>2026-07-24T21:14:34Z</time>
					</trkpt>
					<trkpt lat="50.770520" lon="2.820740">
						<ele>48</ele>
						<time>2026-07-24T21:14:39Z</time>
					</trkpt>
					<trkpt lat="50.770380" lon="2.820270">
						<ele>49</ele>
						<time>2026-07-24T21:14:45Z</time>
					</trkpt>
					<trkpt lat="50.770690" lon="2.819980">
						<ele>50</ele>
						<time>2026-07-24T21:14:51Z</time>
					</trkpt>
					<trkpt lat="50.770880" lon="2.819750">
						<ele>51</ele>
						<time>2026-07-24T21:14:56Z</time>
					</trkpt>
					<trkpt lat="50.771130" lon="2.819180">
						<ele>53</ele>
						<time>2026-07-24T21:15:03Z</time>
					</trkpt>
					<trkpt lat="50.771330" lon="2.818480">
						<ele>56</ele>
						<time>2026-07-24T21:15:12Z</time>
					</trkpt>
					<trkpt lat="50.771730" lon="2.817690">
						<ele>61</ele>
						<time>2026-07-24T21:15:23Z</time>
					</trkpt>
					<trkpt lat="50.771860" lon="2.817510">
						<ele>62</ele>
						<time>2026-07-24T21:15:26Z</time>
					</trkpt>
					<trkpt lat="50.772160" lon="2.817190">
						<ele>64</ele>
						<time>2026-07-24T21:15:33Z</time>
					</trkpt>
					<trkpt lat="50.772200" lon="2.817000">
						<ele>65</ele>
						<time>2026-07-24T21:15:35Z</time>
					</trkpt>
					<trkpt lat="50.772190" lon="2.816930">
						<ele>65</ele>
						<time>2026-07-24T21:15:36Z</time>
					</trkpt>
					<trkpt lat="50.772030" lon="2.816550">
						<ele>66</ele>
						<time>2026-07-24T21:15:41Z</time>
					</trkpt>
					<trkpt lat="50.772010" lon="2.816440">
						<ele>66</ele>
						<time>2026-07-24T21:15:42Z</time>
					</trkpt>
					<trkpt lat="50.772030" lon="2.816280">
						<ele>66</ele>
						<time>2026-07-24T21:15:44Z</time>
					</trkpt>
					<trkpt lat="50.772150" lon="2.815850">
						<ele>68</ele>
						<time>2026-07-24T21:15:50Z</time>
					</trkpt>
					<trkpt lat="50.772170" lon="2.815280">
						<ele>70</ele>
						<time>2026-07-24T21:15:56Z</time>
					</trkpt>
					<trkpt lat="50.772150" lon="2.814820">
						<ele>71</ele>
						<time>2026-07-24T21:16:01Z</time>
					</trkpt>
					<trkpt lat="50.772180" lon="2.814730">
						<ele>72</ele>
						<time>2026-07-24T21:16:02Z</time>
					</trkpt>
					<trkpt lat="50.772420" lon="2.814500">
						<ele>75</ele>
						<time>2026-07-24T21:16:07Z</time>
					</trkpt>
					<trkpt lat="50.773330" lon="2.813900">
						<ele>85</ele>
						<time>2026-07-24T21:16:25Z</time>
					</trkpt>
					<trkpt lat="50.774620" lon="2.812820">
						<ele>101</ele>
						<time>2026-07-24T21:16:51Z</time>
					</trkpt>
					<trkpt lat="50.775010" lon="2.813280">
						<ele>99</ele>
						<time>2026-07-24T21:16:59Z</time>
					</trkpt>
					<trkpt lat="50.775340" lon="2.813610">
						<ele>97</ele>
						<time>2026-07-24T21:17:06Z</time>
					</trkpt>
					<trkpt lat="50.775880" lon="2.813920">
						<ele>99</ele>
						<time>2026-07-24T21:17:17Z</time>
					</trkpt>
					<trkpt lat="50.775950" lon="2.814000">
						<ele>100</ele>
						<time>2026-07-24T21:17:18Z</time>
					</trkpt>
					<trkpt lat="50.776020" lon="2.814140">
						<ele>101</ele>
						<time>2026-07-24T21:17:20Z</time>
					</trkpt>
					<trkpt lat="50.776100" lon="2.815300">
						<ele>104</ele>
						<time>2026-07-24T21:17:33Z</time>
					</trkpt>
					<trkpt lat="50.776110" lon="2.816170">
						<ele>105</ele>
						<time>2026-07-24T21:17:43Z</time>
					</trkpt>
					<trkpt lat="50.776200" lon="2.816520">
						<ele>106</ele>
						<time>2026-07-24T21:17:47Z</time>
					</trkpt>
					<trkpt lat="50.776820" lon="2.818160">
						<ele>103</ele>
						<time>2026-07-24T21:18:09Z</time>
					</trkpt>
					<trkpt lat="50.776950" lon="2.818410">
						<ele>102</ele>
						<time>2026-07-24T21:18:12Z</time>
					</trkpt>
					<trkpt lat="50.777320" lon="2.818960">
						<ele>103</ele>
						<time>2026-07-24T21:18:22Z</time>
					</trkpt>
					<trkpt lat="50.777990" lon="2.820070">
						<ele>94</ele>
						<time>2026-07-24T21:18:39Z</time>
					</trkpt>
					<trkpt lat="50.777890" lon="2.820200">
						<ele>93</ele>
						<time>2026-07-24T21:18:41Z</time>
					</trkpt>
					<trkpt lat="50.778040" lon="2.820350">
						<ele>92</ele>
						<time>2026-07-24T21:18:44Z</time>
					</trkpt>
					<trkpt lat="50.778240" lon="2.820640">
						<ele>92</ele>
						<time>2026-07-24T21:18:49Z</time>
					</trkpt>
					<trkpt lat="50.778520" lon="2.820930">
						<ele>90</ele>
						<time>2026-07-24T21:18:55Z</time>
					</trkpt>
					<trkpt lat="50.778360" lon="2.821100">
						<ele>91</ele>
						<time>2026-07-24T21:18:58Z</time>
					</trkpt>
					<trkpt lat="50.778170" lon="2.821150">
						<ele>90</ele>
						<time>2026-07-24T21:19:02Z</time>
					</trkpt>
					<trkpt lat="50.777800" lon="2.821080">
						<ele>88</ele>
						<time>2026-07-24T21:19:09Z</time>
					</trkpt>
					<trkpt lat="50.777490" lon="2.820960">
						<ele>87</ele>
						<time>2026-07-24T21:19:14Z</time>
					</trkpt>
					<trkpt lat="50.776910" lon="2.820790">
						<ele>88</ele>
						<time>2026-07-24T21:19:25Z</time>
					</trkpt>
					<trkpt lat="50.776790" lon="2.821190">
						<ele>86</ele>
						<time>2026-07-24T21:19:30Z</time>
					</trkpt>
					<trkpt lat="50.776630" lon="2.821920">
						<ele>84</ele>
						<time>2026-07-24T21:19:38Z</time>
					</trkpt>
					<trkpt lat="50.776460" lon="2.823190">
						<ele>81</ele>
						<time>2026-07-24T21:19:53Z</time>
					</trkpt>
					<trkpt lat="50.776160" lon="2.825120">
						<ele>79</ele>
						<time>2026-07-24T21:20:15Z</time>
					</trkpt>
					<trkpt lat="50.775900" lon="2.826450">
						<ele>76</ele>
						<time>2026-07-24T21:20:31Z</time>
					</trkpt>
					<trkpt lat="50.775870" lon="2.827530">
						<ele>76</ele>
						<time>2026-07-24T21:20:43Z</time>
					</trkpt>
					<trkpt lat="50.774000" lon="2.827630">
						<ele>68</ele>
						<time>2026-07-24T21:21:16Z</time>
					</trkpt>
					<trkpt lat="50.773860" lon="2.827710">
						<ele>68</ele>
						<time>2026-07-24T21:21:19Z</time>
					</trkpt>
					<trkpt lat="50.773530" lon="2.827720">
						<ele>67</ele>
						<time>2026-07-24T21:21:25Z</time>
					</trkpt>
					<trkpt lat="50.772790" lon="2.826350">
						<ele>61</ele>
						<time>2026-07-24T21:21:45Z</time>
					</trkpt>
					<trkpt lat="50.772070" lon="2.825530">
						<ele>57</ele>
						<time>2026-07-24T21:22:01Z</time>
					</trkpt>
					<trkpt lat="50.771650" lon="2.824880">
						<ele>54</ele>
						<time>2026-07-24T21:22:11Z</time>
					</trkpt>
					<trkpt lat="50.771170" lon="2.823950">
						<ele>50</ele>
						<time>2026-07-24T21:22:25Z</time>
					</trkpt>
					<trkpt lat="50.770810" lon="2.823040">
						<ele>48</ele>
						<time>2026-07-24T21:22:37Z</time>
					</trkpt>
					<trkpt lat="50.770700" lon="2.822890">
						<ele>47</ele>
						<time>2026-07-24T21:22:40Z</time>
					</trkpt>
					<trkpt lat="50.770660" lon="2.823400">
						<ele>48</ele>
						<time>2026-07-24T21:22:45Z</time>
					</trkpt>
					<trkpt lat="50.770580" lon="2.823790">
						<ele>49</ele>
						<time>2026-07-24T21:22:50Z</time>
					</trkpt>
					<trkpt lat="50.770440" lon="2.824170">
						<ele>50</ele>
						<time>2026-07-24T21:22:55Z</time>
					</trkpt>
					<trkpt lat="50.770260" lon="2.824490">
						<ele>50</ele>
						<time>2026-07-24T21:23:00Z</time>
					</trkpt>
					<trkpt lat="50.769960" lon="2.824800">
						<ele>51</ele>
						<time>2026-07-24T21:23:06Z</time>
					</trkpt>
					<trkpt lat="50.768600" lon="2.825810">
						<ele>49</ele>
						<time>2026-07-24T21:23:33Z</time>
					</trkpt>
					<trkpt lat="50.768110" lon="2.826310">
						<ele>47</ele>
						<time>2026-07-24T21:23:43Z</time>
					</trkpt>
					<trkpt lat="50.767760" lon="2.826820">
						<ele>47</ele>
						<time>2026-07-24T21:23:52Z</time>
					</trkpt>
					<trkpt lat="50.767650" lon="2.827020">
						<ele>48</ele>
						<time>2026-07-24T21:23:55Z</time>
					</trkpt>
					<trkpt lat="50.767570" lon="2.827430">
						<ele>49</ele>
						<time>2026-07-24T21:24:00Z</time>
					</trkpt>
					<trkpt lat="50.767570" lon="2.827730">
						<ele>50</ele>
						<time>2026-07-24T21:24:03Z</time>
					</trkpt>
					<trkpt lat="50.767590" lon="2.827790">
						<ele>50</ele>
						<time>2026-07-24T21:24:04Z</time>
					</trkpt>
					<trkpt lat="50.767350" lon="2.828020">
						<ele>50</ele>
						<time>2026-07-24T21:24:09Z</time>
					</trkpt>
					<trkpt lat="50.766810" lon="2.828700">
						<ele>48</ele>
						<time>2026-07-24T21:24:21Z</time>
					</trkpt>
					<trkpt lat="50.766920" lon="2.829650">
						<ele>49</ele>
						<time>2026-07-24T21:24:32Z</time>
					</trkpt>
					<trkpt lat="50.767010" lon="2.830030">
						<ele>51</ele>
						<time>2026-07-24T21:24:36Z</time>
					</trkpt>
					<trkpt lat="50.767130" lon="2.830300">
						<ele>53</ele>
						<time>2026-07-24T21:24:40Z</time>
					</trkpt>
					<trkpt lat="50.767280" lon="2.830440">
						<ele>55</ele>
						<time>2026-07-24T21:24:43Z</time>
					</trkpt>
					<trkpt lat="50.767880" lon="2.830770">
						<ele>59</ele>
						<time>2026-07-24T21:24:55Z</time>
					</trkpt>
					<trkpt lat="50.768000" lon="2.830740">
						<ele>59</ele>
						<time>2026-07-24T21:24:57Z</time>
					</trkpt>
					<trkpt lat="50.768300" lon="2.830510">
						<ele>60</ele>
						<time>2026-07-24T21:25:03Z</time>
					</trkpt>
					<trkpt lat="50.769430" lon="2.829530">
						<ele>65</ele>
						<time>2026-07-24T21:25:26Z</time>
					</trkpt>
					<trkpt lat="50.769970" lon="2.829160">
						<ele>66</ele>
						<time>2026-07-24T21:25:36Z</time>
					</trkpt>
					<trkpt lat="50.770200" lon="2.829100">
						<ele>67</ele>
						<time>2026-07-24T21:25:40Z</time>
					</trkpt>
					<trkpt lat="50.770940" lon="2.829240">
						<ele>69</ele>
						<time>2026-07-24T21:25:53Z</time>
					</trkpt>
					<trkpt lat="50.771470" lon="2.829180">
						<ele>70</ele>
						<time>2026-07-24T21:26:03Z</time>
					</trkpt>
					<trkpt lat="50.771630" lon="2.829260">
						<ele>70</ele>
						<time>2026-07-24T21:26:06Z</time>
					</trkpt>
					<trkpt lat="50.771750" lon="2.829420">
						<ele>70</ele>
						<time>2026-07-24T21:26:09Z</time>
					</trkpt>
					<trkpt lat="50.772090" lon="2.830380">
						<ele>69</ele>
						<time>2026-07-24T21:26:21Z</time>
					</trkpt>
					<trkpt lat="50.771800" lon="2.830650">
						<ele>68</ele>
						<time>2026-07-24T21:26:27Z</time>
					</trkpt>
					<trkpt lat="50.770780" lon="2.831510">
						<ele>65</ele>
						<time>2026-07-24T21:26:48Z</time>
					</trkpt>
					<trkpt lat="50.769750" lon="2.832600">
						<ele>61</ele>
						<time>2026-07-24T21:27:10Z</time>
					</trkpt>
					<trkpt lat="50.768800" lon="2.833720">
						<ele>57</ele>
						<time>2026-07-24T21:27:31Z</time>
					</trkpt>
					<trkpt lat="50.767890" lon="2.834510">
						<ele>53</ele>
						<time>2026-07-24T21:27:49Z</time>
					</trkpt>
					<trkpt lat="50.767310" lon="2.834890">
						<ele>52</ele>
						<time>2026-07-24T21:28:00Z</time>
					</trkpt>
					<trkpt lat="50.767120" lon="2.835050">
						<ele>52</ele>
						<time>2026-07-24T21:28:04Z</time>
					</trkpt>
					<trkpt lat="50.766860" lon="2.835400">
						<ele>51</ele>
						<time>2026-07-24T21:28:10Z</time>
					</trkpt>
					<trkpt lat="50.766560" lon="2.835950">
						<ele>50</ele>
						<time>2026-07-24T21:28:18Z</time>
					</trkpt>
					<trkpt lat="50.766410" lon="2.836060">
						<ele>50</ele>
						<time>2026-07-24T21:28:21Z</time>
					</trkpt>
					<trkpt lat="50.766390" lon="2.836860">
						<ele>48</ele>
						<time>2026-07-24T21:28:30Z</time>
					</trkpt>
					<trkpt lat="50.766320" lon="2.837520">
						<ele>47</ele>
						<time>2026-07-24T21:28:38Z</time>
					</trkpt>
					<trkpt lat="50.766240" lon="2.837530">
						<ele>47</ele>
						<time>2026-07-24T21:28:39Z</time>
					</trkpt>
					<trkpt lat="50.765260" lon="2.837990">
						<ele>46</ele>
						<time>2026-07-24T21:28:58Z</time>
					</trkpt>
					<trkpt lat="50.763900" lon="2.838920">
						<ele>42</ele>
						<time>2026-07-24T21:29:24Z</time>
					</trkpt>
					<trkpt lat="50.763730" lon="2.839120">
						<ele>41</ele>
						<time>2026-07-24T21:29:28Z</time>
					</trkpt>
					<trkpt lat="50.763550" lon="2.839410">
						<ele>41</ele>
						<time>2026-07-24T21:29:32Z</time>
					</trkpt>
					<trkpt lat="50.763290" lon="2.839930">
						<ele>41</ele>
						<time>2026-07-24T21:29:40Z</time>
					</trkpt>
					<trkpt lat="50.762820" lon="2.840500">
						<ele>38</ele>
						<time>2026-07-24T21:29:50Z</time>
					</trkpt>
					<trkpt lat="50.761710" lon="2.840450">
						<ele>34</ele>
						<time>2026-07-24T21:30:10Z</time>
					</trkpt>
					<trkpt lat="50.761290" lon="2.840390">
						<ele>32</ele>
						<time>2026-07-24T21:30:18Z</time>
					</trkpt>
					<trkpt lat="50.760850" lon="2.840380">
						<ele>31</ele>
						<time>2026-07-24T21:30:25Z</time>
					</trkpt>
					<trkpt lat="50.760190" lon="2.840510">
						<ele>28</ele>
						<time>2026-07-24T21:30:37Z</time>
					</trkpt>
					<trkpt lat="50.759980" lon="2.840430">
						<ele>27</ele>
						<time>2026-07-24T21:30:41Z</time>
					</trkpt>
					<trkpt lat="50.759770" lon="2.840600">
						<ele>27</ele>
						<time>2026-07-24T21:30:45Z</time>
					</trkpt>
					<trkpt lat="50.758980" lon="2.840440">
						<ele>26</ele>
						<time>2026-07-24T21:30:59Z</time>
					</trkpt>
					<trkpt lat="50.758640" lon="2.840250">
						<ele>27</ele>
						<time>2026-07-24T21:31:06Z</time>
					</trkpt>
					<trkpt lat="50.758250" lon="2.840180">
						<ele>28</ele>
						<time>2026-07-24T21:31:13Z</time>
					</trkpt>
					<trkpt lat="50.756850" lon="2.840010">
						<ele>28</ele>
						<time>2026-07-24T21:31:38Z</time>
					</trkpt>
					<trkpt lat="50.756280" lon="2.840040">
						<ele>29</ele>
						<time>2026-07-24T21:31:48Z</time>
					</trkpt>
					<trkpt lat="50.755930" lon="2.840150">
						<ele>30</ele>
						<time>2026-07-24T21:31:54Z</time>
					</trkpt>
					<trkpt lat="50.755630" lon="2.840290">
						<ele>30</ele>
						<time>2026-07-24T21:32:00Z</time>
					</trkpt>
					<trkpt lat="50.753520" lon="2.841570">
						<ele>36</ele>
						<time>2026-07-24T21:32:40Z</time>
					</trkpt>
					<trkpt lat="50.753170" lon="2.840370">
						<ele>38</ele>
						<time>2026-07-24T21:32:55Z</time>
					</trkpt>
					<trkpt lat="50.751530" lon="2.842030">
						<ele>35</ele>
						<time>2026-07-24T21:33:30Z</time>
					</trkpt>
					<trkpt lat="50.750980" lon="2.842540">
						<ele>35</ele>
						<time>2026-07-24T21:33:41Z</time>
					</trkpt>
					<trkpt lat="50.748420" lon="2.844680">
						<ele>45</ele>
						<time>2026-07-24T21:34:32Z</time>
					</trkpt>
					<trkpt lat="50.747550" lon="2.845770">
						<ele>43</ele>
						<time>2026-07-24T21:34:52Z</time>
					</trkpt>
					<trkpt lat="50.747430" lon="2.845960">
						<ele>43</ele>
						<time>2026-07-24T21:34:55Z</time>
					</trkpt>
					<trkpt lat="50.747250" lon="2.846360">
						<ele>42</ele>
						<time>2026-07-24T21:35:01Z</time>
					</trkpt>
					<trkpt lat="50.747180" lon="2.846690">
						<ele>41</ele>
						<time>2026-07-24T21:35:05Z</time>
					</trkpt>
					<trkpt lat="50.747170" lon="2.846880">
						<ele>40</ele>
						<time>2026-07-24T21:35:07Z</time>
					</trkpt>
					<trkpt lat="50.747030" lon="2.847060">
						<ele>40</ele>
						<time>2026-07-24T21:35:10Z</time>
					</trkpt>
					<trkpt lat="50.746030" lon="2.848030">
						<ele>35</ele>
						<time>2026-07-24T21:35:31Z</time>
					</trkpt>
					<trkpt lat="50.745810" lon="2.848150">
						<ele>34</ele>
						<time>2026-07-24T21:35:35Z</time>
					</trkpt>
					<trkpt lat="50.745710" lon="2.848150">
						<ele>33</ele>
						<time>2026-07-24T21:35:37Z</time>
					</trkpt>
					<trkpt lat="50.745440" lon="2.848020">
						<ele>32</ele>
						<time>2026-07-24T21:35:42Z</time>
					</trkpt>
					<trkpt lat="50.745230" lon="2.847850">
						<ele>31</ele>
						<time>2026-07-24T21:35:46Z</time>
					</trkpt>
					<trkpt lat="50.744470" lon="2.847040">
						<ele>29</ele>
						<time>2026-07-24T21:36:02Z</time>
					</trkpt>
					<trkpt lat="50.744360" lon="2.846960">
						<ele>28</ele>
						<time>2026-07-24T21:36:05Z</time>
					</trkpt>
					<trkpt lat="50.744170" lon="2.846860">
						<ele>27</ele>
						<time>2026-07-24T21:36:08Z</time>
					</trkpt>
					<trkpt lat="50.743550" lon="2.846710">
						<ele>25</ele>
						<time>2026-07-24T21:36:19Z</time>
					</trkpt>
					<trkpt lat="50.743410" lon="2.846630">
						<ele>24</ele>
						<time>2026-07-24T21:36:22Z</time>
					</trkpt>
					<trkpt lat="50.742900" lon="2.845890">
						<ele>23</ele>
						<time>2026-07-24T21:36:34Z</time>
					</trkpt>
					<trkpt lat="50.742880" lon="2.845820">
						<ele>23</ele>
						<time>2026-07-24T21:36:35Z</time>
					</trkpt>
					<trkpt lat="50.742390" lon="2.845260">
						<ele>22</ele>
						<time>2026-07-24T21:36:46Z</time>
					</trkpt>
					<trkpt lat="50.742090" lon="2.844610">
						<ele>23</ele>
						<time>2026-07-24T21:36:55Z</time>
					</trkpt>
					<trkpt lat="50.742050" lon="2.844600">
						<ele>23</ele>
						<time>2026-07-24T21:36:56Z</time>
					</trkpt>
					<trkpt lat="50.741480" lon="2.844790">
						<ele>21</ele>
						<time>2026-07-24T21:37:06Z</time>
					</trkpt>
					<trkpt lat="50.741330" lon="2.844960">
						<ele>21</ele>
						<time>2026-07-24T21:37:09Z</time>
					</trkpt>
					<trkpt lat="50.740880" lon="2.845620">
						<ele>19</ele>
						<time>2026-07-24T21:37:20Z</time>
					</trkpt>
					<trkpt lat="50.740260" lon="2.846650">
						<ele>17</ele>
						<time>2026-07-24T21:37:36Z</time>
					</trkpt>
					<trkpt lat="50.740240" lon="2.846740">
						<ele>17</ele>
						<time>2026-07-24T21:37:37Z</time>
					</trkpt>
					<trkpt lat="50.740260" lon="2.847200">
						<ele>18</ele>
						<time>2026-07-24T21:37:42Z</time>
					</trkpt>
					<trkpt lat="50.740230" lon="2.847330">
						<ele>18</ele>
						<time>2026-07-24T21:37:44Z</time>
					</trkpt>
					<trkpt lat="50.739760" lon="2.848290">
						<ele>18</ele>
						<time>2026-07-24T21:37:58Z</time>
					</trkpt>
					<trkpt lat="50.739700" lon="2.849070">
						<ele>18</ele>
						<time>2026-07-24T21:38:07Z</time>
					</trkpt>
					<trkpt lat="50.739680" lon="2.849190">
						<ele>18</ele>
						<time>2026-07-24T21:38:08Z</time>
					</trkpt>
					<trkpt lat="50.739620" lon="2.849300">
						<ele>18</ele>
						<time>2026-07-24T21:38:10Z</time>
					</trkpt>
					<trkpt lat="50.735380" lon="2.852220">
						<ele>19</ele>
						<time>2026-07-24T21:39:32Z</time>
					</trkpt>
					<trkpt lat="50.734940" lon="2.852610">
						<ele>21</ele>
						<time>2026-07-24T21:39:41Z</time>
					</trkpt>
					<trkpt lat="50.735000" lon="2.852940">
						<ele>21</ele>
						<time>2026-07-24T21:39:45Z</time>
					</trkpt>
					<trkpt lat="50.735020" lon="2.853440">
						<ele>21</ele>
						<time>2026-07-24T21:39:50Z</time>
					</trkpt>
					<trkpt lat="50.734980" lon="2.854240">
						<ele>20</ele>
						<time>2026-07-24T21:39:59Z</time>
					</trkpt>
					<trkpt lat="50.735120" lon="2.854790">
						<ele>20</ele>
						<time>2026-07-24T21:40:06Z</time>
					</trkpt>
					<trkpt lat="50.735840" lon="2.857180">
						<ele>17</ele>
						<time>2026-07-24T21:40:36Z</time>
					</trkpt>
					<trkpt lat="50.736570" lon="2.859750">
						<ele>21</ele>
						<time>2026-07-24T21:41:08Z</time>
					</trkpt>
					<trkpt lat="50.736950" lon="2.860960">
						<ele>20</ele>
						<time>2026-07-24T21:41:23Z</time>
					</trkpt>
					<trkpt lat="50.737340" lon="2.861950">
						<ele>20</ele>
						<time>2026-07-24T21:41:36Z</time>
					</trkpt>
					<trkpt lat="50.737520" lon="2.862320">
						<ele>19</ele>
						<time>2026-07-24T21:41:41Z</time>
					</trkpt>
					<trkpt lat="50.738510" lon="2.864090">
						<ele>20</ele>
						<time>2026-07-24T21:42:08Z</time>
					</trkpt>
					<trkpt lat="50.739490" lon="2.865920">
						<ele>18</ele>
						<time>2026-07-24T21:42:35Z</time>
					</trkpt>
					<trkpt lat="50.741560" lon="2.871790">
						<ele>32</ele>
						<time>2026-07-24T21:43:50Z</time>
					</trkpt>
					<trkpt lat="50.741620" lon="2.872050">
						<ele>32</ele>
						<time>2026-07-24T21:43:54Z</time>
					</trkpt>
					<trkpt lat="50.741630" lon="2.872330">
						<ele>33</ele>
						<time>2026-07-24T21:43:57Z</time>
					</trkpt>
					<trkpt lat="50.741590" lon="2.872640">
						<ele>33</ele>
						<time>2026-07-24T21:44:00Z</time>
					</trkpt>
					<trkpt lat="50.741450" lon="2.873220">
						<ele>33</ele>
						<time>2026-07-24T21:44:07Z</time>
					</trkpt>
					<trkpt lat="50.741110" lon="2.874240">
						<ele>32</ele>
						<time>2026-07-24T21:44:20Z</time>
					</trkpt>
					<trkpt lat="50.739360" lon="2.874210">
						<ele>31</ele>
						<time>2026-07-24T21:44:51Z</time>
					</trkpt>
					<trkpt lat="50.738110" lon="2.874900">
						<ele>31</ele>
						<time>2026-07-24T21:45:15Z</time>
					</trkpt>
					<trkpt lat="50.736380" lon="2.875680">
						<ele>21</ele>
						<time>2026-07-24T21:45:47Z</time>
					</trkpt>
					<trkpt lat="50.736030" lon="2.875760">
						<ele>19</ele>
						<time>2026-07-24T21:45:53Z</time>
					</trkpt>
					<trkpt lat="50.735620" lon="2.875750">
						<ele>19</ele>
						<time>2026-07-24T21:46:01Z</time>
					</trkpt>
					<trkpt lat="50.735640" lon="2.877280">
						<ele>19</ele>
						<time>2026-07-24T21:46:18Z</time>
					</trkpt>
					<trkpt lat="50.735610" lon="2.878010">
						<ele>18</ele>
						<time>2026-07-24T21:46:26Z</time>
					</trkpt>
					<trkpt lat="50.735360" lon="2.880320">
						<ele>18</ele>
						<time>2026-07-24T21:46:52Z</time>
					</trkpt>
					<trkpt lat="50.735340" lon="2.880830">
						<ele>19</ele>
						<time>2026-07-24T21:46:58Z</time>
					</trkpt>
					<trkpt lat="50.735380" lon="2.881420">
						<ele>20</ele>
						<time>2026-07-24T21:47:05Z</time>
					</trkpt>
					<trkpt lat="50.732180" lon="2.879960">
						<ele>19</ele>
						<time>2026-07-24T21:48:04Z</time>
					</trkpt>
					<trkpt lat="50.732200" lon="2.881770">
						<ele>22</ele>
						<time>2026-07-24T21:48:25Z</time>
					</trkpt>
					<trkpt lat="50.732300" lon="2.884080">
						<ele>23</ele>
						<time>2026-07-24T21:48:51Z</time>
					</trkpt>
					<trkpt lat="50.732370" lon="2.888020">
						<ele>19</ele>
						<time>2026-07-24T21:49:35Z</time>
					</trkpt>
					<trkpt lat="50.732390" lon="2.888200">
						<ele>19</ele>
						<time>2026-07-24T21:49:37Z</time>
					</trkpt>
					<trkpt lat="50.732630" lon="2.889000">
						<ele>22</ele>
						<time>2026-07-24T21:49:47Z</time>
					</trkpt>
					<trkpt lat="50.733060" lon="2.890690">
						<ele>25</ele>
						<time>2026-07-24T21:50:08Z</time>
					</trkpt>
					<trkpt lat="50.733270" lon="2.891770">
						<ele>27</ele>
						<time>2026-07-24T21:50:20Z</time>
					</trkpt>
					<trkpt lat="50.733340" lon="2.891860">
						<ele>27</ele>
						<time>2026-07-24T21:50:22Z</time>
					</trkpt>
					<trkpt lat="50.733400" lon="2.891860">
						<ele>27</ele>
						<time>2026-07-24T21:50:23Z</time>
					</trkpt>
					<trkpt lat="50.735380" lon="2.890960">
						<ele>28</ele>
						<time>2026-07-24T21:51:00Z</time>
					</trkpt>
					<trkpt lat="50.736140" lon="2.890570">
						<ele>29</ele>
						<time>2026-07-24T21:51:14Z</time>
					</trkpt>
					<trkpt lat="50.737430" lon="2.890110">
						<ele>28</ele>
						<time>2026-07-24T21:51:37Z</time>
					</trkpt>
					<trkpt lat="50.738650" lon="2.889390">
						<ele>23</ele>
						<time>2026-07-24T21:52:01Z</time>
					</trkpt>
					<trkpt lat="50.739150" lon="2.888910">
						<ele>19</ele>
						<time>2026-07-24T21:52:11Z</time>
					</trkpt>
					<trkpt lat="50.739660" lon="2.888560">
						<ele>20</ele>
						<time>2026-07-24T21:52:21Z</time>
					</trkpt>
					<trkpt lat="50.739900" lon="2.888440">
						<ele>20</ele>
						<time>2026-07-24T21:52:25Z</time>
					</trkpt>
					<trkpt lat="50.740040" lon="2.888900">
						<ele>20</ele>
						<time>2026-07-24T21:52:31Z</time>
					</trkpt>
					<trkpt lat="50.740350" lon="2.890200">
						<ele>20</ele>
						<time>2026-07-24T21:52:47Z</time>
					</trkpt>
					<trkpt lat="50.740610" lon="2.891730">
						<ele>23</ele>
						<time>2026-07-24T21:53:05Z</time>
					</trkpt>
					<trkpt lat="50.741100" lon="2.893650">
						<ele>20</ele>
						<time>2026-07-24T21:53:28Z</time>
					</trkpt>
					<trkpt lat="50.741820" lon="2.895770">
						<ele>20</ele>
						<time>2026-07-24T21:53:55Z</time>
					</trkpt>
					<trkpt lat="50.741910" lon="2.897270">
						<ele>19</ele>
						<time>2026-07-24T21:54:12Z</time>
					</trkpt>
					<trkpt lat="50.742020" lon="2.898480">
						<ele>19</ele>
						<time>2026-07-24T21:54:26Z</time>
					</trkpt>
					<trkpt lat="50.742120" lon="2.898570">
						<ele>20</ele>
						<time>2026-07-24T21:54:28Z</time>
					</trkpt>
					<trkpt lat="50.742640" lon="2.898820">
						<ele>20</ele>
						<time>2026-07-24T21:54:37Z</time>
					</trkpt>
					<trkpt lat="50.743200" lon="2.899180">
						<ele>22</ele>
						<time>2026-07-24T21:54:48Z</time>
					</trkpt>
					<trkpt lat="50.744180" lon="2.900110">
						<ele>24</ele>
						<time>2026-07-24T21:55:08Z</time>
					</trkpt>
					<trkpt lat="50.744270" lon="2.900140">
						<ele>24</ele>
						<time>2026-07-24T21:55:10Z</time>
					</trkpt>
					<trkpt lat="50.744370" lon="2.901650">
						<ele>27</ele>
						<time>2026-07-24T21:55:27Z</time>
					</trkpt>
					<trkpt lat="50.744380" lon="2.902890">
						<ele>28</ele>
						<time>2026-07-24T21:55:41Z</time>
					</trkpt>
					<trkpt lat="50.744300" lon="2.903040">
						<ele>28</ele>
						<time>2026-07-24T21:55:43Z</time>
					</trkpt>
					<trkpt lat="50.743290" lon="2.903700">
						<ele>26</ele>
						<time>2026-07-24T21:56:03Z</time>
					</trkpt>
					<trkpt lat="50.743030" lon="2.903930">
						<ele>26</ele>
						<time>2026-07-24T21:56:08Z</time>
					</trkpt>
					<trkpt lat="50.742830" lon="2.904520">
						<ele>26</ele>
						<time>2026-07-24T21:56:16Z</time>
					</trkpt>
					<trkpt lat="50.742650" lon="2.905330">
						<ele>27</ele>
						<time>2026-07-24T21:56:25Z</time>
					</trkpt>
					<trkpt lat="50.742590" lon="2.905710">
						<ele>28</ele>
						<time>2026-07-24T21:56:30Z</time>
					</trkpt>
					<trkpt lat="50.742520" lon="2.907020">
						<ele>28</ele>
						<time>2026-07-24T21:56:45Z</time>
					</trkpt>
					<trkpt lat="50.742530" lon="2.907460">
						<ele>29</ele>
						<time>2026-07-24T21:56:49Z</time>
					</trkpt>
					<trkpt lat="50.742330" lon="2.907580">
						<ele>28</ele>
						<time>2026-07-24T21:56:53Z</time>
					</trkpt>
					<trkpt lat="50.741850" lon="2.907790">
						<ele>24</ele>
						<time>2026-07-24T21:57:02Z</time>
					</trkpt>
					<trkpt lat="50.741500" lon="2.907890">
						<ele>22</ele>
						<time>2026-07-24T21:57:08Z</time>
					</trkpt>
					<trkpt lat="50.741140" lon="2.907900">
						<ele>21</ele>
						<time>2026-07-24T21:57:15Z</time>
					</trkpt>
					<trkpt lat="50.740360" lon="2.907770">
						<ele>19</ele>
						<time>2026-07-24T21:57:29Z</time>
					</trkpt>
					<trkpt lat="50.740130" lon="2.907820">
						<ele>18</ele>
						<time>2026-07-24T21:57:33Z</time>
					</trkpt>
					<trkpt lat="50.738030" lon="2.908660">
						<ele>23</ele>
						<time>2026-07-24T21:58:12Z</time>
					</trkpt>
					<trkpt lat="50.736900" lon="2.909220">
						<ele>21</ele>
						<time>2026-07-24T21:58:33Z</time>
					</trkpt>
					<trkpt lat="50.736840" lon="2.909050">
						<ele>22</ele>
						<time>2026-07-24T21:58:35Z</time>
					</trkpt>
					<trkpt lat="50.736720" lon="2.908920">
						<ele>23</ele>
						<time>2026-07-24T21:58:37Z</time>
					</trkpt>
					<trkpt lat="50.736530" lon="2.908950">
						<ele>23</ele>
						<time>2026-07-24T21:58:41Z</time>
					</trkpt>
					<trkpt lat="50.735510" lon="2.909360">
						<ele>22</ele>
						<time>2026-07-24T21:58:59Z</time>
					</trkpt>
					<trkpt lat="50.735300" lon="2.909490">
						<ele>21</ele>
						<time>2026-07-24T21:59:04Z</time>
					</trkpt>
					<trkpt lat="50.734080" lon="2.910530">
						<ele>18</ele>
						<time>2026-07-24T21:59:28Z</time>
					</trkpt>
					<trkpt lat="50.732460" lon="2.911650">
						<ele>17</ele>
						<time>2026-07-24T22:00:00Z</time>
					</trkpt>
					<trkpt lat="50.732210" lon="2.911900">
						<ele>17</ele>
						<time>2026-07-24T22:00:05Z</time>
					</trkpt>
					<trkpt lat="50.731890" lon="2.912170">
						<ele>17</ele>
						<time>2026-07-24T22:00:11Z</time>
					</trkpt>
					<trkpt lat="50.731400" lon="2.912230">
						<ele>17</ele>
						<time>2026-07-24T22:00:20Z</time>
					</trkpt>
					<trkpt lat="50.730220" lon="2.912310">
						<ele>18</ele>
						<time>2026-07-24T22:00:41Z</time>
					</trkpt>
					<trkpt lat="50.729790" lon="2.912360">
						<ele>18</ele>
						<time>2026-07-24T22:00:49Z</time>
					</trkpt>
					<trkpt lat="50.729380" lon="2.912530">
						<ele>19</ele>
						<time>2026-07-24T22:00:56Z</time>
					</trkpt>
					<trkpt lat="50.728800" lon="2.912850">
						<ele>18</ele>
						<time>2026-07-24T22:01:07Z</time>
					</trkpt>
					<trkpt lat="50.728140" lon="2.913280">
						<ele>17</ele>
						<time>2026-07-24T22:01:20Z</time>
					</trkpt>
					<trkpt lat="50.727250" lon="2.913750">
						<ele>16</ele>
						<time>2026-07-24T22:01:37Z</time>
					</trkpt>
					<trkpt lat="50.727070" lon="2.913880">
						<ele>17</ele>
						<time>2026-07-24T22:01:40Z</time>
					</trkpt>
					<trkpt lat="50.726990" lon="2.913870">
						<ele>17</ele>
						<time>2026-07-24T22:01:42Z</time>
					</trkpt>
					<trkpt lat="50.726610" lon="2.913660">
						<ele>16</ele>
						<time>2026-07-24T22:01:49Z</time>
					</trkpt>
					<trkpt lat="50.725250" lon="2.913130">
						<ele>15</ele>
						<time>2026-07-24T22:02:14Z</time>
					</trkpt>
					<trkpt lat="50.724530" lon="2.912940">
						<ele>16</ele>
						<time>2026-07-24T22:02:27Z</time>
					</trkpt>
					<trkpt lat="50.723200" lon="2.912720">
						<ele>16</ele>
						<time>2026-07-24T22:02:50Z</time>
					</trkpt>
					<trkpt lat="50.721870" lon="2.912710">
						<ele>16</ele>
						<time>2026-07-24T22:03:14Z</time>
					</trkpt>
					<trkpt lat="50.720780" lon="2.912830">
						<ele>14</ele>
						<time>2026-07-24T22:03:34Z</time>
					</trkpt>
					<trkpt lat="50.720150" lon="2.912940">
						<ele>16</ele>
						<time>2026-07-24T22:03:45Z</time>
					</trkpt>
					<trkpt lat="50.717820" lon="2.913410">
						<ele>16</ele>
						<time>2026-07-24T22:04:27Z</time>
					</trkpt>
					<trkpt lat="50.716070" lon="2.913790">
						<ele>16</ele>
						<time>2026-07-24T22:04:58Z</time>
					</trkpt>
					<trkpt lat="50.714940" lon="2.913880">
						<ele>17</ele>
						<time>2026-07-24T22:05:18Z</time>
					</trkpt>
					<trkpt lat="50.713920" lon="2.913920">
						<ele>19</ele>
						<time>2026-07-24T22:05:36Z</time>
					</trkpt>
					<trkpt lat="50.713510" lon="2.914080">
						<ele>18</ele>
						<time>2026-07-24T22:05:44Z</time>
					</trkpt>
					<trkpt lat="50.713350" lon="2.914200">
						<ele>18</ele>
						<time>2026-07-24T22:05:47Z</time>
					</trkpt>
					<trkpt lat="50.712290" lon="2.913280">
						<ele>17</ele>
						<time>2026-07-24T22:06:09Z</time>
					</trkpt>
					<trkpt lat="50.712160" lon="2.913240">
						<ele>17</ele>
						<time>2026-07-24T22:06:11Z</time>
					</trkpt>
					<trkpt lat="50.712200" lon="2.913070">
						<ele>17</ele>
						<time>2026-07-24T22:06:13Z</time>
					</trkpt>
					<trkpt lat="50.711510" lon="2.912500">
						<ele>18</ele>
						<time>2026-07-24T22:06:27Z</time>
					</trkpt>
					<trkpt lat="50.711420" lon="2.912510">
						<ele>17</ele>
						<time>2026-07-24T22:06:28Z</time>
					</trkpt>
					<trkpt lat="50.711270" lon="2.912110">
						<ele>17</ele>
						<time>2026-07-24T22:06:34Z</time>
					</trkpt>
					<trkpt lat="50.711070" lon="2.911090">
						<ele>18</ele>
						<time>2026-07-24T22:06:46Z</time>
					</trkpt>
					<trkpt lat="50.710940" lon="2.910580">
						<ele>18</ele>
						<time>2026-07-24T22:06:52Z</time>
					</trkpt>
					<trkpt lat="50.710510" lon="2.908550">
						<ele>18</ele>
						<time>2026-07-24T22:07:16Z</time>
					</trkpt>
					<trkpt lat="50.710180" lon="2.906540">
						<ele>16</ele>
						<time>2026-07-24T22:07:39Z</time>
					</trkpt>
					<trkpt lat="50.708600" lon="2.907680">
						<ele>16</ele>
						<time>2026-07-24T22:08:10Z</time>
					</trkpt>
					<trkpt lat="50.708000" lon="2.908050">
						<ele>16</ele>
						<time>2026-07-24T22:08:22Z</time>
					</trkpt>
					<trkpt lat="50.707250" lon="2.908570">
						<ele>16</ele>
						<time>2026-07-24T22:08:36Z</time>
					</trkpt>
					<trkpt lat="50.707190" lon="2.908640">
						<ele>15</ele>
						<time>2026-07-24T22:08:38Z</time>
					</trkpt>
					<trkpt lat="50.707030" lon="2.908950">
						<ele>15</ele>
						<time>2026-07-24T22:08:42Z</time>
					</trkpt>
					<trkpt lat="50.705280" lon="2.910710">
						<ele>15</ele>
						<time>2026-07-24T22:09:19Z</time>
					</trkpt>
					<trkpt lat="50.704360" lon="2.911580">
						<ele>12</ele>
						<time>2026-07-24T22:09:38Z</time>
					</trkpt>
					<trkpt lat="50.704120" lon="2.910850">
						<ele>12</ele>
						<time>2026-07-24T22:09:47Z</time>
					</trkpt>
					<trkpt lat="50.703890" lon="2.910430">
						<ele>13</ele>
						<time>2026-07-24T22:09:54Z</time>
					</trkpt>
					<trkpt lat="50.703900" lon="2.910280">
						<ele>13</ele>
						<time>2026-07-24T22:09:55Z</time>
					</trkpt>
					<trkpt lat="50.704040" lon="2.910000">
						<ele>14</ele>
						<time>2026-07-24T22:09:59Z</time>
					</trkpt>
					<trkpt lat="50.703960" lon="2.909510">
						<ele>15</ele>
						<time>2026-07-24T22:10:05Z</time>
					</trkpt>
					<trkpt lat="50.703630" lon="2.908750">
						<ele>15</ele>
						<time>2026-07-24T22:10:16Z</time>
					</trkpt>
					<trkpt lat="50.703490" lon="2.908500">
						<ele>15</ele>
						<time>2026-07-24T22:10:19Z</time>
					</trkpt>
					<trkpt lat="50.703420" lon="2.908420">
						<ele>15</ele>
						<time>2026-07-24T22:10:21Z</time>
					</trkpt>
					<trkpt lat="50.702980" lon="2.908270">
						<ele>15</ele>
						<time>2026-07-24T22:10:29Z</time>
					</trkpt>
					<trkpt lat="50.701920" lon="2.906830">
						<ele>16</ele>
						<time>2026-07-24T22:10:54Z</time>
					</trkpt>
					<trkpt lat="50.701790" lon="2.906720">
						<ele>17</ele>
						<time>2026-07-24T22:10:56Z</time>
					</trkpt>
					<trkpt lat="50.701670" lon="2.906750">
						<ele>17</ele>
						<time>2026-07-24T22:10:58Z</time>
					</trkpt>
					<trkpt lat="50.701420" lon="2.906970">
						<ele>15</ele>
						<time>2026-07-24T22:11:04Z</time>
					</trkpt>
					<trkpt lat="50.701050" lon="2.907430">
						<ele>13</ele>
						<time>2026-07-24T22:11:12Z</time>
					</trkpt>
					<trkpt lat="50.700880" lon="2.907420">
						<ele>13</ele>
						<time>2026-07-24T22:11:15Z</time>
					</trkpt>
					<trkpt lat="50.700640" lon="2.907330">
						<ele>13</ele>
						<time>2026-07-24T22:11:19Z</time>
					</trkpt>
					<trkpt lat="50.700420" lon="2.907330">
						<ele>12</ele>
						<time>2026-07-24T22:11:23Z</time>
					</trkpt>
					<trkpt lat="50.700330" lon="2.907290">
						<ele>12</ele>
						<time>2026-07-24T22:11:25Z</time>
					</trkpt>
					<trkpt lat="50.699110" lon="2.906070">
						<ele>12</ele>
						<time>2026-07-24T22:11:51Z</time>
					</trkpt>
					<trkpt lat="50.698580" lon="2.905490">
						<ele>12</ele>
						<time>2026-07-24T22:12:02Z</time>
					</trkpt>
					<trkpt lat="50.698330" lon="2.905110">
						<ele>13</ele>
						<time>2026-07-24T22:12:08Z</time>
					</trkpt>
					<trkpt lat="50.697290" lon="2.906710">
						<ele>13</ele>
						<time>2026-07-24T22:12:34Z</time>
					</trkpt>
					<trkpt lat="50.696660" lon="2.907600">
						<ele>12</ele>
						<time>2026-07-24T22:12:49Z</time>
					</trkpt>
					<trkpt lat="50.695020" lon="2.910050">
						<ele>14</ele>
						<time>2026-07-24T22:13:29Z</time>
					</trkpt>
					<trkpt lat="50.694870" lon="2.910310">
						<ele>14</ele>
						<time>2026-07-24T22:13:33Z</time>
					</trkpt>
					<trkpt lat="50.694780" lon="2.910650">
						<ele>15</ele>
						<time>2026-07-24T22:13:37Z</time>
					</trkpt>
					<trkpt lat="50.694690" lon="2.911440">
						<ele>16</ele>
						<time>2026-07-24T22:13:47Z</time>
					</trkpt>
					<trkpt lat="50.694610" lon="2.911650">
						<ele>17</ele>
						<time>2026-07-24T22:13:49Z</time>
					</trkpt>
					<trkpt lat="50.694250" lon="2.912430">
						<ele>18</ele>
						<time>2026-07-24T22:14:00Z</time>
					</trkpt>
					<trkpt lat="50.693650" lon="2.913430">
						<ele>18</ele>
						<time>2026-07-24T22:14:16Z</time>
					</trkpt>
					<trkpt lat="50.693990" lon="2.914060">
						<ele>18</ele>
						<time>2026-07-24T22:14:25Z</time>
					</trkpt>
					<trkpt lat="50.693060" lon="2.915550">
						<ele>18</ele>
						<time>2026-07-24T22:14:49Z</time>
					</trkpt>
					</trkseg>
				</trk>
			</gpx>
