<?xml version="1.0" encoding="UTF-8" ?>
<gpx version="1.1" xmlns:xsi="http://www.w3.org/2001/XMLSchema-instance"
    xmlns="http://www.topografix.com/GPX/1/1"
    xsi:schemaLocation="http://www.topografix.com/GPX/1/1 http://www.topografix.com/GPX/1/1/gpx.xsd"
    creator="Openrunner - https://www.openrunner.com" >
                <wpt lat="50.693173" lon="2.854923">
                        <ele>0</ele>
                        <name><![CDATA[Ravitaillement]]></name>
                        <desc><![CDATA[]]></desc>
                    <sym>3</sym>
                </wpt>
            	<trk>
	                   <name>UCH MARCHE 13KM AOÛT 2026-23965376</name>
						<trkseg>
					<trkpt lat="50.693190" lon="2.915740">
						<ele>18</ele>
						<time>2026-07-24T20:22:14Z</time>
					</trkpt>
					<trkpt lat="50.693080" lon="2.915570">
						<ele>18</ele>
						<time>2026-07-24T20:22:26Z</time>
					</trkpt>
					<trkpt lat="50.693060" lon="2.915550">
						<ele>18</ele>
						<time>2026-07-24T20:22:28Z</time>
					</trkpt>
					<trkpt lat="50.693150" lon="2.915420">
						<ele>19</ele>
						<time>2026-07-24T20:22:38Z</time>
					</trkpt>
					<trkpt lat="50.693420" lon="2.914970">
						<ele>20</ele>
						<time>2026-07-24T20:23:09Z</time>
					</trkpt>
					<trkpt lat="50.693670" lon="2.914570">
						<ele>19</ele>
						<time>2026-07-24T20:23:38Z</time>
					</trkpt>
					<trkpt lat="50.693890" lon="2.914210">
						<ele>18</ele>
						<time>2026-07-24T20:24:03Z</time>
					</trkpt>
					<trkpt lat="50.693990" lon="2.914060">
						<ele>18</ele>
						<time>2026-07-24T20:24:14Z</time>
					</trkpt>
					<trkpt lat="50.693650" lon="2.913430">
						<ele>18</ele>
						<time>2026-07-24T20:24:56Z</time>
					</trkpt>
					<trkpt lat="50.693690" lon="2.913360">
						<ele>18</ele>
						<time>2026-07-24T20:25:01Z</time>
					</trkpt>
					<trkpt lat="50.694170" lon="2.912580">
						<ele>18</ele>
						<time>2026-07-24T20:25:56Z</time>
					</trkpt>
					<trkpt lat="50.694230" lon="2.912470">
						<ele>18</ele>
						<time>2026-07-24T20:26:04Z</time>
					</trkpt>
					<trkpt lat="50.694250" lon="2.912430">
						<ele>18</ele>
						<time>2026-07-24T20:26:06Z</time>
					</trkpt>
					<trkpt lat="50.694380" lon="2.912130">
						<ele>17</ele>
						<time>2026-07-24T20:26:25Z</time>
					</trkpt>
					<trkpt lat="50.694620" lon="2.911650">
						<ele>17</ele>
						<time>2026-07-24T20:26:56Z</time>
					</trkpt>
					<trkpt lat="50.694650" lon="2.911560">
						<ele>17</ele>
						<time>2026-07-24T20:27:01Z</time>
					</trkpt>
					<trkpt lat="50.694690" lon="2.911440">
						<ele>16</ele>
						<time>2026-07-24T20:27:08Z</time>
					</trkpt>
					<trkpt lat="50.694760" lon="2.910880">
						<ele>15</ele>
						<time>2026-07-24T20:27:37Z</time>
					</trkpt>
					<trkpt lat="50.694780" lon="2.910650">
						<ele>15</ele>
						<time>2026-07-24T20:27:48Z</time>
					</trkpt>
					<trkpt lat="50.694820" lon="2.910470">
						<ele>14</ele>
						<time>2026-07-24T20:27:58Z</time>
					</trkpt>
					<trkpt lat="50.694910" lon="2.910430">
						<ele>14</ele>
						<time>2026-07-24T20:28:06Z</time>
					</trkpt>
					<trkpt lat="50.695050" lon="2.910220">
						<ele>14</ele>
						<time>2026-07-24T20:28:21Z</time>
					</trkpt>
					<trkpt lat="50.695020" lon="2.910050">
						<ele>14</ele>
						<time>2026-07-24T20:28:30Z</time>
					</trkpt>
					<trkpt lat="50.695590" lon="2.909200">
						<ele>13</ele>
						<time>2026-07-24T20:29:33Z</time>
					</trkpt>
					<trkpt lat="50.695610" lon="2.909180">
						<ele>13</ele>
						<time>2026-07-24T20:29:35Z</time>
					</trkpt>
					<trkpt lat="50.695690" lon="2.909060">
						<ele>13</ele>
						<time>2026-07-24T20:29:44Z</time>
					</trkpt>
					<trkpt lat="50.696110" lon="2.908430">
						<ele>12</ele>
						<time>2026-07-24T20:30:30Z</time>
					</trkpt>
					<trkpt lat="50.696160" lon="2.908350">
						<ele>12</ele>
						<time>2026-07-24T20:30:36Z</time>
					</trkpt>
					<trkpt lat="50.696660" lon="2.907610">
						<ele>12</ele>
						<time>2026-07-24T20:31:30Z</time>
					</trkpt>
					<trkpt lat="50.697130" lon="2.906930">
						<ele>13</ele>
						<time>2026-07-24T20:32:22Z</time>
					</trkpt>
					<trkpt lat="50.697290" lon="2.906710">
						<ele>13</ele>
						<time>2026-07-24T20:32:39Z</time>
					</trkpt>
					<trkpt lat="50.697660" lon="2.906120">
						<ele>13</ele>
						<time>2026-07-24T20:33:21Z</time>
					</trkpt>
					<trkpt lat="50.698130" lon="2.905420">
						<ele>13</ele>
						<time>2026-07-24T20:34:12Z</time>
					</trkpt>
					<trkpt lat="50.698330" lon="2.905110">
						<ele>13</ele>
						<time>2026-07-24T20:34:35Z</time>
					</trkpt>
					<trkpt lat="50.698300" lon="2.905050">
						<ele>13</ele>
						<time>2026-07-24T20:34:39Z</time>
					</trkpt>
					<trkpt lat="50.697880" lon="2.904300">
						<ele>14</ele>
						<time>2026-07-24T20:35:29Z</time>
					</trkpt>
					<trkpt lat="50.697370" lon="2.903290">
						<ele>14</ele>
						<time>2026-07-24T20:36:35Z</time>
					</trkpt>
					<trkpt lat="50.697040" lon="2.902600">
						<ele>14</ele>
						<time>2026-07-24T20:37:19Z</time>
					</trkpt>
					<trkpt lat="50.696970" lon="2.902470">
						<ele>14</ele>
						<time>2026-07-24T20:37:27Z</time>
					</trkpt>
					<trkpt lat="50.696940" lon="2.902350">
						<ele>14</ele>
						<time>2026-07-24T20:37:34Z</time>
					</trkpt>
					<trkpt lat="50.696870" lon="2.901990">
						<ele>13</ele>
						<time>2026-07-24T20:37:53Z</time>
					</trkpt>
					<trkpt lat="50.696890" lon="2.901970">
						<ele>13</ele>
						<time>2026-07-24T20:37:55Z</time>
					</trkpt>
					<trkpt lat="50.697050" lon="2.901810">
						<ele>13</ele>
						<time>2026-07-24T20:38:10Z</time>
					</trkpt>
					<trkpt lat="50.697220" lon="2.901610">
						<ele>13</ele>
						<time>2026-07-24T20:38:27Z</time>
					</trkpt>
					<trkpt lat="50.697330" lon="2.901450">
						<ele>13</ele>
						<time>2026-07-24T20:38:39Z</time>
					</trkpt>
					<trkpt lat="50.697400" lon="2.901320">
						<ele>13</ele>
						<time>2026-07-24T20:38:48Z</time>
					</trkpt>
					<trkpt lat="50.697480" lon="2.901160">
						<ele>14</ele>
						<time>2026-07-24T20:38:58Z</time>
					</trkpt>
					<trkpt lat="50.697770" lon="2.900470">
						<ele>14</ele>
						<time>2026-07-24T20:39:40Z</time>
					</trkpt>
					<trkpt lat="50.697900" lon="2.900200">
						<ele>14</ele>
						<time>2026-07-24T20:39:57Z</time>
					</trkpt>
					<trkpt lat="50.697860" lon="2.900120">
						<ele>14</ele>
						<time>2026-07-24T20:40:02Z</time>
					</trkpt>
					<trkpt lat="50.697360" lon="2.899180">
						<ele>13</ele>
						<time>2026-07-24T20:41:05Z</time>
					</trkpt>
					<trkpt lat="50.697240" lon="2.898960">
						<ele>13</ele>
						<time>2026-07-24T20:41:19Z</time>
					</trkpt>
					<trkpt lat="50.697000" lon="2.898510">
						<ele>12</ele>
						<time>2026-07-24T20:41:49Z</time>
					</trkpt>
					<trkpt lat="50.696750" lon="2.898680">
						<ele>12</ele>
						<time>2026-07-24T20:42:11Z</time>
					</trkpt>
					<trkpt lat="50.696290" lon="2.897920">
						<ele>13</ele>
						<time>2026-07-24T20:43:04Z</time>
					</trkpt>
					<trkpt lat="50.695830" lon="2.897290">
						<ele>14</ele>
						<time>2026-07-24T20:43:53Z</time>
					</trkpt>
					<trkpt lat="50.695770" lon="2.897140">
						<ele>14</ele>
						<time>2026-07-24T20:44:02Z</time>
					</trkpt>
					<trkpt lat="50.695750" lon="2.897150">
						<ele>14</ele>
						<time>2026-07-24T20:44:04Z</time>
					</trkpt>
					<trkpt lat="50.695770" lon="2.897140">
						<ele>14</ele>
						<time>2026-07-24T20:44:05Z</time>
					</trkpt>
					<trkpt lat="50.695870" lon="2.897060">
						<ele>13</ele>
						<time>2026-07-24T20:44:14Z</time>
					</trkpt>
					<trkpt lat="50.696050" lon="2.896880">
						<ele>13</ele>
						<time>2026-07-24T20:44:32Z</time>
					</trkpt>
					<trkpt lat="50.696250" lon="2.896630">
						<ele>13</ele>
						<time>2026-07-24T20:44:52Z</time>
					</trkpt>
					<trkpt lat="50.696850" lon="2.895970">
						<ele>13</ele>
						<time>2026-07-24T20:45:51Z</time>
					</trkpt>
					<trkpt lat="50.697230" lon="2.895430">
						<ele>13</ele>
						<time>2026-07-24T20:46:31Z</time>
					</trkpt>
					<trkpt lat="50.697420" lon="2.895240">
						<ele>13</ele>
						<time>2026-07-24T20:46:49Z</time>
					</trkpt>
					<trkpt lat="50.697790" lon="2.894890">
						<ele>14</ele>
						<time>2026-07-24T20:47:24Z</time>
					</trkpt>
					<trkpt lat="50.698080" lon="2.894630">
						<ele>15</ele>
						<time>2026-07-24T20:47:51Z</time>
					</trkpt>
					<trkpt lat="50.698410" lon="2.894300">
						<ele>17</ele>
						<time>2026-07-24T20:48:22Z</time>
					</trkpt>
					<trkpt lat="50.698730" lon="2.894020">
						<ele>16</ele>
						<time>2026-07-24T20:48:51Z</time>
					</trkpt>
					<trkpt lat="50.699110" lon="2.893730">
						<ele>16</ele>
						<time>2026-07-24T20:49:25Z</time>
					</trkpt>
					<trkpt lat="50.699200" lon="2.893660">
						<ele>17</ele>
						<time>2026-07-24T20:49:33Z</time>
					</trkpt>
					<trkpt lat="50.699790" lon="2.893110">
						<ele>17</ele>
						<time>2026-07-24T20:50:28Z</time>
					</trkpt>
					<trkpt lat="50.700250" lon="2.892640">
						<ele>17</ele>
						<time>2026-07-24T20:51:12Z</time>
					</trkpt>
					<trkpt lat="50.700550" lon="2.892340">
						<ele>17</ele>
						<time>2026-07-24T20:51:40Z</time>
					</trkpt>
					<trkpt lat="50.700570" lon="2.892320">
						<ele>17</ele>
						<time>2026-07-24T20:51:42Z</time>
					</trkpt>
					<trkpt lat="50.700830" lon="2.892070">
						<ele>17</ele>
						<time>2026-07-24T20:52:07Z</time>
					</trkpt>
					<trkpt lat="50.700960" lon="2.891950">
						<ele>17</ele>
						<time>2026-07-24T20:52:19Z</time>
					</trkpt>
					<trkpt lat="50.701040" lon="2.891910">
						<ele>17</ele>
						<time>2026-07-24T20:52:25Z</time>
					</trkpt>
					<trkpt lat="50.701130" lon="2.891930">
						<ele>16</ele>
						<time>2026-07-24T20:52:33Z</time>
					</trkpt>
					<trkpt lat="50.701220" lon="2.892040">
						<ele>16</ele>
						<time>2026-07-24T20:52:42Z</time>
					</trkpt>
					<trkpt lat="50.701280" lon="2.892170">
						<ele>16</ele>
						<time>2026-07-24T20:52:50Z</time>
					</trkpt>
					<trkpt lat="50.701360" lon="2.892410">
						<ele>16</ele>
						<time>2026-07-24T20:53:04Z</time>
					</trkpt>
					<trkpt lat="50.701450" lon="2.892750">
						<ele>16</ele>
						<time>2026-07-24T20:53:22Z</time>
					</trkpt>
					<trkpt lat="50.701550" lon="2.892970">
						<ele>16</ele>
						<time>2026-07-24T20:53:36Z</time>
					</trkpt>
					<trkpt lat="50.701850" lon="2.893520">
						<ele>16</ele>
						<time>2026-07-24T20:54:13Z</time>
					</trkpt>
					<trkpt lat="50.702140" lon="2.894010">
						<ele>17</ele>
						<time>2026-07-24T20:54:47Z</time>
					</trkpt>
					<trkpt lat="50.702410" lon="2.894380">
						<ele>17</ele>
						<time>2026-07-24T20:55:15Z</time>
					</trkpt>
					<trkpt lat="50.702520" lon="2.894550">
						<ele>17</ele>
						<time>2026-07-24T20:55:28Z</time>
					</trkpt>
					<trkpt lat="50.702600" lon="2.894710">
						<ele>17</ele>
						<time>2026-07-24T20:55:38Z</time>
					</trkpt>
					<trkpt lat="50.702740" lon="2.895050">
						<ele>17</ele>
						<time>2026-07-24T20:55:59Z</time>
					</trkpt>
					<trkpt lat="50.702840" lon="2.895260">
						<ele>16</ele>
						<time>2026-07-24T20:56:12Z</time>
					</trkpt>
					<trkpt lat="50.703350" lon="2.894740">
						<ele>16</ele>
						<time>2026-07-24T20:57:01Z</time>
					</trkpt>
					<trkpt lat="50.704280" lon="2.893570">
						<ele>16</ele>
						<time>2026-07-24T20:58:36Z</time>
					</trkpt>
					<trkpt lat="50.704520" lon="2.893320">
						<ele>16</ele>
						<time>2026-07-24T20:58:59Z</time>
					</trkpt>
					<trkpt lat="50.705020" lon="2.892710">
						<ele>17</ele>
						<time>2026-07-24T20:59:49Z</time>
					</trkpt>
					<trkpt lat="50.705440" lon="2.892250">
						<ele>17</ele>
						<time>2026-07-24T21:00:30Z</time>
					</trkpt>
					<trkpt lat="50.705420" lon="2.892200">
						<ele>17</ele>
						<time>2026-07-24T21:00:33Z</time>
					</trkpt>
					<trkpt lat="50.704820" lon="2.890870">
						<ele>17</ele>
						<time>2026-07-24T21:01:56Z</time>
					</trkpt>
					<trkpt lat="50.704440" lon="2.890030">
						<ele>16</ele>
						<time>2026-07-24T21:02:49Z</time>
					</trkpt>
					<trkpt lat="50.704430" lon="2.889820">
						<ele>16</ele>
						<time>2026-07-24T21:02:59Z</time>
					</trkpt>
					<trkpt lat="50.704770" lon="2.889300">
						<ele>17</ele>
						<time>2026-07-24T21:03:37Z</time>
					</trkpt>
					<trkpt lat="50.704950" lon="2.889010">
						<ele>17</ele>
						<time>2026-07-24T21:03:58Z</time>
					</trkpt>
					<trkpt lat="50.704960" lon="2.888940">
						<ele>17</ele>
						<time>2026-07-24T21:04:01Z</time>
					</trkpt>
					<trkpt lat="50.704990" lon="2.888890">
						<ele>17</ele>
						<time>2026-07-24T21:04:05Z</time>
					</trkpt>
					<trkpt lat="50.704990" lon="2.888880">
						<ele>17</ele>
						<time>2026-07-24T21:04:05Z</time>
					</trkpt>
					<trkpt lat="50.704870" lon="2.888640">
						<ele>18</ele>
						<time>2026-07-24T21:04:21Z</time>
					</trkpt>
					<trkpt lat="50.704600" lon="2.888140">
						<ele>17</ele>
						<time>2026-07-24T21:04:54Z</time>
					</trkpt>
					<trkpt lat="50.704600" lon="2.888150">
						<ele>17</ele>
						<time>2026-07-24T21:04:55Z</time>
					</trkpt>
					<trkpt lat="50.704600" lon="2.888140">
						<ele>17</ele>
						<time>2026-07-24T21:04:55Z</time>
					</trkpt>
					<trkpt lat="50.705080" lon="2.887490">
						<ele>17</ele>
						<time>2026-07-24T21:05:46Z</time>
					</trkpt>
					<trkpt lat="50.705200" lon="2.887360">
						<ele>17</ele>
						<time>2026-07-24T21:05:57Z</time>
					</trkpt>
					<trkpt lat="50.705530" lon="2.886960">
						<ele>17</ele>
						<time>2026-07-24T21:06:31Z</time>
					</trkpt>
					<trkpt lat="50.705730" lon="2.886660">
						<ele>17</ele>
						<time>2026-07-24T21:06:53Z</time>
					</trkpt>
					<trkpt lat="50.706240" lon="2.885810">
						<ele>17</ele>
						<time>2026-07-24T21:07:52Z</time>
					</trkpt>
					<trkpt lat="50.706490" lon="2.885420">
						<ele>17</ele>
						<time>2026-07-24T21:08:20Z</time>
					</trkpt>
					<trkpt lat="50.706530" lon="2.885390">
						<ele>17</ele>
						<time>2026-07-24T21:08:24Z</time>
					</trkpt>
					<trkpt lat="50.706580" lon="2.885380">
						<ele>17</ele>
						<time>2026-07-24T21:08:28Z</time>
					</trkpt>
					<trkpt lat="50.706580" lon="2.885380">
						<ele>17</ele>
						<time>2026-07-24T21:08:28Z</time>
					</trkpt>
					<trkpt lat="50.706580" lon="2.885380">
						<ele>17</ele>
						<time>2026-07-24T21:08:28Z</time>
					</trkpt>
					<trkpt lat="50.706570" lon="2.885040">
						<ele>17</ele>
						<time>2026-07-24T21:08:45Z</time>
					</trkpt>
					<trkpt lat="50.706540" lon="2.884020">
						<ele>18</ele>
						<time>2026-07-24T21:09:37Z</time>
					</trkpt>
					<trkpt lat="50.706530" lon="2.883920">
						<ele>17</ele>
						<time>2026-07-24T21:09:42Z</time>
					</trkpt>
					<trkpt lat="50.706500" lon="2.883780">
						<ele>17</ele>
						<time>2026-07-24T21:09:50Z</time>
					</trkpt>
					<trkpt lat="50.706500" lon="2.883790">
						<ele>17</ele>
						<time>2026-07-24T21:09:50Z</time>
					</trkpt>
					<trkpt lat="50.706500" lon="2.883780">
						<ele>17</ele>
						<time>2026-07-24T21:09:51Z</time>
					</trkpt>
					<trkpt lat="50.707070" lon="2.883360">
						<ele>18</ele>
						<time>2026-07-24T21:10:41Z</time>
					</trkpt>
					<trkpt lat="50.707200" lon="2.883260">
						<ele>18</ele>
						<time>2026-07-24T21:10:53Z</time>
					</trkpt>
					<trkpt lat="50.707490" lon="2.883060">
						<ele>19</ele>
						<time>2026-07-24T21:11:18Z</time>
					</trkpt>
					<trkpt lat="50.707520" lon="2.883030">
						<ele>19</ele>
						<time>2026-07-24T21:11:21Z</time>
					</trkpt>
					<trkpt lat="50.707760" lon="2.882850">
						<ele>18</ele>
						<time>2026-07-24T21:11:42Z</time>
					</trkpt>
					<trkpt lat="50.707860" lon="2.882800">
						<ele>18</ele>
						<time>2026-07-24T21:11:51Z</time>
					</trkpt>
					<trkpt lat="50.707980" lon="2.882630">
						<ele>18</ele>
						<time>2026-07-24T21:12:03Z</time>
					</trkpt>
					<trkpt lat="50.708120" lon="2.882520">
						<ele>18</ele>
						<time>2026-07-24T21:12:16Z</time>
					</trkpt>
					<trkpt lat="50.708150" lon="2.882540">
						<ele>18</ele>
						<time>2026-07-24T21:12:19Z</time>
					</trkpt>
					<trkpt lat="50.708250" lon="2.882440">
						<ele>18</ele>
						<time>2026-07-24T21:12:28Z</time>
					</trkpt>
					<trkpt lat="50.708240" lon="2.882400">
						<ele>18</ele>
						<time>2026-07-24T21:12:30Z</time>
					</trkpt>
					<trkpt lat="50.707980" lon="2.881560">
						<ele>18</ele>
						<time>2026-07-24T21:13:18Z</time>
					</trkpt>
					<trkpt lat="50.708840" lon="2.880920">
						<ele>18</ele>
						<time>2026-07-24T21:14:34Z</time>
					</trkpt>
					<trkpt lat="50.708670" lon="2.880580">
						<ele>18</ele>
						<time>2026-07-24T21:14:56Z</time>
					</trkpt>
					<trkpt lat="50.708570" lon="2.880250">
						<ele>18</ele>
						<time>2026-07-24T21:15:14Z</time>
					</trkpt>
					<trkpt lat="50.708470" lon="2.879890">
						<ele>19</ele>
						<time>2026-07-24T21:15:34Z</time>
					</trkpt>
					<trkpt lat="50.708450" lon="2.879910">
						<ele>18</ele>
						<time>2026-07-24T21:15:36Z</time>
					</trkpt>
					<trkpt lat="50.707300" lon="2.880620">
						<ele>16</ele>
						<time>2026-07-24T21:17:15Z</time>
					</trkpt>
					<trkpt lat="50.706830" lon="2.880860">
						<ele>16</ele>
						<time>2026-07-24T21:17:54Z</time>
					</trkpt>
					<trkpt lat="50.706830" lon="2.880860">
						<ele>16</ele>
						<time>2026-07-24T21:17:54Z</time>
					</trkpt>
					<trkpt lat="50.706770" lon="2.880890">
						<ele>16</ele>
						<time>2026-07-24T21:18:00Z</time>
					</trkpt>
					<trkpt lat="50.706760" lon="2.880860">
						<ele>16</ele>
						<time>2026-07-24T21:18:01Z</time>
					</trkpt>
					<trkpt lat="50.706760" lon="2.880840">
						<ele>16</ele>
						<time>2026-07-24T21:18:02Z</time>
					</trkpt>
					<trkpt lat="50.706450" lon="2.879610">
						<ele>15</ele>
						<time>2026-07-24T21:19:09Z</time>
					</trkpt>
					<trkpt lat="50.706440" lon="2.879450">
						<ele>15</ele>
						<time>2026-07-24T21:19:18Z</time>
					</trkpt>
					<trkpt lat="50.706420" lon="2.879290">
						<ele>15</ele>
						<time>2026-07-24T21:19:26Z</time>
					</trkpt>
					<trkpt lat="50.706390" lon="2.879150">
						<ele>16</ele>
						<time>2026-07-24T21:19:33Z</time>
					</trkpt>
					<trkpt lat="50.706330" lon="2.878930">
						<ele>16</ele>
						<time>2026-07-24T21:19:45Z</time>
					</trkpt>
					<trkpt lat="50.706280" lon="2.878820">
						<ele>16</ele>
						<time>2026-07-24T21:19:52Z</time>
					</trkpt>
					<trkpt lat="50.704850" lon="2.879390">
						<ele>13</ele>
						<time>2026-07-24T21:21:50Z</time>
					</trkpt>
					<trkpt lat="50.703780" lon="2.879340">
						<ele>12</ele>
						<time>2026-07-24T21:23:16Z</time>
					</trkpt>
					<trkpt lat="50.703760" lon="2.879330">
						<ele>12</ele>
						<time>2026-07-24T21:23:18Z</time>
					</trkpt>
					<trkpt lat="50.703820" lon="2.878990">
						<ele>12</ele>
						<time>2026-07-24T21:23:36Z</time>
					</trkpt>
					<trkpt lat="50.703780" lon="2.878960">
						<ele>13</ele>
						<time>2026-07-24T21:23:39Z</time>
					</trkpt>
					<trkpt lat="50.703770" lon="2.878900">
						<ele>13</ele>
						<time>2026-07-24T21:23:42Z</time>
					</trkpt>
					<trkpt lat="50.703780" lon="2.878830">
						<ele>13</ele>
						<time>2026-07-24T21:23:46Z</time>
					</trkpt>
					<trkpt lat="50.703820" lon="2.878720">
						<ele>13</ele>
						<time>2026-07-24T21:23:52Z</time>
					</trkpt>
					<trkpt lat="50.703870" lon="2.878450">
						<ele>14</ele>
						<time>2026-07-24T21:24:07Z</time>
					</trkpt>
					<trkpt lat="50.703910" lon="2.878340">
						<ele>14</ele>
						<time>2026-07-24T21:24:13Z</time>
					</trkpt>
					<trkpt lat="50.703990" lon="2.877800">
						<ele>13</ele>
						<time>2026-07-24T21:24:41Z</time>
					</trkpt>
					<trkpt lat="50.704160" lon="2.876570">
						<ele>12</ele>
						<time>2026-07-24T21:25:45Z</time>
					</trkpt>
					<trkpt lat="50.704340" lon="2.875430">
						<ele>13</ele>
						<time>2026-07-24T21:26:45Z</time>
					</trkpt>
					<trkpt lat="50.704380" lon="2.875170">
						<ele>13</ele>
						<time>2026-07-24T21:26:58Z</time>
					</trkpt>
					<trkpt lat="50.704430" lon="2.874240">
						<ele>14</ele>
						<time>2026-07-24T21:27:46Z</time>
					</trkpt>
					<trkpt lat="50.704500" lon="2.873820">
						<ele>14</ele>
						<time>2026-07-24T21:28:08Z</time>
					</trkpt>
					<trkpt lat="50.704510" lon="2.873720">
						<ele>14</ele>
						<time>2026-07-24T21:28:13Z</time>
					</trkpt>
					<trkpt lat="50.704510" lon="2.873650">
						<ele>14</ele>
						<time>2026-07-24T21:28:16Z</time>
					</trkpt>
					<trkpt lat="50.704390" lon="2.872700">
						<ele>14</ele>
						<time>2026-07-24T21:29:05Z</time>
					</trkpt>
					<trkpt lat="50.704350" lon="2.872290">
						<ele>14</ele>
						<time>2026-07-24T21:29:26Z</time>
					</trkpt>
					<trkpt lat="50.704360" lon="2.872210">
						<ele>14</ele>
						<time>2026-07-24T21:29:31Z</time>
					</trkpt>
					<trkpt lat="50.704410" lon="2.871760">
						<ele>14</ele>
						<time>2026-07-24T21:29:54Z</time>
					</trkpt>
					<trkpt lat="50.704420" lon="2.871650">
						<ele>14</ele>
						<time>2026-07-24T21:29:59Z</time>
					</trkpt>
					<trkpt lat="50.704410" lon="2.871550">
						<ele>14</ele>
						<time>2026-07-24T21:30:05Z</time>
					</trkpt>
					<trkpt lat="50.704260" lon="2.871120">
						<ele>15</ele>
						<time>2026-07-24T21:30:29Z</time>
					</trkpt>
					<trkpt lat="50.704220" lon="2.870930">
						<ele>15</ele>
						<time>2026-07-24T21:30:40Z</time>
					</trkpt>
					<trkpt lat="50.704130" lon="2.870440">
						<ele>15</ele>
						<time>2026-07-24T21:31:05Z</time>
					</trkpt>
					<trkpt lat="50.703960" lon="2.869720">
						<ele>16</ele>
						<time>2026-07-24T21:31:44Z</time>
					</trkpt>
					<trkpt lat="50.703800" lon="2.869250">
						<ele>16</ele>
						<time>2026-07-24T21:32:11Z</time>
					</trkpt>
					<trkpt lat="50.703560" lon="2.869460">
						<ele>16</ele>
						<time>2026-07-24T21:32:33Z</time>
					</trkpt>
					<trkpt lat="50.703510" lon="2.869500">
						<ele>16</ele>
						<time>2026-07-24T21:32:38Z</time>
					</trkpt>
					<trkpt lat="50.703480" lon="2.869500">
						<ele>16</ele>
						<time>2026-07-24T21:32:40Z</time>
					</trkpt>
					<trkpt lat="50.703430" lon="2.869500">
						<ele>15</ele>
						<time>2026-07-24T21:32:44Z</time>
					</trkpt>
					<trkpt lat="50.703340" lon="2.869480">
						<ele>15</ele>
						<time>2026-07-24T21:32:52Z</time>
					</trkpt>
					<trkpt lat="50.703280" lon="2.869440">
						<ele>15</ele>
						<time>2026-07-24T21:32:57Z</time>
					</trkpt>
					<trkpt lat="50.703070" lon="2.869150">
						<ele>15</ele>
						<time>2026-07-24T21:33:19Z</time>
					</trkpt>
					<trkpt lat="50.702940" lon="2.868950">
						<ele>15</ele>
						<time>2026-07-24T21:33:34Z</time>
					</trkpt>
					<trkpt lat="50.702840" lon="2.868780">
						<ele>15</ele>
						<time>2026-07-24T21:33:45Z</time>
					</trkpt>
					<trkpt lat="50.702830" lon="2.868670">
						<ele>15</ele>
						<time>2026-07-24T21:33:51Z</time>
					</trkpt>
					<trkpt lat="50.702850" lon="2.868620">
						<ele>15</ele>
						<time>2026-07-24T21:33:54Z</time>
					</trkpt>
					<trkpt lat="50.703030" lon="2.868420">
						<ele>15</ele>
						<time>2026-07-24T21:34:12Z</time>
					</trkpt>
					<trkpt lat="50.703060" lon="2.868350">
						<ele>15</ele>
						<time>2026-07-24T21:34:16Z</time>
					</trkpt>
					<trkpt lat="50.703060" lon="2.868280">
						<ele>15</ele>
						<time>2026-07-24T21:34:20Z</time>
					</trkpt>
					<trkpt lat="50.703040" lon="2.868220">
						<ele>15</ele>
						<time>2026-07-24T21:34:23Z</time>
					</trkpt>
					<trkpt lat="50.702730" lon="2.867610">
						<ele>14</ele>
						<time>2026-07-24T21:35:03Z</time>
					</trkpt>
					<trkpt lat="50.702370" lon="2.866960">
						<ele>14</ele>
						<time>2026-07-24T21:35:46Z</time>
					</trkpt>
					<trkpt lat="50.702360" lon="2.866970">
						<ele>14</ele>
						<time>2026-07-24T21:35:47Z</time>
					</trkpt>
					<trkpt lat="50.702370" lon="2.866960">
						<ele>14</ele>
						<time>2026-07-24T21:35:48Z</time>
					</trkpt>
					<trkpt lat="50.702610" lon="2.866580">
						<ele>14</ele>
						<time>2026-07-24T21:36:16Z</time>
					</trkpt>
					<trkpt lat="50.702890" lon="2.866130">
						<ele>14</ele>
						<time>2026-07-24T21:36:48Z</time>
					</trkpt>
					<trkpt lat="50.702800" lon="2.866020">
						<ele>14</ele>
						<time>2026-07-24T21:36:57Z</time>
					</trkpt>
					<trkpt lat="50.702350" lon="2.865620">
						<ele>14</ele>
						<time>2026-07-24T21:37:38Z</time>
					</trkpt>
					<trkpt lat="50.701910" lon="2.865200">
						<ele>15</ele>
						<time>2026-07-24T21:38:19Z</time>
					</trkpt>
					<trkpt lat="50.701440" lon="2.864700">
						<ele>14</ele>
						<time>2026-07-24T21:39:05Z</time>
					</trkpt>
					<trkpt lat="50.701260" lon="2.864520">
						<ele>14</ele>
						<time>2026-07-24T21:39:22Z</time>
					</trkpt>
					<trkpt lat="50.700690" lon="2.863920">
						<ele>14</ele>
						<time>2026-07-24T21:40:16Z</time>
					</trkpt>
					<trkpt lat="50.700600" lon="2.863810">
						<ele>15</ele>
						<time>2026-07-24T21:40:26Z</time>
					</trkpt>
					<trkpt lat="50.699690" lon="2.862830">
						<ele>16</ele>
						<time>2026-07-24T21:41:54Z</time>
					</trkpt>
					<trkpt lat="50.699580" lon="2.862700">
						<ele>16</ele>
						<time>2026-07-24T21:42:05Z</time>
					</trkpt>
					<trkpt lat="50.699040" lon="2.862120">
						<ele>16</ele>
						<time>2026-07-24T21:42:57Z</time>
					</trkpt>
					<trkpt lat="50.698980" lon="2.862070">
						<ele>16</ele>
						<time>2026-07-24T21:43:02Z</time>
					</trkpt>
					<trkpt lat="50.698500" lon="2.861540">
						<ele>16</ele>
						<time>2026-07-24T21:43:49Z</time>
					</trkpt>
					<trkpt lat="50.698190" lon="2.861210">
						<ele>16</ele>
						<time>2026-07-24T21:44:19Z</time>
					</trkpt>
					<trkpt lat="50.698110" lon="2.861120">
						<ele>16</ele>
						<time>2026-07-24T21:44:27Z</time>
					</trkpt>
					<trkpt lat="50.697770" lon="2.860760">
						<ele>16</ele>
						<time>2026-07-24T21:45:00Z</time>
					</trkpt>
					<trkpt lat="50.697540" lon="2.860510">
						<ele>16</ele>
						<time>2026-07-24T21:45:22Z</time>
					</trkpt>
					<trkpt lat="50.697450" lon="2.860410">
						<ele>17</ele>
						<time>2026-07-24T21:45:31Z</time>
					</trkpt>
					<trkpt lat="50.697200" lon="2.860120">
						<ele>17</ele>
						<time>2026-07-24T21:45:56Z</time>
					</trkpt>
					<trkpt lat="50.696650" lon="2.859460">
						<ele>17</ele>
						<time>2026-07-24T21:46:51Z</time>
					</trkpt>
					<trkpt lat="50.696630" lon="2.859440">
						<ele>17</ele>
						<time>2026-07-24T21:46:53Z</time>
					</trkpt>
					<trkpt lat="50.696560" lon="2.859380">
						<ele>17</ele>
						<time>2026-07-24T21:47:00Z</time>
					</trkpt>
					<trkpt lat="50.696480" lon="2.859300">
						<ele>17</ele>
						<time>2026-07-24T21:47:07Z</time>
					</trkpt>
					<trkpt lat="50.696400" lon="2.859220">
						<ele>17</ele>
						<time>2026-07-24T21:47:15Z</time>
					</trkpt>
					<trkpt lat="50.696390" lon="2.859150">
						<ele>17</ele>
						<time>2026-07-24T21:47:18Z</time>
					</trkpt>
					<trkpt lat="50.696380" lon="2.859110">
						<ele>17</ele>
						<time>2026-07-24T21:47:21Z</time>
					</trkpt>
					<trkpt lat="50.696340" lon="2.859060">
						<ele>17</ele>
						<time>2026-07-24T21:47:25Z</time>
					</trkpt>
					<trkpt lat="50.695860" lon="2.858510">
						<ele>18</ele>
						<time>2026-07-24T21:48:12Z</time>
					</trkpt>
					<trkpt lat="50.695540" lon="2.858130">
						<ele>18</ele>
						<time>2026-07-24T21:48:44Z</time>
					</trkpt>
					<trkpt lat="50.695430" lon="2.858000">
						<ele>18</ele>
						<time>2026-07-24T21:48:55Z</time>
					</trkpt>
					<trkpt lat="50.695350" lon="2.857890">
						<ele>18</ele>
						<time>2026-07-24T21:49:04Z</time>
					</trkpt>
					<trkpt lat="50.695180" lon="2.857590">
						<ele>17</ele>
						<time>2026-07-24T21:49:24Z</time>
					</trkpt>
					<trkpt lat="50.694930" lon="2.857130">
						<ele>17</ele>
						<time>2026-07-24T21:49:55Z</time>
					</trkpt>
					<trkpt lat="50.694840" lon="2.857010">
						<ele>17</ele>
						<time>2026-07-24T21:50:04Z</time>
					</trkpt>
					<trkpt lat="50.694770" lon="2.856930">
						<ele>17</ele>
						<time>2026-07-24T21:50:11Z</time>
					</trkpt>
					<trkpt lat="50.694620" lon="2.856790">
						<ele>17</ele>
						<time>2026-07-24T21:50:25Z</time>
					</trkpt>
					<trkpt lat="50.694570" lon="2.856730">
						<ele>17</ele>
						<time>2026-07-24T21:50:30Z</time>
					</trkpt>
					<trkpt lat="50.694560" lon="2.856720">
						<ele>17</ele>
						<time>2026-07-24T21:50:31Z</time>
					</trkpt>
					<trkpt lat="50.694520" lon="2.856670">
						<ele>18</ele>
						<time>2026-07-24T21:50:35Z</time>
					</trkpt>
					<trkpt lat="50.694450" lon="2.856560">
						<ele>18</ele>
						<time>2026-07-24T21:50:43Z</time>
					</trkpt>
					<trkpt lat="50.694410" lon="2.856460">
						<ele>17</ele>
						<time>2026-07-24T21:50:49Z</time>
					</trkpt>
					<trkpt lat="50.694380" lon="2.856340">
						<ele>17</ele>
						<time>2026-07-24T21:50:56Z</time>
					</trkpt>
					<trkpt lat="50.694370" lon="2.856240">
						<ele>17</ele>
						<time>2026-07-24T21:51:01Z</time>
					</trkpt>
					<trkpt lat="50.694360" lon="2.856140">
						<ele>17</ele>
						<time>2026-07-24T21:51:06Z</time>
					</trkpt>
					<trkpt lat="50.694380" lon="2.855750">
						<ele>17</ele>
						<time>2026-07-24T21:51:26Z</time>
					</trkpt>
					<trkpt lat="50.694370" lon="2.855510">
						<ele>17</ele>
						<time>2026-07-24T21:51:38Z</time>
					</trkpt>
					<trkpt lat="50.694350" lon="2.855340">
						<ele>17</ele>
						<time>2026-07-24T21:51:47Z</time>
					</trkpt>
					<trkpt lat="50.694320" lon="2.855150">
						<ele>16</ele>
						<time>2026-07-24T21:51:57Z</time>
					</trkpt>
					<trkpt lat="50.694250" lon="2.854860">
						<ele>17</ele>
						<time>2026-07-24T21:52:12Z</time>
					</trkpt>
					<trkpt lat="50.694190" lon="2.854690">
						<ele>17</ele>
						<time>2026-07-24T21:52:22Z</time>
					</trkpt>
					<trkpt lat="50.694130" lon="2.854540">
						<ele>17</ele>
						<time>2026-07-24T21:52:31Z</time>
					</trkpt>
					<trkpt lat="50.693920" lon="2.854170">
						<ele>18</ele>
						<time>2026-07-24T21:52:56Z</time>
					</trkpt>
					<trkpt lat="50.693880" lon="2.854010">
						<ele>18</ele>
						<time>2026-07-24T21:53:05Z</time>
					</trkpt>
					<trkpt lat="50.693750" lon="2.853970">
						<ele>17</ele>
						<time>2026-07-24T21:53:16Z</time>
					</trkpt>
					<trkpt lat="50.693730" lon="2.854040">
						<ele>17</ele>
						<time>2026-07-24T21:53:20Z</time>
					</trkpt>
					<trkpt lat="50.693720" lon="2.854090">
						<ele>17</ele>
						<time>2026-07-24T21:53:22Z</time>
					</trkpt>
					<trkpt lat="50.693570" lon="2.854350">
						<ele>17</ele>
						<time>2026-07-24T21:53:40Z</time>
					</trkpt>
					<trkpt lat="50.693190" lon="2.854900">
						<ele>17</ele>
						<time>2026-07-24T21:54:21Z</time>
					</trkpt>
					<trkpt lat="50.693173" lon="2.854923">
						<ele>17</ele>
						<time>2026-07-24T21:54:23Z</time>
					</trkpt>
					<trkpt lat="50.692840" lon="2.855380">
						<ele>15</ele>
						<time>2026-07-24T21:54:59Z</time>
					</trkpt>
					<trkpt lat="50.692780" lon="2.855500">
						<ele>15</ele>
						<time>2026-07-24T21:55:06Z</time>
					</trkpt>
					<trkpt lat="50.692640" lon="2.855760">
						<ele>14</ele>
						<time>2026-07-24T21:55:24Z</time>
					</trkpt>
					<trkpt lat="50.692380" lon="2.856340">
						<ele>13</ele>
						<time>2026-07-24T21:56:00Z</time>
					</trkpt>
					<trkpt lat="50.691830" lon="2.857440">
						<ele>11</ele>
						<time>2026-07-24T21:57:11Z</time>
					</trkpt>
					<trkpt lat="50.691760" lon="2.857640">
						<ele>11</ele>
						<time>2026-07-24T21:57:22Z</time>
					</trkpt>
					<trkpt lat="50.691750" lon="2.857720">
						<ele>11</ele>
						<time>2026-07-24T21:57:27Z</time>
					</trkpt>
					<trkpt lat="50.691770" lon="2.857810">
						<ele>11</ele>
						<time>2026-07-24T21:57:31Z</time>
					</trkpt>
					<trkpt lat="50.691810" lon="2.857880">
						<ele>11</ele>
						<time>2026-07-24T21:57:36Z</time>
					</trkpt>
					<trkpt lat="50.691930" lon="2.857990">
						<ele>11</ele>
						<time>2026-07-24T21:57:47Z</time>
					</trkpt>
					<trkpt lat="50.691970" lon="2.858050">
						<ele>11</ele>
						<time>2026-07-24T21:57:52Z</time>
					</trkpt>
					<trkpt lat="50.692000" lon="2.858130">
						<ele>11</ele>
						<time>2026-07-24T21:57:56Z</time>
					</trkpt>
					<trkpt lat="50.692010" lon="2.858220">
						<ele>11</ele>
						<time>2026-07-24T21:58:01Z</time>
					</trkpt>
					<trkpt lat="50.691930" lon="2.860000">
						<ele>14</ele>
						<time>2026-07-24T21:59:32Z</time>
					</trkpt>
					<trkpt lat="50.691910" lon="2.860110">
						<ele>14</ele>
						<time>2026-07-24T21:59:37Z</time>
					</trkpt>
					<trkpt lat="50.691890" lon="2.860150">
						<ele>14</ele>
						<time>2026-07-24T21:59:40Z</time>
					</trkpt>
					<trkpt lat="50.691880" lon="2.860160">
						<ele>14</ele>
						<time>2026-07-24T21:59:41Z</time>
					</trkpt>
					<trkpt lat="50.691830" lon="2.860190">
						<ele>14</ele>
						<time>2026-07-24T21:59:45Z</time>
					</trkpt>
					<trkpt lat="50.691780" lon="2.860180">
						<ele>14</ele>
						<time>2026-07-24T21:59:49Z</time>
					</trkpt>
					<trkpt lat="50.691250" lon="2.859880">
						<ele>13</ele>
						<time>2026-07-24T22:00:34Z</time>
					</trkpt>
					<trkpt lat="50.691030" lon="2.859770">
						<ele>13</ele>
						<time>2026-07-24T22:00:53Z</time>
					</trkpt>
					<trkpt lat="50.691000" lon="2.859670">
						<ele>13</ele>
						<time>2026-07-24T22:00:58Z</time>
					</trkpt>
					<trkpt lat="50.690880" lon="2.859610">
						<ele>13</ele>
						<time>2026-07-24T22:01:08Z</time>
					</trkpt>
					<trkpt lat="50.690860" lon="2.859600">
						<ele>13</ele>
						<time>2026-07-24T22:01:10Z</time>
					</trkpt>
					<trkpt lat="50.690850" lon="2.859590">
						<ele>13</ele>
						<time>2026-07-24T22:01:11Z</time>
					</trkpt>
					<trkpt lat="50.690690" lon="2.860380">
						<ele>14</ele>
						<time>2026-07-24T22:01:53Z</time>
					</trkpt>
					<trkpt lat="50.690690" lon="2.860380">
						<ele>14</ele>
						<time>2026-07-24T22:01:53Z</time>
					</trkpt>
					<trkpt lat="50.690690" lon="2.860380">
						<ele>14</ele>
						<time>2026-07-24T22:01:53Z</time>
					</trkpt>
					<trkpt lat="50.690810" lon="2.860460">
						<ele>14</ele>
						<time>2026-07-24T22:02:04Z</time>
					</trkpt>
					<trkpt lat="50.690850" lon="2.860510">
						<ele>14</ele>
						<time>2026-07-24T22:02:08Z</time>
					</trkpt>
					<trkpt lat="50.690960" lon="2.860630">
						<ele>15</ele>
						<time>2026-07-24T22:02:18Z</time>
					</trkpt>
					<trkpt lat="50.691100" lon="2.860750">
						<ele>15</ele>
						<time>2026-07-24T22:02:31Z</time>
					</trkpt>
					<trkpt lat="50.691500" lon="2.861240">
						<ele>16</ele>
						<time>2026-07-24T22:03:12Z</time>
					</trkpt>
					<trkpt lat="50.691750" lon="2.861600">
						<ele>16</ele>
						<time>2026-07-24T22:03:39Z</time>
					</trkpt>
					<trkpt lat="50.692020" lon="2.861970">
						<ele>15</ele>
						<time>2026-07-24T22:04:07Z</time>
					</trkpt>
					<trkpt lat="50.692350" lon="2.862550">
						<ele>14</ele>
						<time>2026-07-24T22:04:47Z</time>
					</trkpt>
					<trkpt lat="50.692470" lon="2.862920">
						<ele>15</ele>
						<time>2026-07-24T22:05:08Z</time>
					</trkpt>
					<trkpt lat="50.692570" lon="2.863120">
						<ele>15</ele>
						<time>2026-07-24T22:05:21Z</time>
					</trkpt>
					<trkpt lat="50.692650" lon="2.863250">
						<ele>16</ele>
						<time>2026-07-24T22:05:30Z</time>
					</trkpt>
					<trkpt lat="50.692910" lon="2.863760">
						<ele>16</ele>
						<time>2026-07-24T22:06:03Z</time>
					</trkpt>
					<trkpt lat="50.693470" lon="2.865150">
						<ele>17</ele>
						<time>2026-07-24T22:07:27Z</time>
					</trkpt>
					<trkpt lat="50.693520" lon="2.865290">
						<ele>17</ele>
						<time>2026-07-24T22:07:35Z</time>
					</trkpt>
					<trkpt lat="50.693600" lon="2.865450">
						<ele>17</ele>
						<time>2026-07-24T22:07:45Z</time>
					</trkpt>
					<trkpt lat="50.693650" lon="2.865500">
						<ele>17</ele>
						<time>2026-07-24T22:07:50Z</time>
					</trkpt>
					<trkpt lat="50.693710" lon="2.865640">
						<ele>17</ele>
						<time>2026-07-24T22:07:59Z</time>
					</trkpt>
					<trkpt lat="50.693780" lon="2.865840">
						<ele>17</ele>
						<time>2026-07-24T22:08:10Z</time>
					</trkpt>
					<trkpt lat="50.694070" lon="2.866560">
						<ele>16</ele>
						<time>2026-07-24T22:08:54Z</time>
					</trkpt>
					<trkpt lat="50.694280" lon="2.867090">
						<ele>15</ele>
						<time>2026-07-24T22:09:25Z</time>
					</trkpt>
					<trkpt lat="50.694550" lon="2.867830">
						<ele>15</ele>
						<time>2026-07-24T22:10:09Z</time>
					</trkpt>
					<trkpt lat="50.694670" lon="2.868190">
						<ele>14</ele>
						<time>2026-07-24T22:10:29Z</time>
					</trkpt>
					<trkpt lat="50.694900" lon="2.868930">
						<ele>13</ele>
						<time>2026-07-24T22:11:11Z</time>
					</trkpt>
					<trkpt lat="50.695040" lon="2.869570">
						<ele>13</ele>
						<time>2026-07-24T22:11:45Z</time>
					</trkpt>
					<trkpt lat="50.695160" lon="2.870260">
						<ele>14</ele>
						<time>2026-07-24T22:12:22Z</time>
					</trkpt>
					<trkpt lat="50.695210" lon="2.870690">
						<ele>14</ele>
						<time>2026-07-24T22:12:44Z</time>
					</trkpt>
					<trkpt lat="50.695270" lon="2.871500">
						<ele>15</ele>
						<time>2026-07-24T22:13:25Z</time>
					</trkpt>
					<trkpt lat="50.695270" lon="2.871950">
						<ele>15</ele>
						<time>2026-07-24T22:13:48Z</time>
					</trkpt>
					<trkpt lat="50.695260" lon="2.872390">
						<ele>15</ele>
						<time>2026-07-24T22:14:10Z</time>
					</trkpt>
					<trkpt lat="50.695190" lon="2.873490">
						<ele>14</ele>
						<time>2026-07-24T22:15:06Z</time>
					</trkpt>
					<trkpt lat="50.695130" lon="2.873940">
						<ele>14</ele>
						<time>2026-07-24T22:15:30Z</time>
					</trkpt>
					<trkpt lat="50.694870" lon="2.875240">
						<ele>12</ele>
						<time>2026-07-24T22:16:39Z</time>
					</trkpt>
					<trkpt lat="50.694590" lon="2.876670">
						<ele>14</ele>
						<time>2026-07-24T22:17:55Z</time>
					</trkpt>
					<trkpt lat="50.694460" lon="2.877240">
						<ele>15</ele>
						<time>2026-07-24T22:18:25Z</time>
					</trkpt>
					<trkpt lat="50.694410" lon="2.877380">
						<ele>16</ele>
						<time>2026-07-24T22:18:34Z</time>
					</trkpt>
					<trkpt lat="50.694400" lon="2.877530">
						<ele>16</ele>
						<time>2026-07-24T22:18:41Z</time>
					</trkpt>
					<trkpt lat="50.694170" lon="2.878680">
						<ele>16</ele>
						<time>2026-07-24T22:19:42Z</time>
					</trkpt>
					<trkpt lat="50.694150" lon="2.878800">
						<ele>16</ele>
						<time>2026-07-24T22:19:49Z</time>
					</trkpt>
					<trkpt lat="50.694090" lon="2.879130">
						<ele>16</ele>
						<time>2026-07-24T22:20:06Z</time>
					</trkpt>
					<trkpt lat="50.694020" lon="2.879600">
						<ele>16</ele>
						<time>2026-07-24T22:20:31Z</time>
					</trkpt>
					<trkpt lat="50.693990" lon="2.879710">
						<ele>16</ele>
						<time>2026-07-24T22:20:37Z</time>
					</trkpt>
					<trkpt lat="50.693950" lon="2.879800">
						<ele>16</ele>
						<time>2026-07-24T22:20:42Z</time>
					</trkpt>
					<trkpt lat="50.693880" lon="2.879880">
						<ele>16</ele>
						<time>2026-07-24T22:20:49Z</time>
					</trkpt>
					<trkpt lat="50.693830" lon="2.880110">
						<ele>16</ele>
						<time>2026-07-24T22:21:02Z</time>
					</trkpt>
					<trkpt lat="50.693910" lon="2.880290">
						<ele>16</ele>
						<time>2026-07-24T22:21:13Z</time>
					</trkpt>
					<trkpt lat="50.693850" lon="2.880720">
						<ele>17</ele>
						<time>2026-07-24T22:21:35Z</time>
					</trkpt>
					<trkpt lat="50.693820" lon="2.880880">
						<ele>17</ele>
						<time>2026-07-24T22:21:43Z</time>
					</trkpt>
					<trkpt lat="50.693820" lon="2.880930">
						<ele>16</ele>
						<time>2026-07-24T22:21:46Z</time>
					</trkpt>
					<trkpt lat="50.693740" lon="2.881380">
						<ele>16</ele>
						<time>2026-07-24T22:22:10Z</time>
					</trkpt>
					<trkpt lat="50.693670" lon="2.881530">
						<ele>16</ele>
						<time>2026-07-24T22:22:19Z</time>
					</trkpt>
					<trkpt lat="50.693620" lon="2.881710">
						<ele>15</ele>
						<time>2026-07-24T22:22:29Z</time>
					</trkpt>
					<trkpt lat="50.693530" lon="2.882230">
						<ele>14</ele>
						<time>2026-07-24T22:22:57Z</time>
					</trkpt>
					<trkpt lat="50.693470" lon="2.882330">
						<ele>14</ele>
						<time>2026-07-24T22:23:03Z</time>
					</trkpt>
					<trkpt lat="50.693430" lon="2.882420">
						<ele>14</ele>
						<time>2026-07-24T22:23:09Z</time>
					</trkpt>
					<trkpt lat="50.693280" lon="2.883480">
						<ele>14</ele>
						<time>2026-07-24T22:24:04Z</time>
					</trkpt>
					<trkpt lat="50.693110" lon="2.884460">
						<ele>14</ele>
						<time>2026-07-24T22:24:56Z</time>
					</trkpt>
					<trkpt lat="50.692960" lon="2.885370">
						<ele>15</ele>
						<time>2026-07-24T22:25:43Z</time>
					</trkpt>
					<trkpt lat="50.692890" lon="2.885860">
						<ele>16</ele>
						<time>2026-07-24T22:26:09Z</time>
					</trkpt>
					<trkpt lat="50.692800" lon="2.886450">
						<ele>17</ele>
						<time>2026-07-24T22:26:40Z</time>
					</trkpt>
					<trkpt lat="50.692800" lon="2.886560">
						<ele>17</ele>
						<time>2026-07-24T22:26:45Z</time>
					</trkpt>
					<trkpt lat="50.692850" lon="2.886670">
						<ele>17</ele>
						<time>2026-07-24T22:26:52Z</time>
					</trkpt>
					<trkpt lat="50.692850" lon="2.886770">
						<ele>17</ele>
						<time>2026-07-24T22:26:57Z</time>
					</trkpt>
					<trkpt lat="50.692810" lon="2.887020">
						<ele>17</ele>
						<time>2026-07-24T22:27:10Z</time>
					</trkpt>
					<trkpt lat="50.692780" lon="2.887090">
						<ele>17</ele>
						<time>2026-07-24T22:27:15Z</time>
					</trkpt>
					<trkpt lat="50.692700" lon="2.887170">
						<ele>17</ele>
						<time>2026-07-24T22:27:22Z</time>
					</trkpt>
					<trkpt lat="50.692630" lon="2.887510">
						<ele>17</ele>
						<time>2026-07-24T22:27:40Z</time>
					</trkpt>
					<trkpt lat="50.692580" lon="2.887890">
						<ele>17</ele>
						<time>2026-07-24T22:28:00Z</time>
					</trkpt>
					<trkpt lat="50.692490" lon="2.888410">
						<ele>17</ele>
						<time>2026-07-24T22:28:27Z</time>
					</trkpt>
					<trkpt lat="50.692410" lon="2.888960">
						<ele>16</ele>
						<time>2026-07-24T22:28:56Z</time>
					</trkpt>
					<trkpt lat="50.692370" lon="2.889120">
						<ele>15</ele>
						<time>2026-07-24T22:29:05Z</time>
					</trkpt>
					<trkpt lat="50.692330" lon="2.889530">
						<ele>15</ele>
						<time>2026-07-24T22:29:26Z</time>
					</trkpt>
					<trkpt lat="50.692290" lon="2.889620">
						<ele>16</ele>
						<time>2026-07-24T22:29:31Z</time>
					</trkpt>
					<trkpt lat="50.692220" lon="2.889760">
						<ele>16</ele>
						<time>2026-07-24T22:29:40Z</time>
					</trkpt>
					<trkpt lat="50.692230" lon="2.890120">
						<ele>16</ele>
						<time>2026-07-24T22:29:59Z</time>
					</trkpt>
					<trkpt lat="50.692250" lon="2.890430">
						<ele>16</ele>
						<time>2026-07-24T22:30:14Z</time>
					</trkpt>
					<trkpt lat="50.692260" lon="2.890560">
						<ele>15</ele>
						<time>2026-07-24T22:30:21Z</time>
					</trkpt>
					<trkpt lat="50.692270" lon="2.890690">
						<ele>15</ele>
						<time>2026-07-24T22:30:28Z</time>
					</trkpt>
					<trkpt lat="50.692270" lon="2.890940">
						<ele>15</ele>
						<time>2026-07-24T22:30:40Z</time>
					</trkpt>
					<trkpt lat="50.692260" lon="2.891990">
						<ele>13</ele>
						<time>2026-07-24T22:31:34Z</time>
					</trkpt>
					<trkpt lat="50.692280" lon="2.892770">
						<ele>13</ele>
						<time>2026-07-24T22:32:13Z</time>
					</trkpt>
					<trkpt lat="50.692290" lon="2.894120">
						<ele>14</ele>
						<time>2026-07-24T22:33:22Z</time>
					</trkpt>
					<trkpt lat="50.692250" lon="2.894120">
						<ele>14</ele>
						<time>2026-07-24T22:33:25Z</time>
					</trkpt>
					<trkpt lat="50.692180" lon="2.894080">
						<ele>14</ele>
						<time>2026-07-24T22:33:31Z</time>
					</trkpt>
					<trkpt lat="50.692010" lon="2.893990">
						<ele>14</ele>
						<time>2026-07-24T22:33:45Z</time>
					</trkpt>
					<trkpt lat="50.691680" lon="2.893680">
						<ele>14</ele>
						<time>2026-07-24T22:34:16Z</time>
					</trkpt>
					<trkpt lat="50.691510" lon="2.893570">
						<ele>14</ele>
						<time>2026-07-24T22:34:31Z</time>
					</trkpt>
					<trkpt lat="50.690970" lon="2.893330">
						<ele>16</ele>
						<time>2026-07-24T22:35:16Z</time>
					</trkpt>
					<trkpt lat="50.690760" lon="2.893550">
						<ele>16</ele>
						<time>2026-07-24T22:35:36Z</time>
					</trkpt>
					<trkpt lat="50.690750" lon="2.893590">
						<ele>16</ele>
						<time>2026-07-24T22:35:38Z</time>
					</trkpt>
					<trkpt lat="50.690640" lon="2.894100">
						<ele>16</ele>
						<time>2026-07-24T22:36:05Z</time>
					</trkpt>
					<trkpt lat="50.690620" lon="2.894300">
						<ele>16</ele>
						<time>2026-07-24T22:36:16Z</time>
					</trkpt>
					<trkpt lat="50.690630" lon="2.894430">
						<ele>16</ele>
						<time>2026-07-24T22:36:22Z</time>
					</trkpt>
					<trkpt lat="50.690670" lon="2.894710">
						<ele>16</ele>
						<time>2026-07-24T22:36:37Z</time>
					</trkpt>
					<trkpt lat="50.690720" lon="2.894940">
						<ele>16</ele>
						<time>2026-07-24T22:36:49Z</time>
					</trkpt>
					<trkpt lat="50.690950" lon="2.896010">
						<ele>13</ele>
						<time>2026-07-24T22:37:46Z</time>
					</trkpt>
					<trkpt lat="50.690930" lon="2.896090">
						<ele>13</ele>
						<time>2026-07-24T22:37:51Z</time>
					</trkpt>
					<trkpt lat="50.690950" lon="2.896330">
						<ele>13</ele>
						<time>2026-07-24T22:38:03Z</time>
					</trkpt>
					<trkpt lat="50.690990" lon="2.896470">
						<ele>13</ele>
						<time>2026-07-24T22:38:11Z</time>
					</trkpt>
					<trkpt lat="50.691070" lon="2.896710">
						<ele>13</ele>
						<time>2026-07-24T22:38:25Z</time>
					</trkpt>
					<trkpt lat="50.691160" lon="2.896940">
						<ele>14</ele>
						<time>2026-07-24T22:38:38Z</time>
					</trkpt>
					<trkpt lat="50.691230" lon="2.897030">
						<ele>14</ele>
						<time>2026-07-24T22:38:45Z</time>
					</trkpt>
					<trkpt lat="50.691360" lon="2.897330">
						<ele>15</ele>
						<time>2026-07-24T22:39:04Z</time>
					</trkpt>
					<trkpt lat="50.691590" lon="2.897940">
						<ele>15</ele>
						<time>2026-07-24T22:39:40Z</time>
					</trkpt>
					<trkpt lat="50.691750" lon="2.898340">
						<ele>16</ele>
						<time>2026-07-24T22:40:04Z</time>
					</trkpt>
					<trkpt lat="50.691800" lon="2.898550">
						<ele>16</ele>
						<time>2026-07-24T22:40:15Z</time>
					</trkpt>
					<trkpt lat="50.691750" lon="2.898960">
						<ele>16</ele>
						<time>2026-07-24T22:40:36Z</time>
					</trkpt>
					<trkpt lat="50.691760" lon="2.899080">
						<ele>16</ele>
						<time>2026-07-24T22:40:43Z</time>
					</trkpt>
					<trkpt lat="50.691830" lon="2.899180">
						<ele>16</ele>
						<time>2026-07-24T22:40:50Z</time>
					</trkpt>
					<trkpt lat="50.691760" lon="2.899080">
						<ele>16</ele>
						<time>2026-07-24T22:40:58Z</time>
					</trkpt>
					<trkpt lat="50.691740" lon="2.899310">
						<ele>16</ele>
						<time>2026-07-24T22:41:10Z</time>
					</trkpt>
					<trkpt lat="50.691700" lon="2.899400">
						<ele>16</ele>
						<time>2026-07-24T22:41:15Z</time>
					</trkpt>
					<trkpt lat="50.691640" lon="2.899460">
						<ele>16</ele>
						<time>2026-07-24T22:41:21Z</time>
					</trkpt>
					<trkpt lat="50.691490" lon="2.899570">
						<ele>15</ele>
						<time>2026-07-24T22:41:34Z</time>
					</trkpt>
					<trkpt lat="50.691430" lon="2.899690">
						<ele>15</ele>
						<time>2026-07-24T22:41:42Z</time>
					</trkpt>
					<trkpt lat="50.691900" lon="2.900090">
						<ele>15</ele>
						<time>2026-07-24T22:42:25Z</time>
					</trkpt>
					<trkpt lat="50.692610" lon="2.900700">
						<ele>14</ele>
						<time>2026-07-24T22:43:29Z</time>
					</trkpt>
					<trkpt lat="50.693050" lon="2.900990">
						<ele>12</ele>
						<time>2026-07-24T22:44:07Z</time>
					</trkpt>
					<trkpt lat="50.693080" lon="2.901390">
						<ele>12</ele>
						<time>2026-07-24T22:44:28Z</time>
					</trkpt>
					<trkpt lat="50.693160" lon="2.902470">
						<ele>12</ele>
						<time>2026-07-24T22:45:23Z</time>
					</trkpt>
					<trkpt lat="50.693170" lon="2.902910">
						<ele>12</ele>
						<time>2026-07-24T22:45:45Z</time>
					</trkpt>
					<trkpt lat="50.693170" lon="2.902940">
						<ele>12</ele>
						<time>2026-07-24T22:45:47Z</time>
					</trkpt>
					<trkpt lat="50.693140" lon="2.903050">
						<ele>12</ele>
						<time>2026-07-24T22:45:53Z</time>
					</trkpt>
					<trkpt lat="50.693170" lon="2.903540">
						<ele>12</ele>
						<time>2026-07-24T22:46:18Z</time>
					</trkpt>
					<trkpt lat="50.693230" lon="2.903990">
						<ele>12</ele>
						<time>2026-07-24T22:46:41Z</time>
					</trkpt>
					<trkpt lat="50.693280" lon="2.904250">
						<ele>12</ele>
						<time>2026-07-24T22:46:55Z</time>
					</trkpt>
					<trkpt lat="50.693340" lon="2.904560">
						<ele>12</ele>
						<time>2026-07-24T22:47:11Z</time>
					</trkpt>
					<trkpt lat="50.693620" lon="2.905570">
						<ele>9</ele>
						<time>2026-07-24T22:48:07Z</time>
					</trkpt>
					<trkpt lat="50.693720" lon="2.905860">
						<ele>9</ele>
						<time>2026-07-24T22:48:24Z</time>
					</trkpt>
					<trkpt lat="50.693900" lon="2.906340">
						<ele>9</ele>
						<time>2026-07-24T22:48:52Z</time>
					</trkpt>
					<trkpt lat="50.694020" lon="2.906600">
						<ele>9</ele>
						<time>2026-07-24T22:49:09Z</time>
					</trkpt>
					<trkpt lat="50.694130" lon="2.906860">
						<ele>9</ele>
						<time>2026-07-24T22:49:25Z</time>
					</trkpt>
					<trkpt lat="50.694290" lon="2.907140">
						<ele>10</ele>
						<time>2026-07-24T22:49:44Z</time>
					</trkpt>
					<trkpt lat="50.694320" lon="2.907240">
						<ele>10</ele>
						<time>2026-07-24T22:49:49Z</time>
					</trkpt>
					<trkpt lat="50.694360" lon="2.907420">
						<ele>10</ele>
						<time>2026-07-24T22:49:59Z</time>
					</trkpt>
					<trkpt lat="50.694490" lon="2.907890">
						<ele>11</ele>
						<time>2026-07-24T22:50:25Z</time>
					</trkpt>
					<trkpt lat="50.694540" lon="2.908010">
						<ele>11</ele>
						<time>2026-07-24T22:50:32Z</time>
					</trkpt>
					<trkpt lat="50.694570" lon="2.908140">
						<ele>12</ele>
						<time>2026-07-24T22:50:39Z</time>
					</trkpt>
					<trkpt lat="50.694550" lon="2.908260">
						<ele>12</ele>
						<time>2026-07-24T22:50:46Z</time>
					</trkpt>
					<trkpt lat="50.694560" lon="2.908460">
						<ele>12</ele>
						<time>2026-07-24T22:50:56Z</time>
					</trkpt>
					<trkpt lat="50.694650" lon="2.908860">
						<ele>13</ele>
						<time>2026-07-24T22:51:17Z</time>
					</trkpt>
					<trkpt lat="50.694630" lon="2.908880">
						<ele>13</ele>
						<time>2026-07-24T22:51:19Z</time>
					</trkpt>
					<trkpt lat="50.694650" lon="2.908860">
						<ele>13</ele>
						<time>2026-07-24T22:51:21Z</time>
					</trkpt>
					<trkpt lat="50.694850" lon="2.908810">
						<ele>13</ele>
						<time>2026-07-24T22:51:37Z</time>
					</trkpt>
					<trkpt lat="50.694990" lon="2.908790">
						<ele>13</ele>
						<time>2026-07-24T22:51:49Z</time>
					</trkpt>
					<trkpt lat="50.695110" lon="2.908820">
						<ele>13</ele>
						<time>2026-07-24T22:51:58Z</time>
					</trkpt>
					<trkpt lat="50.695270" lon="2.908890">
						<ele>13</ele>
						<time>2026-07-24T22:52:12Z</time>
					</trkpt>
					<trkpt lat="50.695450" lon="2.909010">
						<ele>13</ele>
						<time>2026-07-24T22:52:27Z</time>
					</trkpt>
					<trkpt lat="50.695610" lon="2.909180">
						<ele>13</ele>
						<time>2026-07-24T22:52:43Z</time>
					</trkpt>
					<trkpt lat="50.695020" lon="2.910050">
						<ele>14</ele>
						<time>2026-07-24T22:53:47Z</time>
					</trkpt>
					<trkpt lat="50.694910" lon="2.910230">
						<ele>14</ele>
						<time>2026-07-24T22:54:00Z</time>
					</trkpt>
					<trkpt lat="50.694840" lon="2.910390">
						<ele>14</ele>
						<time>2026-07-24T22:54:10Z</time>
					</trkpt>
					<trkpt lat="50.694820" lon="2.910470">
						<ele>14</ele>
						<time>2026-07-24T22:54:14Z</time>
					</trkpt>
					<trkpt lat="50.694780" lon="2.910650">
						<ele>15</ele>
						<time>2026-07-24T22:54:24Z</time>
					</trkpt>
					<trkpt lat="50.694760" lon="2.910880">
						<ele>15</ele>
						<time>2026-07-24T22:54:36Z</time>
					</trkpt>
					<trkpt lat="50.694690" lon="2.911440">
						<ele>16</ele>
						<time>2026-07-24T22:55:05Z</time>
					</trkpt>
					<trkpt lat="50.694650" lon="2.911560">
						<ele>17</ele>
						<time>2026-07-24T22:55:12Z</time>
					</trkpt>
					<trkpt lat="50.694620" lon="2.911650">
						<ele>17</ele>
						<time>2026-07-24T22:55:17Z</time>
					</trkpt>
					<trkpt lat="50.694380" lon="2.912130">
						<ele>17</ele>
						<time>2026-07-24T22:55:48Z</time>
					</trkpt>
					<trkpt lat="50.694250" lon="2.912430">
						<ele>18</ele>
						<time>2026-07-24T22:56:06Z</time>
					</trkpt>
					<trkpt lat="50.694170" lon="2.912580">
						<ele>18</ele>
						<time>2026-07-24T22:56:16Z</time>
					</trkpt>
					<trkpt lat="50.693690" lon="2.913360">
						<ele>18</ele>
						<time>2026-07-24T22:57:11Z</time>
					</trkpt>
					<trkpt lat="50.693650" lon="2.913430">
						<ele>18</ele>
						<time>2026-07-24T22:57:16Z</time>
					</trkpt>
					<trkpt lat="50.693990" lon="2.914060">
						<ele>18</ele>
						<time>2026-07-24T22:57:58Z</time>
					</trkpt>
					<trkpt lat="50.693890" lon="2.914210">
						<ele>18</ele>
						<time>2026-07-24T22:58:09Z</time>
					</trkpt>
					<trkpt lat="50.693670" lon="2.914570">
						<ele>19</ele>
						<time>2026-07-24T22:58:34Z</time>
					</trkpt>
					<trkpt lat="50.693420" lon="2.914970">
						<ele>20</ele>
						<time>2026-07-24T22:59:03Z</time>
					</trkpt>
					<trkpt lat="50.693150" lon="2.915420">
						<ele>19</ele>
						<time>2026-07-24T22:59:34Z</time>
					</trkpt>
					<trkpt lat="50.693060" lon="2.915550">
						<ele>18</ele>
						<time>2026-07-24T22:59:44Z</time>
					</trkpt>
					<trkpt lat="50.693080" lon="2.915570">
						<ele>18</ele>
						<time>2026-07-24T22:59:46Z</time>
					</trkpt>
					<trkpt lat="50.693100" lon="2.915610">
						<ele>18</ele>
						<time>2026-07-24T22:59:49Z</time>
					</trkpt>
					</trkseg>
				</trk>
			</gpx>