<?xml version="1.0" encoding="UTF-8" ?>
<gpx version="1.1" xmlns:xsi="http://www.w3.org/2001/XMLSchema-instance"
    xmlns="http://www.topografix.com/GPX/1/1"
    xsi:schemaLocation="http://www.topografix.com/GPX/1/1 http://www.topografix.com/GPX/1/1/gpx.xsd"
    creator="Openrunner - https://www.openrunner.com" >	<trk>
	                   <name>UCH ROUTE 39KM AOÛT 2026-24067592</name>
						<trkseg>
					<trkpt lat="50.693210" lon="2.915740">
						<ele>18</ele>
						<time>2026-07-24T20:13:50Z</time>
					</trkpt>
					<trkpt lat="50.693080" lon="2.915540">
						<ele>19</ele>
						<time>2026-07-24T20:13:53Z</time>
					</trkpt>
					<trkpt lat="50.692990" lon="2.915630">
						<ele>18</ele>
						<time>2026-07-24T20:13:55Z</time>
					</trkpt>
					<trkpt lat="50.692740" lon="2.916000">
						<ele>17</ele>
						<time>2026-07-24T20:14:01Z</time>
					</trkpt>
					<trkpt lat="50.692360" lon="2.915500">
						<ele>18</ele>
						<time>2026-07-24T20:14:10Z</time>
					</trkpt>
					<trkpt lat="50.692180" lon="2.915750">
						<ele>18</ele>
						<time>2026-07-24T20:14:14Z</time>
					</trkpt>
					<trkpt lat="50.692110" lon="2.915750">
						<ele>18</ele>
						<time>2026-07-24T20:14:16Z</time>
					</trkpt>
					<trkpt lat="50.692080" lon="2.915730">
						<ele>18</ele>
						<time>2026-07-24T20:14:16Z</time>
					</trkpt>
					<trkpt lat="50.691830" lon="2.915440">
						<ele>18</ele>
						<time>2026-07-24T20:14:22Z</time>
					</trkpt>
					<trkpt lat="50.691500" lon="2.914850">
						<ele>19</ele>
						<time>2026-07-24T20:14:31Z</time>
					</trkpt>
					<trkpt lat="50.691660" lon="2.914520">
						<ele>18</ele>
						<time>2026-07-24T20:14:35Z</time>
					</trkpt>
					<trkpt lat="50.692030" lon="2.913910">
						<ele>18</ele>
						<time>2026-07-24T20:14:45Z</time>
					</trkpt>
					<trkpt lat="50.692160" lon="2.913730">
						<ele>18</ele>
						<time>2026-07-24T20:14:48Z</time>
					</trkpt>
					<trkpt lat="50.692230" lon="2.913680">
						<ele>18</ele>
						<time>2026-07-24T20:14:49Z</time>
					</trkpt>
					<trkpt lat="50.692440" lon="2.913610">
						<ele>18</ele>
						<time>2026-07-24T20:14:53Z</time>
					</trkpt>
					<trkpt lat="50.692500" lon="2.913570">
						<ele>18</ele>
						<time>2026-07-24T20:14:54Z</time>
					</trkpt>
					<trkpt lat="50.692580" lon="2.913450">
						<ele>18</ele>
						<time>2026-07-24T20:14:56Z</time>
					</trkpt>
					<trkpt lat="50.693050" lon="2.912590">
						<ele>18</ele>
						<time>2026-07-24T20:15:09Z</time>
					</trkpt>
					<trkpt lat="50.693070" lon="2.912500">
						<ele>18</ele>
						<time>2026-07-24T20:15:10Z</time>
					</trkpt>
					<trkpt lat="50.693810" lon="2.912310">
						<ele>18</ele>
						<time>2026-07-24T20:15:23Z</time>
					</trkpt>
					<trkpt lat="50.693930" lon="2.912310">
						<ele>18</ele>
						<time>2026-07-24T20:15:25Z</time>
					</trkpt>
					<trkpt lat="50.694240" lon="2.912420">
						<ele>18</ele>
						<time>2026-07-24T20:15:31Z</time>
					</trkpt>
					<trkpt lat="50.694650" lon="2.911600">
						<ele>17</ele>
						<time>2026-07-24T20:15:43Z</time>
					</trkpt>
					<trkpt lat="50.694710" lon="2.911340">
						<ele>16</ele>
						<time>2026-07-24T20:15:46Z</time>
					</trkpt>
					<trkpt lat="50.694800" lon="2.910630">
						<ele>14</ele>
						<time>2026-07-24T20:15:54Z</time>
					</trkpt>
					<trkpt lat="50.694850" lon="2.910420">
						<ele>14</ele>
						<time>2026-07-24T20:15:57Z</time>
					</trkpt>
					<trkpt lat="50.694920" lon="2.910260">
						<ele>14</ele>
						<time>2026-07-24T20:15:59Z</time>
					</trkpt>
					<trkpt lat="50.695330" lon="2.909610">
						<ele>14</ele>
						<time>2026-07-24T20:16:09Z</time>
					</trkpt>
					<trkpt lat="50.696030" lon="2.908560">
						<ele>12</ele>
						<time>2026-07-24T20:16:26Z</time>
					</trkpt>
					<trkpt lat="50.697190" lon="2.906870">
						<ele>13</ele>
						<time>2026-07-24T20:16:54Z</time>
					</trkpt>
					<trkpt lat="50.698580" lon="2.904760">
						<ele>13</ele>
						<time>2026-07-24T20:17:29Z</time>
					</trkpt>
					<trkpt lat="50.699560" lon="2.903320">
						<ele>13</ele>
						<time>2026-07-24T20:17:53Z</time>
					</trkpt>
					<trkpt lat="50.701470" lon="2.901570">
						<ele>15</ele>
						<time>2026-07-24T20:18:32Z</time>
					</trkpt>
					<trkpt lat="50.705390" lon="2.898040">
						<ele>16</ele>
						<time>2026-07-24T20:19:52Z</time>
					</trkpt>
					<trkpt lat="50.705690" lon="2.897710">
						<ele>17</ele>
						<time>2026-07-24T20:19:59Z</time>
					</trkpt>
					<trkpt lat="50.707030" lon="2.895990">
						<ele>17</ele>
						<time>2026-07-24T20:20:29Z</time>
					</trkpt>
					<trkpt lat="50.708420" lon="2.894270">
						<ele>17</ele>
						<time>2026-07-24T20:21:01Z</time>
					</trkpt>
					<trkpt lat="50.708460" lon="2.894240">
						<ele>17</ele>
						<time>2026-07-24T20:21:02Z</time>
					</trkpt>
					<trkpt lat="50.708540" lon="2.893850">
						<ele>18</ele>
						<time>2026-07-24T20:21:06Z</time>
					</trkpt>
					<trkpt lat="50.708630" lon="2.893800">
						<ele>18</ele>
						<time>2026-07-24T20:21:08Z</time>
					</trkpt>
					<trkpt lat="50.708730" lon="2.893810">
						<ele>18</ele>
						<time>2026-07-24T20:21:10Z</time>
					</trkpt>
					<trkpt lat="50.708800" lon="2.893760">
						<ele>18</ele>
						<time>2026-07-24T20:21:11Z</time>
					</trkpt>
					<trkpt lat="50.709040" lon="2.893540">
						<ele>18</ele>
						<time>2026-07-24T20:21:16Z</time>
					</trkpt>
					<trkpt lat="50.709600" lon="2.893150">
						<ele>18</ele>
						<time>2026-07-24T20:21:27Z</time>
					</trkpt>
					<trkpt lat="50.712350" lon="2.891050">
						<ele>19</ele>
						<time>2026-07-24T20:22:21Z</time>
					</trkpt>
					<trkpt lat="50.713340" lon="2.890360">
						<ele>21</ele>
						<time>2026-07-24T20:22:41Z</time>
					</trkpt>
					<trkpt lat="50.714780" lon="2.889250">
						<ele>18</ele>
						<time>2026-07-24T20:23:09Z</time>
					</trkpt>
					<trkpt lat="50.713580" lon="2.886650">
						<ele>18</ele>
						<time>2026-07-24T20:23:45Z</time>
					</trkpt>
					<trkpt lat="50.713410" lon="2.886310">
						<ele>18</ele>
						<time>2026-07-24T20:23:50Z</time>
					</trkpt>
					<trkpt lat="50.713210" lon="2.885610">
						<ele>17</ele>
						<time>2026-07-24T20:23:59Z</time>
					</trkpt>
					<trkpt lat="50.713110" lon="2.884900">
						<ele>17</ele>
						<time>2026-07-24T20:24:07Z</time>
					</trkpt>
					<trkpt lat="50.711260" lon="2.884640">
						<ele>19</ele>
						<time>2026-07-24T20:24:40Z</time>
					</trkpt>
					<trkpt lat="50.711130" lon="2.884600">
						<ele>18</ele>
						<time>2026-07-24T20:24:42Z</time>
					</trkpt>
					<trkpt lat="50.710980" lon="2.884400">
						<ele>19</ele>
						<time>2026-07-24T20:24:46Z</time>
					</trkpt>
					<trkpt lat="50.710870" lon="2.884150">
						<ele>19</ele>
						<time>2026-07-24T20:24:49Z</time>
					</trkpt>
					<trkpt lat="50.710810" lon="2.884080">
						<ele>19</ele>
						<time>2026-07-24T20:24:51Z</time>
					</trkpt>
					<trkpt lat="50.710550" lon="2.883910">
						<ele>19</ele>
						<time>2026-07-24T20:24:56Z</time>
					</trkpt>
					<trkpt lat="50.710380" lon="2.883610">
						<ele>18</ele>
						<time>2026-07-24T20:25:00Z</time>
					</trkpt>
					<trkpt lat="50.709840" lon="2.881440">
						<ele>18</ele>
						<time>2026-07-24T20:25:26Z</time>
					</trkpt>
					<trkpt lat="50.709780" lon="2.880430">
						<ele>17</ele>
						<time>2026-07-24T20:25:38Z</time>
					</trkpt>
					<trkpt lat="50.709710" lon="2.879940">
						<ele>18</ele>
						<time>2026-07-24T20:25:44Z</time>
					</trkpt>
					<trkpt lat="50.709460" lon="2.879210">
						<ele>19</ele>
						<time>2026-07-24T20:25:53Z</time>
					</trkpt>
					<trkpt lat="50.708020" lon="2.875970">
						<ele>17</ele>
						<time>2026-07-24T20:26:38Z</time>
					</trkpt>
					<trkpt lat="50.707910" lon="2.875610">
						<ele>17</ele>
						<time>2026-07-24T20:26:42Z</time>
					</trkpt>
					<trkpt lat="50.707780" lon="2.874900">
						<ele>17</ele>
						<time>2026-07-24T20:26:50Z</time>
					</trkpt>
					<trkpt lat="50.707720" lon="2.874360">
						<ele>17</ele>
						<time>2026-07-24T20:26:57Z</time>
					</trkpt>
					<trkpt lat="50.707700" lon="2.873100">
						<ele>17</ele>
						<time>2026-07-24T20:27:11Z</time>
					</trkpt>
					<trkpt lat="50.707100" lon="2.868800">
						<ele>17</ele>
						<time>2026-07-24T20:28:00Z</time>
					</trkpt>
					<trkpt lat="50.706990" lon="2.868440">
						<ele>18</ele>
						<time>2026-07-24T20:28:05Z</time>
					</trkpt>
					<trkpt lat="50.706670" lon="2.867800">
						<ele>17</ele>
						<time>2026-07-24T20:28:14Z</time>
					</trkpt>
					<trkpt lat="50.706190" lon="2.867000">
						<ele>17</ele>
						<time>2026-07-24T20:28:26Z</time>
					</trkpt>
					<trkpt lat="50.704870" lon="2.864560">
						<ele>16</ele>
						<time>2026-07-24T20:29:03Z</time>
					</trkpt>
					<trkpt lat="50.704410" lon="2.863760">
						<ele>16</ele>
						<time>2026-07-24T20:29:15Z</time>
					</trkpt>
					<trkpt lat="50.703640" lon="2.862560">
						<ele>15</ele>
						<time>2026-07-24T20:29:34Z</time>
					</trkpt>
					<trkpt lat="50.702740" lon="2.861400">
						<ele>15</ele>
						<time>2026-07-24T20:29:55Z</time>
					</trkpt>
					<trkpt lat="50.701840" lon="2.860460">
						<ele>17</ele>
						<time>2026-07-24T20:30:14Z</time>
					</trkpt>
					<trkpt lat="50.702100" lon="2.860050">
						<ele>17</ele>
						<time>2026-07-24T20:30:20Z</time>
					</trkpt>
					<trkpt lat="50.703210" lon="2.857970">
						<ele>17</ele>
						<time>2026-07-24T20:30:51Z</time>
					</trkpt>
					<trkpt lat="50.703730" lon="2.857170">
						<ele>16</ele>
						<time>2026-07-24T20:31:04Z</time>
					</trkpt>
					<trkpt lat="50.703990" lon="2.856830">
						<ele>15</ele>
						<time>2026-07-24T20:31:10Z</time>
					</trkpt>
					<trkpt lat="50.704410" lon="2.856550">
						<ele>15</ele>
						<time>2026-07-24T20:31:18Z</time>
					</trkpt>
					<trkpt lat="50.706000" lon="2.854560">
						<ele>17</ele>
						<time>2026-07-24T20:31:54Z</time>
					</trkpt>
					<trkpt lat="50.707780" lon="2.852450">
						<ele>17</ele>
						<time>2026-07-24T20:32:34Z</time>
					</trkpt>
					<trkpt lat="50.709480" lon="2.850840">
						<ele>17</ele>
						<time>2026-07-24T20:33:09Z</time>
					</trkpt>
					<trkpt lat="50.710320" lon="2.849710">
						<ele>18</ele>
						<time>2026-07-24T20:33:29Z</time>
					</trkpt>
					<trkpt lat="50.710810" lon="2.849170">
						<ele>17</ele>
						<time>2026-07-24T20:33:39Z</time>
					</trkpt>
					<trkpt lat="50.710900" lon="2.849040">
						<ele>17</ele>
						<time>2026-07-24T20:33:42Z</time>
					</trkpt>
					<trkpt lat="50.713530" lon="2.846680">
						<ele>18</ele>
						<time>2026-07-24T20:34:35Z</time>
					</trkpt>
					<trkpt lat="50.713730" lon="2.846380">
						<ele>18</ele>
						<time>2026-07-24T20:34:40Z</time>
					</trkpt>
					<trkpt lat="50.714050" lon="2.845700">
						<ele>18</ele>
						<time>2026-07-24T20:34:50Z</time>
					</trkpt>
					<trkpt lat="50.714540" lon="2.844540">
						<ele>17</ele>
						<time>2026-07-24T20:35:06Z</time>
					</trkpt>
					<trkpt lat="50.714950" lon="2.843700">
						<ele>16</ele>
						<time>2026-07-24T20:35:17Z</time>
					</trkpt>
					<trkpt lat="50.716690" lon="2.841100">
						<ele>16</ele>
						<time>2026-07-24T20:36:00Z</time>
					</trkpt>
					<trkpt lat="50.716880" lon="2.840870">
						<ele>16</ele>
						<time>2026-07-24T20:36:04Z</time>
					</trkpt>
					<trkpt lat="50.718640" lon="2.839670">
						<ele>17</ele>
						<time>2026-07-24T20:36:38Z</time>
					</trkpt>
					<trkpt lat="50.719260" lon="2.839450">
						<ele>18</ele>
						<time>2026-07-24T20:36:50Z</time>
					</trkpt>
					<trkpt lat="50.719540" lon="2.839410">
						<ele>18</ele>
						<time>2026-07-24T20:36:55Z</time>
					</trkpt>
					<trkpt lat="50.719760" lon="2.839450">
						<ele>17</ele>
						<time>2026-07-24T20:36:59Z</time>
					</trkpt>
					<trkpt lat="50.720550" lon="2.839900">
						<ele>17</ele>
						<time>2026-07-24T20:37:14Z</time>
					</trkpt>
					<trkpt lat="50.721370" lon="2.840480">
						<ele>17</ele>
						<time>2026-07-24T20:37:30Z</time>
					</trkpt>
					<trkpt lat="50.721730" lon="2.840590">
						<ele>18</ele>
						<time>2026-07-24T20:37:36Z</time>
					</trkpt>
					<trkpt lat="50.722270" lon="2.840570">
						<ele>18</ele>
						<time>2026-07-24T20:37:46Z</time>
					</trkpt>
					<trkpt lat="50.722760" lon="2.840480">
						<ele>18</ele>
						<time>2026-07-24T20:37:55Z</time>
					</trkpt>
					<trkpt lat="50.723080" lon="2.840330">
						<ele>18</ele>
						<time>2026-07-24T20:38:01Z</time>
					</trkpt>
					<trkpt lat="50.723530" lon="2.839970">
						<ele>17</ele>
						<time>2026-07-24T20:38:09Z</time>
					</trkpt>
					<trkpt lat="50.725060" lon="2.838210">
						<ele>17</ele>
						<time>2026-07-24T20:38:43Z</time>
					</trkpt>
					<trkpt lat="50.725620" lon="2.837500">
						<ele>18</ele>
						<time>2026-07-24T20:38:56Z</time>
					</trkpt>
					<trkpt lat="50.727400" lon="2.835370">
						<ele>18</ele>
						<time>2026-07-24T20:39:36Z</time>
					</trkpt>
					<trkpt lat="50.728600" lon="2.837710">
						<ele>19</ele>
						<time>2026-07-24T20:40:10Z</time>
					</trkpt>
					<trkpt lat="50.729330" lon="2.839730">
						<ele>18</ele>
						<time>2026-07-24T20:40:36Z</time>
					</trkpt>
					<trkpt lat="50.730080" lon="2.842430">
						<ele>17</ele>
						<time>2026-07-24T20:41:09Z</time>
					</trkpt>
					<trkpt lat="50.730590" lon="2.843740">
						<ele>18</ele>
						<time>2026-07-24T20:41:26Z</time>
					</trkpt>
					<trkpt lat="50.730870" lon="2.845420">
						<ele>19</ele>
						<time>2026-07-24T20:41:46Z</time>
					</trkpt>
					<trkpt lat="50.731020" lon="2.845950">
						<ele>18</ele>
						<time>2026-07-24T20:41:52Z</time>
					</trkpt>
					<trkpt lat="50.731640" lon="2.845460">
						<ele>19</ele>
						<time>2026-07-24T20:42:05Z</time>
					</trkpt>
					<trkpt lat="50.732270" lon="2.844920">
						<ele>18</ele>
						<time>2026-07-24T20:42:18Z</time>
					</trkpt>
					<trkpt lat="50.733320" lon="2.844060">
						<ele>20</ele>
						<time>2026-07-24T20:42:39Z</time>
					</trkpt>
					<trkpt lat="50.734670" lon="2.843100">
						<ele>18</ele>
						<time>2026-07-24T20:43:05Z</time>
					</trkpt>
					<trkpt lat="50.735100" lon="2.842710">
						<ele>18</ele>
						<time>2026-07-24T20:43:14Z</time>
					</trkpt>
					<trkpt lat="50.735640" lon="2.842260">
						<ele>19</ele>
						<time>2026-07-24T20:43:25Z</time>
					</trkpt>
					<trkpt lat="50.737330" lon="2.840950">
						<ele>19</ele>
						<time>2026-07-24T20:43:58Z</time>
					</trkpt>
					<trkpt lat="50.738700" lon="2.839600">
						<ele>22</ele>
						<time>2026-07-24T20:44:27Z</time>
					</trkpt>
					<trkpt lat="50.740720" lon="2.837460">
						<ele>32</ele>
						<time>2026-07-24T20:45:10Z</time>
					</trkpt>
					<trkpt lat="50.741360" lon="2.836830">
						<ele>34</ele>
						<time>2026-07-24T20:45:23Z</time>
					</trkpt>
					<trkpt lat="50.741900" lon="2.836170">
						<ele>35</ele>
						<time>2026-07-24T20:45:36Z</time>
					</trkpt>
					<trkpt lat="50.742480" lon="2.835250">
						<ele>37</ele>
						<time>2026-07-24T20:45:50Z</time>
					</trkpt>
					<trkpt lat="50.743020" lon="2.834580">
						<ele>40</ele>
						<time>2026-07-24T20:46:02Z</time>
					</trkpt>
					<trkpt lat="50.744070" lon="2.833590">
						<ele>46</ele>
						<time>2026-07-24T20:46:24Z</time>
					</trkpt>
					<trkpt lat="50.745660" lon="2.832580">
						<ele>55</ele>
						<time>2026-07-24T20:46:55Z</time>
					</trkpt>
					<trkpt lat="50.746210" lon="2.832180">
						<ele>59</ele>
						<time>2026-07-24T20:47:05Z</time>
					</trkpt>
					<trkpt lat="50.746670" lon="2.831880">
						<ele>61</ele>
						<time>2026-07-24T20:47:14Z</time>
					</trkpt>
					<trkpt lat="50.747460" lon="2.831470">
						<ele>64</ele>
						<time>2026-07-24T20:47:29Z</time>
					</trkpt>
					<trkpt lat="50.747890" lon="2.831320">
						<ele>63</ele>
						<time>2026-07-24T20:47:37Z</time>
					</trkpt>
					<trkpt lat="50.748250" lon="2.831080">
						<ele>61</ele>
						<time>2026-07-24T20:47:44Z</time>
					</trkpt>
					<trkpt lat="50.747370" lon="2.828790">
						<ele>58</ele>
						<time>2026-07-24T20:48:14Z</time>
					</trkpt>
					<trkpt lat="50.747390" lon="2.828590">
						<ele>58</ele>
						<time>2026-07-24T20:48:16Z</time>
					</trkpt>
					<trkpt lat="50.747570" lon="2.828610">
						<ele>57</ele>
						<time>2026-07-24T20:48:20Z</time>
					</trkpt>
					<trkpt lat="50.747870" lon="2.828510">
						<ele>55</ele>
						<time>2026-07-24T20:48:25Z</time>
					</trkpt>
					<trkpt lat="50.751260" lon="2.826980">
						<ele>43</ele>
						<time>2026-07-24T20:49:28Z</time>
					</trkpt>
					<trkpt lat="50.751430" lon="2.826940">
						<ele>43</ele>
						<time>2026-07-24T20:49:31Z</time>
					</trkpt>
					<trkpt lat="50.751410" lon="2.826860">
						<ele>43</ele>
						<time>2026-07-24T20:49:32Z</time>
					</trkpt>
					<trkpt lat="50.751410" lon="2.826770">
						<ele>43</ele>
						<time>2026-07-24T20:49:33Z</time>
					</trkpt>
					<trkpt lat="50.751690" lon="2.826700">
						<ele>44</ele>
						<time>2026-07-24T20:49:38Z</time>
					</trkpt>
					<trkpt lat="50.751940" lon="2.826700">
						<ele>44</ele>
						<time>2026-07-24T20:49:42Z</time>
					</trkpt>
					<trkpt lat="50.753960" lon="2.826830">
						<ele>42</ele>
						<time>2026-07-24T20:50:18Z</time>
					</trkpt>
					<trkpt lat="50.754110" lon="2.826880">
						<ele>42</ele>
						<time>2026-07-24T20:50:21Z</time>
					</trkpt>
					<trkpt lat="50.754950" lon="2.826960">
						<ele>40</ele>
						<time>2026-07-24T20:50:36Z</time>
					</trkpt>
					<trkpt lat="50.755080" lon="2.826920">
						<ele>40</ele>
						<time>2026-07-24T20:50:38Z</time>
					</trkpt>
					<trkpt lat="50.755440" lon="2.826960">
						<ele>39</ele>
						<time>2026-07-24T20:50:45Z</time>
					</trkpt>
					<trkpt lat="50.755780" lon="2.827070">
						<ele>38</ele>
						<time>2026-07-24T20:50:51Z</time>
					</trkpt>
					<trkpt lat="50.756390" lon="2.827390">
						<ele>37</ele>
						<time>2026-07-24T20:51:02Z</time>
					</trkpt>
					<trkpt lat="50.757780" lon="2.828570">
						<ele>34</ele>
						<time>2026-07-24T20:51:30Z</time>
					</trkpt>
					<trkpt lat="50.759800" lon="2.829790">
						<ele>31</ele>
						<time>2026-07-24T20:52:09Z</time>
					</trkpt>
					<trkpt lat="50.759880" lon="2.829920">
						<ele>30</ele>
						<time>2026-07-24T20:52:11Z</time>
					</trkpt>
					<trkpt lat="50.760100" lon="2.830050">
						<ele>30</ele>
						<time>2026-07-24T20:52:15Z</time>
					</trkpt>
					<trkpt lat="50.760330" lon="2.830120">
						<ele>29</ele>
						<time>2026-07-24T20:52:19Z</time>
					</trkpt>
					<trkpt lat="50.760610" lon="2.830310">
						<ele>29</ele>
						<time>2026-07-24T20:52:25Z</time>
					</trkpt>
					<trkpt lat="50.761080" lon="2.830440">
						<ele>28</ele>
						<time>2026-07-24T20:52:33Z</time>
					</trkpt>
					<trkpt lat="50.761560" lon="2.830780">
						<ele>28</ele>
						<time>2026-07-24T20:52:43Z</time>
					</trkpt>
					<trkpt lat="50.762090" lon="2.830800">
						<ele>28</ele>
						<time>2026-07-24T20:52:52Z</time>
					</trkpt>
					<trkpt lat="50.762290" lon="2.830720">
						<ele>28</ele>
						<time>2026-07-24T20:52:56Z</time>
					</trkpt>
					<trkpt lat="50.763290" lon="2.830700">
						<ele>34</ele>
						<time>2026-07-24T20:53:13Z</time>
					</trkpt>
					<trkpt lat="50.763400" lon="2.830760">
						<ele>34</ele>
						<time>2026-07-24T20:53:16Z</time>
					</trkpt>
					<trkpt lat="50.763870" lon="2.830760">
						<ele>37</ele>
						<time>2026-07-24T20:53:24Z</time>
					</trkpt>
					<trkpt lat="50.764110" lon="2.830700">
						<ele>38</ele>
						<time>2026-07-24T20:53:28Z</time>
					</trkpt>
					<trkpt lat="50.765270" lon="2.830160">
						<ele>41</ele>
						<time>2026-07-24T20:53:50Z</time>
					</trkpt>
					<trkpt lat="50.765610" lon="2.829880">
						<ele>40</ele>
						<time>2026-07-24T20:53:57Z</time>
					</trkpt>
					<trkpt lat="50.766170" lon="2.829260">
						<ele>43</ele>
						<time>2026-07-24T20:54:09Z</time>
					</trkpt>
					<trkpt lat="50.766450" lon="2.829040">
						<ele>45</ele>
						<time>2026-07-24T20:54:14Z</time>
					</trkpt>
					<trkpt lat="50.766620" lon="2.828810">
						<ele>46</ele>
						<time>2026-07-24T20:54:18Z</time>
					</trkpt>
					<trkpt lat="50.767330" lon="2.827930">
						<ele>50</ele>
						<time>2026-07-24T20:54:34Z</time>
					</trkpt>
					<trkpt lat="50.767560" lon="2.827730">
						<ele>50</ele>
						<time>2026-07-24T20:54:39Z</time>
					</trkpt>
					<trkpt lat="50.767560" lon="2.827430">
						<ele>49</ele>
						<time>2026-07-24T20:54:42Z</time>
					</trkpt>
					<trkpt lat="50.767650" lon="2.827030">
						<ele>48</ele>
						<time>2026-07-24T20:54:47Z</time>
					</trkpt>
					<trkpt lat="50.768100" lon="2.826300">
						<ele>47</ele>
						<time>2026-07-24T20:54:59Z</time>
					</trkpt>
					<trkpt lat="50.768420" lon="2.825950">
						<ele>49</ele>
						<time>2026-07-24T20:55:06Z</time>
					</trkpt>
					<trkpt lat="50.769970" lon="2.824800">
						<ele>51</ele>
						<time>2026-07-24T20:55:36Z</time>
					</trkpt>
					<trkpt lat="50.770250" lon="2.824490">
						<ele>50</ele>
						<time>2026-07-24T20:55:42Z</time>
					</trkpt>
					<trkpt lat="50.770440" lon="2.824170">
						<ele>50</ele>
						<time>2026-07-24T20:55:47Z</time>
					</trkpt>
					<trkpt lat="50.770570" lon="2.823790">
						<ele>48</ele>
						<time>2026-07-24T20:55:52Z</time>
					</trkpt>
					<trkpt lat="50.770650" lon="2.823400">
						<ele>48</ele>
						<time>2026-07-24T20:55:56Z</time>
					</trkpt>
					<trkpt lat="50.770700" lon="2.822890">
						<ele>47</ele>
						<time>2026-07-24T20:56:02Z</time>
					</trkpt>
					<trkpt lat="50.770680" lon="2.821810">
						<ele>48</ele>
						<time>2026-07-24T20:56:14Z</time>
					</trkpt>
					<trkpt lat="50.770630" lon="2.821280">
						<ele>48</ele>
						<time>2026-07-24T20:56:20Z</time>
					</trkpt>
					<trkpt lat="50.770530" lon="2.820740">
						<ele>48</ele>
						<time>2026-07-24T20:56:27Z</time>
					</trkpt>
					<trkpt lat="50.770380" lon="2.820270">
						<ele>49</ele>
						<time>2026-07-24T20:56:33Z</time>
					</trkpt>
					<trkpt lat="50.770870" lon="2.819750">
						<ele>51</ele>
						<time>2026-07-24T20:56:43Z</time>
					</trkpt>
					<trkpt lat="50.771130" lon="2.819170">
						<ele>53</ele>
						<time>2026-07-24T20:56:51Z</time>
					</trkpt>
					<trkpt lat="50.771340" lon="2.818490">
						<ele>56</ele>
						<time>2026-07-24T20:57:00Z</time>
					</trkpt>
					<trkpt lat="50.771730" lon="2.817690">
						<ele>61</ele>
						<time>2026-07-24T20:57:11Z</time>
					</trkpt>
					<trkpt lat="50.772050" lon="2.817330">
						<ele>63</ele>
						<time>2026-07-24T20:57:18Z</time>
					</trkpt>
					<trkpt lat="50.772160" lon="2.817180">
						<ele>64</ele>
						<time>2026-07-24T20:57:21Z</time>
					</trkpt>
					<trkpt lat="50.772200" lon="2.817010">
						<ele>65</ele>
						<time>2026-07-24T20:57:23Z</time>
					</trkpt>
					<trkpt lat="50.772010" lon="2.816450">
						<ele>66</ele>
						<time>2026-07-24T20:57:30Z</time>
					</trkpt>
					<trkpt lat="50.772160" lon="2.815850">
						<ele>68</ele>
						<time>2026-07-24T20:57:37Z</time>
					</trkpt>
					<trkpt lat="50.772160" lon="2.814820">
						<ele>71</ele>
						<time>2026-07-24T20:57:49Z</time>
					</trkpt>
					<trkpt lat="50.772180" lon="2.814730">
						<ele>72</ele>
						<time>2026-07-24T20:57:50Z</time>
					</trkpt>
					<trkpt lat="50.772410" lon="2.814500">
						<ele>75</ele>
						<time>2026-07-24T20:57:55Z</time>
					</trkpt>
					<trkpt lat="50.773340" lon="2.813890">
						<ele>85</ele>
						<time>2026-07-24T20:58:13Z</time>
					</trkpt>
					<trkpt lat="50.774620" lon="2.812820">
						<ele>101</ele>
						<time>2026-07-24T20:58:38Z</time>
					</trkpt>
					<trkpt lat="50.775010" lon="2.813270">
						<ele>100</ele>
						<time>2026-07-24T20:58:47Z</time>
					</trkpt>
					<trkpt lat="50.775350" lon="2.813620">
						<ele>97</ele>
						<time>2026-07-24T20:58:54Z</time>
					</trkpt>
					<trkpt lat="50.775890" lon="2.813920">
						<ele>99</ele>
						<time>2026-07-24T20:59:04Z</time>
					</trkpt>
					<trkpt lat="50.776020" lon="2.814150">
						<ele>101</ele>
						<time>2026-07-24T20:59:08Z</time>
					</trkpt>
					<trkpt lat="50.776100" lon="2.815310">
						<ele>104</ele>
						<time>2026-07-24T20:59:21Z</time>
					</trkpt>
					<trkpt lat="50.776100" lon="2.816000">
						<ele>105</ele>
						<time>2026-07-24T20:59:29Z</time>
					</trkpt>
					<trkpt lat="50.776150" lon="2.816340">
						<ele>106</ele>
						<time>2026-07-24T20:59:33Z</time>
					</trkpt>
					<trkpt lat="50.776750" lon="2.817970">
						<ele>103</ele>
						<time>2026-07-24T20:59:54Z</time>
					</trkpt>
					<trkpt lat="50.776830" lon="2.818160">
						<ele>103</ele>
						<time>2026-07-24T20:59:56Z</time>
					</trkpt>
					<trkpt lat="50.776790" lon="2.818230">
						<ele>102</ele>
						<time>2026-07-24T20:59:57Z</time>
					</trkpt>
					<trkpt lat="50.776770" lon="2.818400">
						<ele>100</ele>
						<time>2026-07-24T20:59:59Z</time>
					</trkpt>
					<trkpt lat="50.776790" lon="2.818680">
						<ele>98</ele>
						<time>2026-07-24T21:00:03Z</time>
					</trkpt>
					<trkpt lat="50.777050" lon="2.819240">
						<ele>97</ele>
						<time>2026-07-24T21:00:10Z</time>
					</trkpt>
					<trkpt lat="50.777060" lon="2.819380">
						<ele>96</ele>
						<time>2026-07-24T21:00:12Z</time>
					</trkpt>
					<trkpt lat="50.777100" lon="2.819380">
						<ele>97</ele>
						<time>2026-07-24T21:00:13Z</time>
					</trkpt>
					<trkpt lat="50.777120" lon="2.819690">
						<ele>94</ele>
						<time>2026-07-24T21:00:16Z</time>
					</trkpt>
					<trkpt lat="50.777120" lon="2.820160">
						<ele>91</ele>
						<time>2026-07-24T21:00:21Z</time>
					</trkpt>
					<trkpt lat="50.776790" lon="2.821180">
						<ele>86</ele>
						<time>2026-07-24T21:00:34Z</time>
					</trkpt>
					<trkpt lat="50.776570" lon="2.822220">
						<ele>83</ele>
						<time>2026-07-24T21:00:47Z</time>
					</trkpt>
					<trkpt lat="50.776480" lon="2.823130">
						<ele>81</ele>
						<time>2026-07-24T21:00:57Z</time>
					</trkpt>
					<trkpt lat="50.776220" lon="2.824860">
						<ele>79</ele>
						<time>2026-07-24T21:01:17Z</time>
					</trkpt>
					<trkpt lat="50.775940" lon="2.826210">
						<ele>77</ele>
						<time>2026-07-24T21:01:33Z</time>
					</trkpt>
					<trkpt lat="50.775890" lon="2.826600">
						<ele>76</ele>
						<time>2026-07-24T21:01:38Z</time>
					</trkpt>
					<trkpt lat="50.775900" lon="2.827620">
						<ele>76</ele>
						<time>2026-07-24T21:01:49Z</time>
					</trkpt>
					<trkpt lat="50.775830" lon="2.827640">
						<ele>76</ele>
						<time>2026-07-24T21:01:50Z</time>
					</trkpt>
					<trkpt lat="50.775840" lon="2.827820">
						<ele>76</ele>
						<time>2026-07-24T21:01:52Z</time>
					</trkpt>
					<trkpt lat="50.775800" lon="2.828470">
						<ele>76</ele>
						<time>2026-07-24T21:02:00Z</time>
					</trkpt>
					<trkpt lat="50.775790" lon="2.829890">
						<ele>73</ele>
						<time>2026-07-24T21:02:16Z</time>
					</trkpt>
					<trkpt lat="50.775730" lon="2.831460">
						<ele>70</ele>
						<time>2026-07-24T21:02:33Z</time>
					</trkpt>
					<trkpt lat="50.775680" lon="2.831930">
						<ele>69</ele>
						<time>2026-07-24T21:02:39Z</time>
					</trkpt>
					<trkpt lat="50.775540" lon="2.834080">
						<ele>67</ele>
						<time>2026-07-24T21:03:03Z</time>
					</trkpt>
					<trkpt lat="50.775350" lon="2.836340">
						<ele>68</ele>
						<time>2026-07-24T21:03:29Z</time>
					</trkpt>
					<trkpt lat="50.775350" lon="2.836570">
						<ele>68</ele>
						<time>2026-07-24T21:03:31Z</time>
					</trkpt>
					<trkpt lat="50.775420" lon="2.837180">
						<ele>67</ele>
						<time>2026-07-24T21:03:38Z</time>
					</trkpt>
					<trkpt lat="50.775500" lon="2.838100">
						<ele>66</ele>
						<time>2026-07-24T21:03:49Z</time>
					</trkpt>
					<trkpt lat="50.775550" lon="2.840460">
						<ele>64</ele>
						<time>2026-07-24T21:04:15Z</time>
					</trkpt>
					<trkpt lat="50.774390" lon="2.841320">
						<ele>62</ele>
						<time>2026-07-24T21:04:38Z</time>
					</trkpt>
					<trkpt lat="50.773830" lon="2.841940">
						<ele>60</ele>
						<time>2026-07-24T21:04:50Z</time>
					</trkpt>
					<trkpt lat="50.772370" lon="2.843760">
						<ele>53</ele>
						<time>2026-07-24T21:05:23Z</time>
					</trkpt>
					<trkpt lat="50.771110" lon="2.846000">
						<ele>50</ele>
						<time>2026-07-24T21:05:57Z</time>
					</trkpt>
					<trkpt lat="50.770380" lon="2.846830">
						<ele>48</ele>
						<time>2026-07-24T21:06:13Z</time>
					</trkpt>
					<trkpt lat="50.769600" lon="2.847860">
						<ele>44</ele>
						<time>2026-07-24T21:06:31Z</time>
					</trkpt>
					<trkpt lat="50.769130" lon="2.848630">
						<ele>41</ele>
						<time>2026-07-24T21:06:43Z</time>
					</trkpt>
					<trkpt lat="50.768770" lon="2.849190">
						<ele>39</ele>
						<time>2026-07-24T21:06:52Z</time>
					</trkpt>
					<trkpt lat="50.767930" lon="2.850270">
						<ele>37</ele>
						<time>2026-07-24T21:07:11Z</time>
					</trkpt>
					<trkpt lat="50.766770" lon="2.851470">
						<ele>34</ele>
						<time>2026-07-24T21:07:36Z</time>
					</trkpt>
					<trkpt lat="50.766690" lon="2.851600">
						<ele>34</ele>
						<time>2026-07-24T21:07:38Z</time>
					</trkpt>
					<trkpt lat="50.765760" lon="2.853850">
						<ele>30</ele>
						<time>2026-07-24T21:08:08Z</time>
					</trkpt>
					<trkpt lat="50.765550" lon="2.854490">
						<ele>30</ele>
						<time>2026-07-24T21:08:16Z</time>
					</trkpt>
					<trkpt lat="50.764730" lon="2.855910">
						<ele>30</ele>
						<time>2026-07-24T21:08:38Z</time>
					</trkpt>
					<trkpt lat="50.764130" lon="2.856900">
						<ele>30</ele>
						<time>2026-07-24T21:08:54Z</time>
					</trkpt>
					<trkpt lat="50.763750" lon="2.857390">
						<ele>29</ele>
						<time>2026-07-24T21:09:02Z</time>
					</trkpt>
					<trkpt lat="50.763320" lon="2.858270">
						<ele>29</ele>
						<time>2026-07-24T21:09:15Z</time>
					</trkpt>
					<trkpt lat="50.762970" lon="2.858050">
						<ele>29</ele>
						<time>2026-07-24T21:09:21Z</time>
					</trkpt>
					<trkpt lat="50.762800" lon="2.857860">
						<ele>29</ele>
						<time>2026-07-24T21:09:25Z</time>
					</trkpt>
					<trkpt lat="50.762540" lon="2.857430">
						<ele>30</ele>
						<time>2026-07-24T21:09:32Z</time>
					</trkpt>
					<trkpt lat="50.761900" lon="2.855070">
						<ele>30</ele>
						<time>2026-07-24T21:10:01Z</time>
					</trkpt>
					<trkpt lat="50.761810" lon="2.854900">
						<ele>30</ele>
						<time>2026-07-24T21:10:03Z</time>
					</trkpt>
					<trkpt lat="50.761750" lon="2.854880">
						<ele>30</ele>
						<time>2026-07-24T21:10:04Z</time>
					</trkpt>
					<trkpt lat="50.761470" lon="2.854940">
						<ele>30</ele>
						<time>2026-07-24T21:10:09Z</time>
					</trkpt>
					<trkpt lat="50.760870" lon="2.855160">
						<ele>29</ele>
						<time>2026-07-24T21:10:20Z</time>
					</trkpt>
					<trkpt lat="50.760610" lon="2.855310">
						<ele>29</ele>
						<time>2026-07-24T21:10:25Z</time>
					</trkpt>
					<trkpt lat="50.760440" lon="2.855310">
						<ele>30</ele>
						<time>2026-07-24T21:10:28Z</time>
					</trkpt>
					<trkpt lat="50.759970" lon="2.855290">
						<ele>30</ele>
						<time>2026-07-24T21:10:37Z</time>
					</trkpt>
					<trkpt lat="50.759820" lon="2.855270">
						<ele>30</ele>
						<time>2026-07-24T21:10:39Z</time>
					</trkpt>
					<trkpt lat="50.759710" lon="2.855180">
						<ele>29</ele>
						<time>2026-07-24T21:10:42Z</time>
					</trkpt>
					<trkpt lat="50.759430" lon="2.854840">
						<ele>28</ele>
						<time>2026-07-24T21:10:48Z</time>
					</trkpt>
					<trkpt lat="50.759650" lon="2.853810">
						<ele>29</ele>
						<time>2026-07-24T21:11:00Z</time>
					</trkpt>
					<trkpt lat="50.759800" lon="2.853270">
						<ele>29</ele>
						<time>2026-07-24T21:11:07Z</time>
					</trkpt>
					<trkpt lat="50.760010" lon="2.852690">
						<ele>30</ele>
						<time>2026-07-24T21:11:14Z</time>
					</trkpt>
					<trkpt lat="50.760050" lon="2.852450">
						<ele>30</ele>
						<time>2026-07-24T21:11:17Z</time>
					</trkpt>
					<trkpt lat="50.760010" lon="2.852220">
						<ele>30</ele>
						<time>2026-07-24T21:11:20Z</time>
					</trkpt>
					<trkpt lat="50.760030" lon="2.852090">
						<ele>31</ele>
						<time>2026-07-24T21:11:21Z</time>
					</trkpt>
					<trkpt lat="50.760010" lon="2.851770">
						<ele>31</ele>
						<time>2026-07-24T21:11:25Z</time>
					</trkpt>
					<trkpt lat="50.759820" lon="2.851150">
						<ele>29</ele>
						<time>2026-07-24T21:11:33Z</time>
					</trkpt>
					<trkpt lat="50.759750" lon="2.850800">
						<ele>29</ele>
						<time>2026-07-24T21:11:37Z</time>
					</trkpt>
					<trkpt lat="50.759710" lon="2.849580">
						<ele>27</ele>
						<time>2026-07-24T21:11:50Z</time>
					</trkpt>
					<trkpt lat="50.759390" lon="2.845970">
						<ele>26</ele>
						<time>2026-07-24T21:12:31Z</time>
					</trkpt>
					<trkpt lat="50.759390" lon="2.845220">
						<ele>27</ele>
						<time>2026-07-24T21:12:40Z</time>
					</trkpt>
					<trkpt lat="50.759480" lon="2.844510">
						<ele>28</ele>
						<time>2026-07-24T21:12:48Z</time>
					</trkpt>
					<trkpt lat="50.759500" lon="2.843330">
						<ele>27</ele>
						<time>2026-07-24T21:13:01Z</time>
					</trkpt>
					<trkpt lat="50.759520" lon="2.842930">
						<ele>27</ele>
						<time>2026-07-24T21:13:06Z</time>
					</trkpt>
					<trkpt lat="50.759450" lon="2.842350">
						<ele>27</ele>
						<time>2026-07-24T21:13:13Z</time>
					</trkpt>
					<trkpt lat="50.759690" lon="2.840870">
						<ele>27</ele>
						<time>2026-07-24T21:13:30Z</time>
					</trkpt>
					<trkpt lat="50.759780" lon="2.840590">
						<ele>27</ele>
						<time>2026-07-24T21:13:33Z</time>
					</trkpt>
					<trkpt lat="50.758980" lon="2.840440">
						<ele>26</ele>
						<time>2026-07-24T21:13:48Z</time>
					</trkpt>
					<trkpt lat="50.758640" lon="2.840270">
						<ele>27</ele>
						<time>2026-07-24T21:13:54Z</time>
					</trkpt>
					<trkpt lat="50.758250" lon="2.840180">
						<ele>28</ele>
						<time>2026-07-24T21:14:01Z</time>
					</trkpt>
					<trkpt lat="50.756860" lon="2.840010">
						<ele>28</ele>
						<time>2026-07-24T21:14:26Z</time>
					</trkpt>
					<trkpt lat="50.756280" lon="2.840030">
						<ele>29</ele>
						<time>2026-07-24T21:14:36Z</time>
					</trkpt>
					<trkpt lat="50.755630" lon="2.840290">
						<ele>30</ele>
						<time>2026-07-24T21:14:48Z</time>
					</trkpt>
					<trkpt lat="50.753510" lon="2.841580">
						<ele>36</ele>
						<time>2026-07-24T21:15:28Z</time>
					</trkpt>
					<trkpt lat="50.753170" lon="2.840370">
						<ele>38</ele>
						<time>2026-07-24T21:15:43Z</time>
					</trkpt>
					<trkpt lat="50.751240" lon="2.842330">
						<ele>34</ele>
						<time>2026-07-24T21:16:24Z</time>
					</trkpt>
					<trkpt lat="50.748790" lon="2.844360">
						<ele>44</ele>
						<time>2026-07-24T21:17:13Z</time>
					</trkpt>
					<trkpt lat="50.748420" lon="2.844690">
						<ele>45</ele>
						<time>2026-07-24T21:17:21Z</time>
					</trkpt>
					<trkpt lat="50.747540" lon="2.845760">
						<ele>43</ele>
						<time>2026-07-24T21:17:41Z</time>
					</trkpt>
					<trkpt lat="50.747240" lon="2.846360">
						<ele>42</ele>
						<time>2026-07-24T21:17:49Z</time>
					</trkpt>
					<trkpt lat="50.747180" lon="2.846680">
						<ele>41</ele>
						<time>2026-07-24T21:17:53Z</time>
					</trkpt>
					<trkpt lat="50.747200" lon="2.847180">
						<ele>39</ele>
						<time>2026-07-24T21:17:59Z</time>
					</trkpt>
					<trkpt lat="50.747310" lon="2.847630">
						<ele>38</ele>
						<time>2026-07-24T21:18:04Z</time>
					</trkpt>
					<trkpt lat="50.748750" lon="2.853080">
						<ele>34</ele>
						<time>2026-07-24T21:19:11Z</time>
					</trkpt>
					<trkpt lat="50.749330" lon="2.855420">
						<ele>34</ele>
						<time>2026-07-24T21:19:39Z</time>
					</trkpt>
					<trkpt lat="50.749430" lon="2.856120">
						<ele>35</ele>
						<time>2026-07-24T21:19:47Z</time>
					</trkpt>
					<trkpt lat="50.749540" lon="2.859060">
						<ele>32</ele>
						<time>2026-07-24T21:20:20Z</time>
					</trkpt>
					<trkpt lat="50.749540" lon="2.859620">
						<ele>32</ele>
						<time>2026-07-24T21:20:26Z</time>
					</trkpt>
					<trkpt lat="50.749520" lon="2.859840">
						<ele>32</ele>
						<time>2026-07-24T21:20:29Z</time>
					</trkpt>
					<trkpt lat="50.749430" lon="2.860090">
						<ele>32</ele>
						<time>2026-07-24T21:20:32Z</time>
					</trkpt>
					<trkpt lat="50.747950" lon="2.862050">
						<ele>38</ele>
						<time>2026-07-24T21:21:07Z</time>
					</trkpt>
					<trkpt lat="50.747180" lon="2.864620">
						<ele>40</ele>
						<time>2026-07-24T21:21:39Z</time>
					</trkpt>
					<trkpt lat="50.743580" lon="2.864130">
						<ele>23</ele>
						<time>2026-07-24T21:22:43Z</time>
					</trkpt>
					<trkpt lat="50.743380" lon="2.864150">
						<ele>22</ele>
						<time>2026-07-24T21:22:46Z</time>
					</trkpt>
					<trkpt lat="50.739840" lon="2.866900">
						<ele>19</ele>
						<time>2026-07-24T21:23:57Z</time>
					</trkpt>
					<trkpt lat="50.740140" lon="2.867800">
						<ele>18</ele>
						<time>2026-07-24T21:24:08Z</time>
					</trkpt>
					<trkpt lat="50.741560" lon="2.871790">
						<ele>32</ele>
						<time>2026-07-24T21:25:00Z</time>
					</trkpt>
					<trkpt lat="50.741620" lon="2.872050">
						<ele>32</ele>
						<time>2026-07-24T21:25:03Z</time>
					</trkpt>
					<trkpt lat="50.741620" lon="2.872320">
						<ele>33</ele>
						<time>2026-07-24T21:25:06Z</time>
					</trkpt>
					<trkpt lat="50.741450" lon="2.873230">
						<ele>33</ele>
						<time>2026-07-24T21:25:16Z</time>
					</trkpt>
					<trkpt lat="50.741110" lon="2.874230">
						<ele>32</ele>
						<time>2026-07-24T21:25:29Z</time>
					</trkpt>
					<trkpt lat="50.739280" lon="2.879080">
						<ele>27</ele>
						<time>2026-07-24T21:26:33Z</time>
					</trkpt>
					<trkpt lat="50.739240" lon="2.879410">
						<ele>27</ele>
						<time>2026-07-24T21:26:37Z</time>
					</trkpt>
					<trkpt lat="50.739220" lon="2.880480">
						<ele>29</ele>
						<time>2026-07-24T21:26:49Z</time>
					</trkpt>
					<trkpt lat="50.739220" lon="2.882860">
						<ele>25</ele>
						<time>2026-07-24T21:27:15Z</time>
					</trkpt>
					<trkpt lat="50.739200" lon="2.883120">
						<ele>24</ele>
						<time>2026-07-24T21:27:18Z</time>
					</trkpt>
					<trkpt lat="50.739130" lon="2.883220">
						<ele>23</ele>
						<time>2026-07-24T21:27:20Z</time>
					</trkpt>
					<trkpt lat="50.739030" lon="2.883330">
						<ele>22</ele>
						<time>2026-07-24T21:27:22Z</time>
					</trkpt>
					<trkpt lat="50.739430" lon="2.883910">
						<ele>28</ele>
						<time>2026-07-24T21:27:32Z</time>
					</trkpt>
					<trkpt lat="50.739930" lon="2.885050">
						<ele>29</ele>
						<time>2026-07-24T21:27:48Z</time>
					</trkpt>
					<trkpt lat="50.741040" lon="2.887880">
						<ele>31</ele>
						<time>2026-07-24T21:28:25Z</time>
					</trkpt>
					<trkpt lat="50.741260" lon="2.888400">
						<ele>31</ele>
						<time>2026-07-24T21:28:32Z</time>
					</trkpt>
					<trkpt lat="50.741470" lon="2.888820">
						<ele>31</ele>
						<time>2026-07-24T21:28:38Z</time>
					</trkpt>
					<trkpt lat="50.742030" lon="2.889660">
						<ele>32</ele>
						<time>2026-07-24T21:28:52Z</time>
					</trkpt>
					<trkpt lat="50.742310" lon="2.889850">
						<ele>34</ele>
						<time>2026-07-24T21:28:57Z</time>
					</trkpt>
					<trkpt lat="50.743020" lon="2.890010">
						<ele>37</ele>
						<time>2026-07-24T21:29:10Z</time>
					</trkpt>
					<trkpt lat="50.744370" lon="2.895580">
						<ele>28</ele>
						<time>2026-07-24T21:30:17Z</time>
					</trkpt>
					<trkpt lat="50.744430" lon="2.896440">
						<ele>28</ele>
						<time>2026-07-24T21:30:27Z</time>
					</trkpt>
					<trkpt lat="50.744280" lon="2.899170">
						<ele>25</ele>
						<time>2026-07-24T21:30:58Z</time>
					</trkpt>
					<trkpt lat="50.744260" lon="2.899320">
						<ele>25</ele>
						<time>2026-07-24T21:30:59Z</time>
					</trkpt>
					<trkpt lat="50.744260" lon="2.900130">
						<ele>24</ele>
						<time>2026-07-24T21:31:09Z</time>
					</trkpt>
					<trkpt lat="50.744370" lon="2.901660">
						<ele>27</ele>
						<time>2026-07-24T21:31:26Z</time>
					</trkpt>
					<trkpt lat="50.744390" lon="2.902750">
						<ele>28</ele>
						<time>2026-07-24T21:31:38Z</time>
					</trkpt>
					<trkpt lat="50.744350" lon="2.902970">
						<ele>28</ele>
						<time>2026-07-24T21:31:41Z</time>
					</trkpt>
					<trkpt lat="50.744300" lon="2.903050">
						<ele>28</ele>
						<time>2026-07-24T21:31:42Z</time>
					</trkpt>
					<trkpt lat="50.743300" lon="2.903700">
						<ele>26</ele>
						<time>2026-07-24T21:32:01Z</time>
					</trkpt>
					<trkpt lat="50.743040" lon="2.903930">
						<ele>26</ele>
						<time>2026-07-24T21:32:07Z</time>
					</trkpt>
					<trkpt lat="50.742820" lon="2.904530">
						<ele>26</ele>
						<time>2026-07-24T21:32:14Z</time>
					</trkpt>
					<trkpt lat="50.742650" lon="2.905330">
						<ele>27</ele>
						<time>2026-07-24T21:32:24Z</time>
					</trkpt>
					<trkpt lat="50.742590" lon="2.905710">
						<ele>28</ele>
						<time>2026-07-24T21:32:28Z</time>
					</trkpt>
					<trkpt lat="50.742520" lon="2.907020">
						<ele>28</ele>
						<time>2026-07-24T21:32:43Z</time>
					</trkpt>
					<trkpt lat="50.742520" lon="2.907470">
						<ele>29</ele>
						<time>2026-07-24T21:32:48Z</time>
					</trkpt>
					<trkpt lat="50.742930" lon="2.909790">
						<ele>27</ele>
						<time>2026-07-24T21:33:15Z</time>
					</trkpt>
					<trkpt lat="50.742270" lon="2.909980">
						<ele>25</ele>
						<time>2026-07-24T21:33:27Z</time>
					</trkpt>
					<trkpt lat="50.742570" lon="2.911140">
						<ele>24</ele>
						<time>2026-07-24T21:33:41Z</time>
					</trkpt>
					<trkpt lat="50.743120" lon="2.912730">
						<ele>24</ele>
						<time>2026-07-24T21:34:02Z</time>
					</trkpt>
					<trkpt lat="50.743770" lon="2.914140">
						<ele>21</ele>
						<time>2026-07-24T21:34:21Z</time>
					</trkpt>
					<trkpt lat="50.744500" lon="2.915950">
						<ele>22</ele>
						<time>2026-07-24T21:34:46Z</time>
					</trkpt>
					<trkpt lat="50.745120" lon="2.917190">
						<ele>21</ele>
						<time>2026-07-24T21:35:03Z</time>
					</trkpt>
					<trkpt lat="50.745910" lon="2.919250">
						<ele>21</ele>
						<time>2026-07-24T21:35:30Z</time>
					</trkpt>
					<trkpt lat="50.746170" lon="2.920090">
						<ele>21</ele>
						<time>2026-07-24T21:35:41Z</time>
					</trkpt>
					<trkpt lat="50.746340" lon="2.920970">
						<ele>21</ele>
						<time>2026-07-24T21:35:51Z</time>
					</trkpt>
					<trkpt lat="50.746410" lon="2.921660">
						<ele>21</ele>
						<time>2026-07-24T21:35:59Z</time>
					</trkpt>
					<trkpt lat="50.746430" lon="2.923740">
						<ele>22</ele>
						<time>2026-07-24T21:36:23Z</time>
					</trkpt>
					<trkpt lat="50.746710" lon="2.927110">
						<ele>22</ele>
						<time>2026-07-24T21:37:01Z</time>
					</trkpt>
					<trkpt lat="50.746770" lon="2.927340">
						<ele>22</ele>
						<time>2026-07-24T21:37:04Z</time>
					</trkpt>
					<trkpt lat="50.745210" lon="2.929390">
						<ele>19</ele>
						<time>2026-07-24T21:37:40Z</time>
					</trkpt>
					<trkpt lat="50.744970" lon="2.929920">
						<ele>19</ele>
						<time>2026-07-24T21:37:47Z</time>
					</trkpt>
					<trkpt lat="50.744590" lon="2.931340">
						<ele>19</ele>
						<time>2026-07-24T21:38:05Z</time>
					</trkpt>
					<trkpt lat="50.743680" lon="2.930650">
						<ele>20</ele>
						<time>2026-07-24T21:38:22Z</time>
					</trkpt>
					<trkpt lat="50.742160" lon="2.929310">
						<ele>18</ele>
						<time>2026-07-24T21:38:53Z</time>
					</trkpt>
					<trkpt lat="50.741780" lon="2.928940">
						<ele>18</ele>
						<time>2026-07-24T21:39:01Z</time>
					</trkpt>
					<trkpt lat="50.741330" lon="2.928390">
						<ele>19</ele>
						<time>2026-07-24T21:39:12Z</time>
					</trkpt>
					<trkpt lat="50.740430" lon="2.927120">
						<ele>18</ele>
						<time>2026-07-24T21:39:33Z</time>
					</trkpt>
					<trkpt lat="50.740290" lon="2.926840">
						<ele>18</ele>
						<time>2026-07-24T21:39:37Z</time>
					</trkpt>
					<trkpt lat="50.740250" lon="2.926680">
						<ele>17</ele>
						<time>2026-07-24T21:39:39Z</time>
					</trkpt>
					<trkpt lat="50.740220" lon="2.926200">
						<ele>17</ele>
						<time>2026-07-24T21:39:44Z</time>
					</trkpt>
					<trkpt lat="50.740200" lon="2.926090">
						<ele>17</ele>
						<time>2026-07-24T21:39:46Z</time>
					</trkpt>
					<trkpt lat="50.740170" lon="2.926020">
						<ele>17</ele>
						<time>2026-07-24T21:39:47Z</time>
					</trkpt>
					<trkpt lat="50.740000" lon="2.925900">
						<ele>17</ele>
						<time>2026-07-24T21:39:50Z</time>
					</trkpt>
					<trkpt lat="50.740150" lon="2.928110">
						<ele>18</ele>
						<time>2026-07-24T21:40:15Z</time>
					</trkpt>
					<trkpt lat="50.740260" lon="2.928800">
						<ele>17</ele>
						<time>2026-07-24T21:40:23Z</time>
					</trkpt>
					<trkpt lat="50.740160" lon="2.928810">
						<ele>17</ele>
						<time>2026-07-24T21:40:25Z</time>
					</trkpt>
					<trkpt lat="50.740120" lon="2.928740">
						<ele>18</ele>
						<time>2026-07-24T21:40:26Z</time>
					</trkpt>
					<trkpt lat="50.740000" lon="2.928200">
						<ele>18</ele>
						<time>2026-07-24T21:40:32Z</time>
					</trkpt>
					<trkpt lat="50.739850" lon="2.927920">
						<ele>18</ele>
						<time>2026-07-24T21:40:36Z</time>
					</trkpt>
					<trkpt lat="50.739000" lon="2.926680">
						<ele>18</ele>
						<time>2026-07-24T21:40:57Z</time>
					</trkpt>
					<trkpt lat="50.738250" lon="2.925360">
						<ele>17</ele>
						<time>2026-07-24T21:41:17Z</time>
					</trkpt>
					<trkpt lat="50.737900" lon="2.924830">
						<ele>16</ele>
						<time>2026-07-24T21:41:26Z</time>
					</trkpt>
					<trkpt lat="50.736300" lon="2.922520">
						<ele>15</ele>
						<time>2026-07-24T21:42:04Z</time>
					</trkpt>
					<trkpt lat="50.735200" lon="2.921060">
						<ele>16</ele>
						<time>2026-07-24T21:42:30Z</time>
					</trkpt>
					<trkpt lat="50.734780" lon="2.920530">
						<ele>17</ele>
						<time>2026-07-24T21:42:39Z</time>
					</trkpt>
					<trkpt lat="50.734100" lon="2.919750">
						<ele>18</ele>
						<time>2026-07-24T21:42:54Z</time>
					</trkpt>
					<trkpt lat="50.733600" lon="2.919230">
						<ele>17</ele>
						<time>2026-07-24T21:43:05Z</time>
					</trkpt>
					<trkpt lat="50.732600" lon="2.918290">
						<ele>16</ele>
						<time>2026-07-24T21:43:26Z</time>
					</trkpt>
					<trkpt lat="50.731750" lon="2.917600">
						<ele>15</ele>
						<time>2026-07-24T21:43:43Z</time>
					</trkpt>
					<trkpt lat="50.731130" lon="2.917150">
						<ele>15</ele>
						<time>2026-07-24T21:43:55Z</time>
					</trkpt>
					<trkpt lat="50.728790" lon="2.915620">
						<ele>16</ele>
						<time>2026-07-24T21:44:40Z</time>
					</trkpt>
					<trkpt lat="50.728060" lon="2.915160">
						<ele>17</ele>
						<time>2026-07-24T21:44:54Z</time>
					</trkpt>
					<trkpt lat="50.727580" lon="2.914910">
						<ele>17</ele>
						<time>2026-07-24T21:45:03Z</time>
					</trkpt>
					<trkpt lat="50.726870" lon="2.914500">
						<ele>17</ele>
						<time>2026-07-24T21:45:16Z</time>
					</trkpt>
					<trkpt lat="50.726580" lon="2.914390">
						<ele>17</ele>
						<time>2026-07-24T21:45:21Z</time>
					</trkpt>
					<trkpt lat="50.726370" lon="2.914380">
						<ele>17</ele>
						<time>2026-07-24T21:45:25Z</time>
					</trkpt>
					<trkpt lat="50.726210" lon="2.914530">
						<ele>17</ele>
						<time>2026-07-24T21:45:29Z</time>
					</trkpt>
					<trkpt lat="50.725710" lon="2.914920">
						<ele>17</ele>
						<time>2026-07-24T21:45:38Z</time>
					</trkpt>
					<trkpt lat="50.725210" lon="2.915370">
						<ele>17</ele>
						<time>2026-07-24T21:45:49Z</time>
					</trkpt>
					<trkpt lat="50.724600" lon="2.915980">
						<ele>17</ele>
						<time>2026-07-24T21:46:02Z</time>
					</trkpt>
					<trkpt lat="50.723920" lon="2.916620">
						<ele>17</ele>
						<time>2026-07-24T21:46:16Z</time>
					</trkpt>
					<trkpt lat="50.722570" lon="2.917770">
						<ele>16</ele>
						<time>2026-07-24T21:46:43Z</time>
					</trkpt>
					<trkpt lat="50.721950" lon="2.918350">
						<ele>17</ele>
						<time>2026-07-24T21:46:56Z</time>
					</trkpt>
					<trkpt lat="50.720650" lon="2.919670">
						<ele>16</ele>
						<time>2026-07-24T21:47:23Z</time>
					</trkpt>
					<trkpt lat="50.720250" lon="2.919930">
						<ele>16</ele>
						<time>2026-07-24T21:47:31Z</time>
					</trkpt>
					<trkpt lat="50.719770" lon="2.920320">
						<ele>15</ele>
						<time>2026-07-24T21:47:41Z</time>
					</trkpt>
					<trkpt lat="50.715770" lon="2.923910">
						<ele>14</ele>
						<time>2026-07-24T21:49:02Z</time>
					</trkpt>
					<trkpt lat="50.715140" lon="2.924380">
						<ele>14</ele>
						<time>2026-07-24T21:49:15Z</time>
					</trkpt>
					<trkpt lat="50.714760" lon="2.924720">
						<ele>14</ele>
						<time>2026-07-24T21:49:23Z</time>
					</trkpt>
					<trkpt lat="50.714760" lon="2.924830">
						<ele>14</ele>
						<time>2026-07-24T21:49:24Z</time>
					</trkpt>
					<trkpt lat="50.714530" lon="2.925630">
						<ele>13</ele>
						<time>2026-07-24T21:49:34Z</time>
					</trkpt>
					<trkpt lat="50.712960" lon="2.929650">
						<ele>12</ele>
						<time>2026-07-24T21:50:27Z</time>
					</trkpt>
					<trkpt lat="50.712810" lon="2.930250">
						<ele>13</ele>
						<time>2026-07-24T21:50:34Z</time>
					</trkpt>
					<trkpt lat="50.712730" lon="2.930810">
						<ele>15</ele>
						<time>2026-07-24T21:50:41Z</time>
					</trkpt>
					<trkpt lat="50.712680" lon="2.931430">
						<ele>17</ele>
						<time>2026-07-24T21:50:48Z</time>
					</trkpt>
					<trkpt lat="50.712610" lon="2.932020">
						<ele>18</ele>
						<time>2026-07-24T21:50:54Z</time>
					</trkpt>
					<trkpt lat="50.712530" lon="2.932260">
						<ele>19</ele>
						<time>2026-07-24T21:50:58Z</time>
					</trkpt>
					<trkpt lat="50.712500" lon="2.932310">
						<ele>19</ele>
						<time>2026-07-24T21:50:58Z</time>
					</trkpt>
					<trkpt lat="50.712350" lon="2.932300">
						<ele>18</ele>
						<time>2026-07-24T21:51:01Z</time>
					</trkpt>
					<trkpt lat="50.711860" lon="2.932400">
						<ele>17</ele>
						<time>2026-07-24T21:51:10Z</time>
					</trkpt>
					<trkpt lat="50.711130" lon="2.932650">
						<ele>17</ele>
						<time>2026-07-24T21:51:23Z</time>
					</trkpt>
					<trkpt lat="50.711030" lon="2.932650">
						<ele>17</ele>
						<time>2026-07-24T21:51:25Z</time>
					</trkpt>
					<trkpt lat="50.711010" lon="2.932570">
						<ele>17</ele>
						<time>2026-07-24T21:51:26Z</time>
					</trkpt>
					<trkpt lat="50.710940" lon="2.932530">
						<ele>17</ele>
						<time>2026-07-24T21:51:27Z</time>
					</trkpt>
					<trkpt lat="50.710880" lon="2.932590">
						<ele>17</ele>
						<time>2026-07-24T21:51:28Z</time>
					</trkpt>
					<trkpt lat="50.710870" lon="2.932650">
						<ele>17</ele>
						<time>2026-07-24T21:51:29Z</time>
					</trkpt>
					<trkpt lat="50.710570" lon="2.932580">
						<ele>18</ele>
						<time>2026-07-24T21:51:34Z</time>
					</trkpt>
					<trkpt lat="50.708270" lon="2.930520">
						<ele>16</ele>
						<time>2026-07-24T21:52:22Z</time>
					</trkpt>
					<trkpt lat="50.707150" lon="2.929090">
						<ele>17</ele>
						<time>2026-07-24T21:52:47Z</time>
					</trkpt>
					<trkpt lat="50.706960" lon="2.928800">
						<ele>16</ele>
						<time>2026-07-24T21:52:52Z</time>
					</trkpt>
					<trkpt lat="50.706500" lon="2.927990">
						<ele>14</ele>
						<time>2026-07-24T21:53:04Z</time>
					</trkpt>
					<trkpt lat="50.706450" lon="2.927840">
						<ele>14</ele>
						<time>2026-07-24T21:53:06Z</time>
					</trkpt>
					<trkpt lat="50.706400" lon="2.927750">
						<ele>14</ele>
						<time>2026-07-24T21:53:07Z</time>
					</trkpt>
					<trkpt lat="50.706360" lon="2.927740">
						<ele>14</ele>
						<time>2026-07-24T21:53:08Z</time>
					</trkpt>
					<trkpt lat="50.706170" lon="2.927320">
						<ele>14</ele>
						<time>2026-07-24T21:53:14Z</time>
					</trkpt>
					<trkpt lat="50.706030" lon="2.927110">
						<ele>14</ele>
						<time>2026-07-24T21:53:17Z</time>
					</trkpt>
					<trkpt lat="50.705740" lon="2.926590">
						<ele>14</ele>
						<time>2026-07-24T21:53:25Z</time>
					</trkpt>
					<trkpt lat="50.705540" lon="2.926290">
						<ele>14</ele>
						<time>2026-07-24T21:53:30Z</time>
					</trkpt>
					<trkpt lat="50.705270" lon="2.925960">
						<ele>14</ele>
						<time>2026-07-24T21:53:36Z</time>
					</trkpt>
					<trkpt lat="50.704620" lon="2.925310">
						<ele>13</ele>
						<time>2026-07-24T21:53:50Z</time>
					</trkpt>
					<trkpt lat="50.703510" lon="2.924240">
						<ele>12</ele>
						<time>2026-07-24T21:54:13Z</time>
					</trkpt>
					<trkpt lat="50.702710" lon="2.923000">
						<ele>14</ele>
						<time>2026-07-24T21:54:33Z</time>
					</trkpt>
					<trkpt lat="50.702560" lon="2.922630">
						<ele>14</ele>
						<time>2026-07-24T21:54:38Z</time>
					</trkpt>
					<trkpt lat="50.702320" lon="2.921960">
						<ele>15</ele>
						<time>2026-07-24T21:54:47Z</time>
					</trkpt>
					<trkpt lat="50.702160" lon="2.921640">
						<ele>16</ele>
						<time>2026-07-24T21:54:51Z</time>
					</trkpt>
					<trkpt lat="50.701760" lon="2.921110">
						<ele>17</ele>
						<time>2026-07-24T21:55:00Z</time>
					</trkpt>
					<trkpt lat="50.701230" lon="2.920470">
						<ele>15</ele>
						<time>2026-07-24T21:55:12Z</time>
					</trkpt>
					<trkpt lat="50.700710" lon="2.919950">
						<ele>13</ele>
						<time>2026-07-24T21:55:23Z</time>
					</trkpt>
					<trkpt lat="50.700580" lon="2.919730">
						<ele>14</ele>
						<time>2026-07-24T21:55:27Z</time>
					</trkpt>
					<trkpt lat="50.700220" lon="2.918900">
						<ele>15</ele>
						<time>2026-07-24T21:55:38Z</time>
					</trkpt>
					<trkpt lat="50.700010" lon="2.918360">
						<ele>14</ele>
						<time>2026-07-24T21:55:45Z</time>
					</trkpt>
					<trkpt lat="50.699850" lon="2.918080">
						<ele>14</ele>
						<time>2026-07-24T21:55:49Z</time>
					</trkpt>
					<trkpt lat="50.699630" lon="2.917810">
						<ele>14</ele>
						<time>2026-07-24T21:55:54Z</time>
					</trkpt>
					<trkpt lat="50.699090" lon="2.917330">
						<ele>14</ele>
						<time>2026-07-24T21:56:05Z</time>
					</trkpt>
					<trkpt lat="50.698310" lon="2.916420">
						<ele>15</ele>
						<time>2026-07-24T21:56:23Z</time>
					</trkpt>
					<trkpt lat="50.698250" lon="2.916270">
						<ele>15</ele>
						<time>2026-07-24T21:56:25Z</time>
					</trkpt>
					<trkpt lat="50.697280" lon="2.915140">
						<ele>16</ele>
						<time>2026-07-24T21:56:46Z</time>
					</trkpt>
					<trkpt lat="50.697230" lon="2.915120">
						<ele>16</ele>
						<time>2026-07-24T21:56:47Z</time>
					</trkpt>
					<trkpt lat="50.696900" lon="2.914750">
						<ele>15</ele>
						<time>2026-07-24T21:56:54Z</time>
					</trkpt>
					<trkpt lat="50.695770" lon="2.913750">
						<ele>16</ele>
						<time>2026-07-24T21:57:17Z</time>
					</trkpt>
					<trkpt lat="50.695020" lon="2.913170">
						<ele>15</ele>
						<time>2026-07-24T21:57:32Z</time>
					</trkpt>
					<trkpt lat="50.694240" lon="2.912420">
						<ele>18</ele>
						<time>2026-07-24T21:57:48Z</time>
					</trkpt>
					<trkpt lat="50.693870" lon="2.913080">
						<ele>18</ele>
						<time>2026-07-24T21:57:58Z</time>
					</trkpt>
					<trkpt lat="50.693640" lon="2.913420">
						<ele>18</ele>
						<time>2026-07-24T21:58:04Z</time>
					</trkpt>
					<trkpt lat="50.693990" lon="2.914050">
						<ele>18</ele>
						<time>2026-07-24T21:58:13Z</time>
					</trkpt>
					<trkpt lat="50.693670" lon="2.914570">
						<ele>19</ele>
						<time>2026-07-24T21:58:21Z</time>
					</trkpt>
					<trkpt lat="50.693920" lon="2.914960">
						<ele>19</ele>
						<time>2026-07-24T21:58:28Z</time>
					</trkpt>
					<trkpt lat="50.693320" lon="2.915920">
						<ele>18</ele>
						<time>2026-07-24T21:58:43Z</time>
					</trkpt>
					<trkpt lat="50.693250" lon="2.915820">
						<ele>18</ele>
						<time>2026-07-24T21:58:45Z</time>
					</trkpt>
					</trkseg>
				</trk>
			</gpx>